<?xml version="1.0" encoding="UTF-8"?>
<gpx creator="StravaGPX" version="1.1" xmlns="http://www.topografix.com/GPX/1/1" xmlns:xsi="http://www.w3.org/2001/XMLSchema-instance" xsi:schemaLocation="http://www.topografix.com/GPX/1/1 http://www.topografix.com/GPX/1/1/gpx.xsd">
 <metadata>
  <name>OA26-Congorit-29Km-230Hm</name>
  <author>
   <name>Haecky 🐻</name>
   <link href="https://www.strava.com/athletes/1643587"/>
  </author>
  <copyright author="OpenStreetMap contributors">
   <year>2020</year>
   <license>https://www.openstreetmap.org/copyright</license>
  </copyright>
  <link href="https://www.strava.com/routes/3525539993501290458"/>
 </metadata>
 <trk>
  <name>OA26-Congorit-29Km-230Hm</name>
  <link href="https://www.strava.com/routes/3525539993501290458"/>
  <type>cycling</type>
  <trkseg>
   <trkpt lat="50.87886" lon="4.551360000000001">
    <ele>51.17000000000001</ele>
   </trkpt>
   <trkpt lat="50.87879" lon="4.5508500000000005">
    <ele>51.550000000000004</ele>
   </trkpt>
   <trkpt lat="50.87858000000001" lon="4.54961">
    <ele>52.04</ele>
   </trkpt>
   <trkpt lat="50.87847000000001" lon="4.54905">
    <ele>52.46000000000001</ele>
   </trkpt>
   <trkpt lat="50.87825" lon="4.548290000000001">
    <ele>53.910000000000004</ele>
   </trkpt>
   <trkpt lat="50.87805" lon="4.54776">
    <ele>55.07000000000001</ele>
   </trkpt>
   <trkpt lat="50.87782000000001" lon="4.547280000000001">
    <ele>55.74</ele>
   </trkpt>
   <trkpt lat="50.87752000299403" lon="4.54643999453588">
    <ele>55.61000000000001</ele>
   </trkpt>
   <trkpt lat="50.87722" lon="4.5456">
    <ele>54.81</ele>
   </trkpt>
   <trkpt lat="50.87682500286735" lon="4.544769992806154">
    <ele>55.330000000000005</ele>
   </trkpt>
   <trkpt lat="50.876430000000006" lon="4.54394">
    <ele>56.290000000000006</ele>
   </trkpt>
   <trkpt lat="50.876340000000006" lon="4.54377">
    <ele>56.790000000000006</ele>
   </trkpt>
   <trkpt lat="50.87630000000001" lon="4.54377">
    <ele>56.790000000000006</ele>
   </trkpt>
   <trkpt lat="50.87603000000001" lon="4.54283">
    <ele>57.17</ele>
   </trkpt>
   <trkpt lat="50.87595" lon="4.54241">
    <ele>57.14</ele>
   </trkpt>
   <trkpt lat="50.87592" lon="4.54209">
    <ele>57.080000000000005</ele>
   </trkpt>
   <trkpt lat="50.87597" lon="4.541580000000001">
    <ele>55.53</ele>
   </trkpt>
   <trkpt lat="50.876050000000006" lon="4.541250000000001">
    <ele>55.31</ele>
   </trkpt>
   <trkpt lat="50.87628" lon="4.540710000000001">
    <ele>54.690000000000005</ele>
   </trkpt>
   <trkpt lat="50.876340000000006" lon="4.5404800000000005">
    <ele>55.07000000000001</ele>
   </trkpt>
   <trkpt lat="50.876380000000005" lon="4.540220000000001">
    <ele>55.07000000000001</ele>
   </trkpt>
   <trkpt lat="50.87651" lon="4.53904">
    <ele>55.900000000000006</ele>
   </trkpt>
   <trkpt lat="50.876560000000005" lon="4.5381100000000005">
    <ele>56.480000000000004</ele>
   </trkpt>
   <trkpt lat="50.87653" lon="4.53716">
    <ele>55.66</ele>
   </trkpt>
   <trkpt lat="50.876415003826146" lon="4.536209997414435">
    <ele>54.82000000000001</ele>
   </trkpt>
   <trkpt lat="50.87630000000001" lon="4.53526">
    <ele>54.830000000000005</ele>
   </trkpt>
   <trkpt lat="50.87615" lon="4.5344500000000005">
    <ele>55.34</ele>
   </trkpt>
   <trkpt lat="50.87604" lon="4.5340300000000004">
    <ele>55.34</ele>
   </trkpt>
   <trkpt lat="50.87586" lon="4.53348">
    <ele>56.09</ele>
   </trkpt>
   <trkpt lat="50.875540005620536" lon="4.532669988914285">
    <ele>57.03</ele>
   </trkpt>
   <trkpt lat="50.875220005635434" lon="4.531859988952142">
    <ele>58.09</ele>
   </trkpt>
   <trkpt lat="50.874900000000004" lon="4.5310500000000005">
    <ele>58.88</ele>
   </trkpt>
   <trkpt lat="50.87456" lon="4.5299700000000005">
    <ele>60.67</ele>
   </trkpt>
   <trkpt lat="50.87423001643135" lon="4.528837475924065">
    <ele>62.85</ele>
   </trkpt>
   <trkpt lat="50.87390002190445" lon="4.52770496788552">
    <ele>72.81</ele>
   </trkpt>
   <trkpt lat="50.87357001641958" lon="4.526572475884484">
    <ele>72.81</ele>
   </trkpt>
   <trkpt lat="50.87324" lon="4.525440000000001">
    <ele>72.81</ele>
   </trkpt>
   <trkpt lat="50.87317" lon="4.525180000000001">
    <ele>72.32000000000001</ele>
   </trkpt>
   <trkpt lat="50.87319" lon="4.52505">
    <ele>72.13</ele>
   </trkpt>
   <trkpt lat="50.87312000000001" lon="4.52487">
    <ele>72.13</ele>
   </trkpt>
   <trkpt lat="50.873050000000006" lon="4.5248">
    <ele>72.48</ele>
   </trkpt>
   <trkpt lat="50.87306" lon="4.5245500000000005">
    <ele>72.61</ele>
   </trkpt>
   <trkpt lat="50.87282500454509" lon="4.523519994863547">
    <ele>72.56</ele>
   </trkpt>
   <trkpt lat="50.87259" lon="4.52249">
    <ele>72.41</ele>
   </trkpt>
   <trkpt lat="50.87240500360122" lon="4.521574996489936">
    <ele>70.84</ele>
   </trkpt>
   <trkpt lat="50.872220000000006" lon="4.52066">
    <ele>70.49000000000001</ele>
   </trkpt>
   <trkpt lat="50.872060000000005" lon="4.52003">
    <ele>69.81000000000002</ele>
   </trkpt>
   <trkpt lat="50.87187500218758" lon="4.5193099970370705">
    <ele>69.62</ele>
   </trkpt>
   <trkpt lat="50.87169" lon="4.5185900000000006">
    <ele>69.14</ele>
   </trkpt>
   <trkpt lat="50.87143000245344" lon="4.517829995719445">
    <ele>68.8</ele>
   </trkpt>
   <trkpt lat="50.871170000000006" lon="4.51707">
    <ele>68.54</ele>
   </trkpt>
   <trkpt lat="50.870995002016834" lon="4.516384997476349">
    <ele>68.24000000000001</ele>
   </trkpt>
   <trkpt lat="50.87082" lon="4.515700000000001">
    <ele>67.96000000000001</ele>
   </trkpt>
   <trkpt lat="50.87077000000001" lon="4.5154000000000005">
    <ele>67.68</ele>
   </trkpt>
   <trkpt lat="50.870680005461885" lon="4.514269997905185">
    <ele>67.17</ele>
   </trkpt>
   <trkpt lat="50.87059000000001" lon="4.51314">
    <ele>66.75</ele>
   </trkpt>
   <trkpt lat="50.870500003564835" lon="4.512229998517622">
    <ele>66.14</ele>
   </trkpt>
   <trkpt lat="50.87041000000001" lon="4.51132">
    <ele>65.27000000000001</ele>
   </trkpt>
   <trkpt lat="50.87035" lon="4.51003">
    <ele>65.06</ele>
   </trkpt>
   <trkpt lat="50.870270000000005" lon="4.50898">
    <ele>65.43</ele>
   </trkpt>
   <trkpt lat="50.870180000000005" lon="4.508050000000001">
    <ele>66.11</ele>
   </trkpt>
   <trkpt lat="50.870025006018494" lon="4.506864996209253">
    <ele>66.49000000000001</ele>
   </trkpt>
   <trkpt lat="50.869870000000006" lon="4.505680000000001">
    <ele>66.67</ele>
   </trkpt>
   <trkpt lat="50.86980500247388" lon="4.504914998624425">
    <ele>66.72</ele>
   </trkpt>
   <trkpt lat="50.86974000000001" lon="4.50415">
    <ele>66.77000000000001</ele>
   </trkpt>
   <trkpt lat="50.86972334799479" lon="4.502839998976645">
    <ele>66.88000000000001</ele>
   </trkpt>
   <trkpt lat="50.86970668132701" lon="4.501529998889664">
    <ele>67.5</ele>
   </trkpt>
   <trkpt lat="50.869690000000006" lon="4.5002200000000006">
    <ele>68.39</ele>
   </trkpt>
   <trkpt lat="50.86970836961739" lon="4.498916669240707">
    <ele>67.60000000000001</ele>
   </trkpt>
   <trkpt lat="50.869726724721126" lon="4.497613337454572">
    <ele>67.60000000000001</ele>
   </trkpt>
   <trkpt lat="50.8697450653112" lon="4.496310004642408">
    <ele>67.43</ele>
   </trkpt>
   <trkpt lat="50.86976339138759" lon="4.4950066708050205">
    <ele>67.43</ele>
   </trkpt>
   <trkpt lat="50.86978170295026" lon="4.493703335943224">
    <ele>67.43</ele>
   </trkpt>
   <trkpt lat="50.869800000000005" lon="4.4924">
    <ele>67.43</ele>
   </trkpt>
   <trkpt lat="50.869820000000004" lon="4.49204">
    <ele>70.10000000000001</ele>
   </trkpt>
   <trkpt lat="50.869870000000006" lon="4.49172">
    <ele>70.03</ele>
   </trkpt>
   <trkpt lat="50.869960000000006" lon="4.49146">
    <ele>69.96000000000001</ele>
   </trkpt>
   <trkpt lat="50.869960000000006" lon="4.49145">
    <ele>67.72</ele>
   </trkpt>
   <trkpt lat="50.87029501126145" lon="4.490512520220722">
    <ele>67.72</ele>
   </trkpt>
   <trkpt lat="50.87063001501366" lon="4.489575026965834">
    <ele>66.46000000000001</ele>
   </trkpt>
   <trkpt lat="50.87096501125645" lon="4.488637520235282">
    <ele>66.46000000000001</ele>
   </trkpt>
   <trkpt lat="50.871300000000005" lon="4.4877">
    <ele>66.46000000000001</ele>
   </trkpt>
   <trkpt lat="50.871640000000006" lon="4.486940000000001">
    <ele>68.81</ele>
   </trkpt>
   <trkpt lat="50.871700000000004" lon="4.486870000000001">
    <ele>68.71000000000001</ele>
   </trkpt>
   <trkpt lat="50.87171000000001" lon="4.48672">
    <ele>67.83</ele>
   </trkpt>
   <trkpt lat="50.87169" lon="4.48665">
    <ele>67.83</ele>
   </trkpt>
   <trkpt lat="50.87165" lon="4.4866">
    <ele>67.83</ele>
   </trkpt>
   <trkpt lat="50.8716" lon="4.4865900000000005">
    <ele>68.01</ele>
   </trkpt>
   <trkpt lat="50.871610000000004" lon="4.4865900000000005">
    <ele>68.01</ele>
   </trkpt>
   <trkpt lat="50.87156" lon="4.4865900000000005">
    <ele>68.01</ele>
   </trkpt>
   <trkpt lat="50.87153000000001" lon="4.486630000000001">
    <ele>68.67</ele>
   </trkpt>
   <trkpt lat="50.87149" lon="4.48674">
    <ele>68.67</ele>
   </trkpt>
   <trkpt lat="50.87138" lon="4.486750000000001">
    <ele>68.65</ele>
   </trkpt>
   <trkpt lat="50.87082" lon="4.487">
    <ele>70.32000000000001</ele>
   </trkpt>
   <trkpt lat="50.87073" lon="4.48702">
    <ele>70.32000000000001</ele>
   </trkpt>
   <trkpt lat="50.869893334661086" lon="4.4874100139871915">
    <ele>73.46000000000001</ele>
   </trkpt>
   <trkpt lat="50.86905666802255" lon="4.487800013973764">
    <ele>73.97000000000001</ele>
   </trkpt>
   <trkpt lat="50.86822" lon="4.48819">
    <ele>73.44</ele>
   </trkpt>
   <trkpt lat="50.868080000000006" lon="4.48831">
    <ele>73.44</ele>
   </trkpt>
   <trkpt lat="50.86789" lon="4.48867">
    <ele>73.34</ele>
   </trkpt>
   <trkpt lat="50.86784" lon="4.488860000000001">
    <ele>73.34</ele>
   </trkpt>
   <trkpt lat="50.867810000000006" lon="4.48908">
    <ele>73.34</ele>
   </trkpt>
   <trkpt lat="50.86786500324624" lon="4.489954998575906">
    <ele>73.38</ele>
   </trkpt>
   <trkpt lat="50.867920000000005" lon="4.490830000000001">
    <ele>73.45</ele>
   </trkpt>
   <trkpt lat="50.868030000000005" lon="4.49188">
    <ele>73.24</ele>
   </trkpt>
   <trkpt lat="50.86818000473082" lon="4.492934996435353">
    <ele>73.55</ele>
   </trkpt>
   <trkpt lat="50.86833000000001" lon="4.49399">
    <ele>73.39000000000001</ele>
   </trkpt>
   <trkpt lat="50.86842000000001" lon="4.4946">
    <ele>72.95</ele>
   </trkpt>
   <trkpt lat="50.86844000000001" lon="4.49467">
    <ele>72.95</ele>
   </trkpt>
   <trkpt lat="50.868390000000005" lon="4.49477">
    <ele>72.98</ele>
   </trkpt>
   <trkpt lat="50.8684" lon="4.494890000000001">
    <ele>72.98</ele>
   </trkpt>
   <trkpt lat="50.86829" lon="4.49507">
    <ele>72.97</ele>
   </trkpt>
   <trkpt lat="50.868" lon="4.49587">
    <ele>73.34</ele>
   </trkpt>
   <trkpt lat="50.867650000000005" lon="4.497000000000001">
    <ele>73.92</ele>
   </trkpt>
   <trkpt lat="50.867450000000005" lon="4.497990000000001">
    <ele>74.06</ele>
   </trkpt>
   <trkpt lat="50.867270012163566" lon="4.4991833425744705">
    <ele>73.65</ele>
   </trkpt>
   <trkpt lat="50.86709001215961" lon="4.500376675933769">
    <ele>73.26</ele>
   </trkpt>
   <trkpt lat="50.866910000000004" lon="4.50157">
    <ele>72.84</ele>
   </trkpt>
   <trkpt lat="50.866780000000006" lon="4.50232">
    <ele>72.34</ele>
   </trkpt>
   <trkpt lat="50.866640000000004" lon="4.50305">
    <ele>71.71000000000001</ele>
   </trkpt>
   <trkpt lat="50.866350000000004" lon="4.503920000000001">
    <ele>71.11</ele>
   </trkpt>
   <trkpt lat="50.866020000000006" lon="4.50476">
    <ele>69.98</ele>
   </trkpt>
   <trkpt lat="50.86557000750289" lon="4.5056966847354">
    <ele>69.12</ele>
   </trkpt>
   <trkpt lat="50.865120007509276" lon="4.5066333513884915">
    <ele>67.04</ele>
   </trkpt>
   <trkpt lat="50.864670000000004" lon="4.50757">
    <ele>64.99000000000001</ele>
   </trkpt>
   <trkpt lat="50.86441000000001" lon="4.508">
    <ele>63.92</ele>
   </trkpt>
   <trkpt lat="50.86390000410891" lon="4.508693348499779">
    <ele>69.48</ele>
   </trkpt>
   <trkpt lat="50.86339000411032" lon="4.5093866818309705">
    <ele>60.7</ele>
   </trkpt>
   <trkpt lat="50.862880000000004" lon="4.51008">
    <ele>60.7</ele>
   </trkpt>
   <trkpt lat="50.86247500125756" lon="4.5106250047493734">
    <ele>57.63000000000001</ele>
   </trkpt>
   <trkpt lat="50.86207" lon="4.511170000000001">
    <ele>57.160000000000004</ele>
   </trkpt>
   <trkpt lat="50.862" lon="4.51128">
    <ele>57.07</ele>
   </trkpt>
   <trkpt lat="50.86169" lon="4.51253">
    <ele>57.39</ele>
   </trkpt>
   <trkpt lat="50.861630000000005" lon="4.512700000000001">
    <ele>57.42</ele>
   </trkpt>
   <trkpt lat="50.86115" lon="4.51203">
    <ele>58.220000000000006</ele>
   </trkpt>
   <trkpt lat="50.86101000000001" lon="4.51159">
    <ele>58.39</ele>
   </trkpt>
   <trkpt lat="50.86093" lon="4.511430000000001">
    <ele>58.39</ele>
   </trkpt>
   <trkpt lat="50.860560001539405" lon="4.510824995159426">
    <ele>58.650000000000006</ele>
   </trkpt>
   <trkpt lat="50.86019" lon="4.51022">
    <ele>59.370000000000005</ele>
   </trkpt>
   <trkpt lat="50.85960000000001" lon="4.5091600000000005">
    <ele>60.03000000000001</ele>
   </trkpt>
   <trkpt lat="50.85913000811264" lon="4.5083649759812925">
    <ele>62.35</ele>
   </trkpt>
   <trkpt lat="50.85866001082454" lon="4.507569967988571">
    <ele>63.68</ele>
   </trkpt>
   <trkpt lat="50.858190008135935" lon="4.506774976021428">
    <ele>63.68</ele>
   </trkpt>
   <trkpt lat="50.85772000000001" lon="4.50598">
    <ele>63.68</ele>
   </trkpt>
   <trkpt lat="50.85732" lon="4.5052900000000005">
    <ele>61.900000000000006</ele>
   </trkpt>
   <trkpt lat="50.85698000000001" lon="4.50455">
    <ele>62.28</ele>
   </trkpt>
   <trkpt lat="50.85665000644529" lon="4.503679987628376">
    <ele>62.78</ele>
   </trkpt>
   <trkpt lat="50.856320006422834" lon="4.502809987569352">
    <ele>63.61</ele>
   </trkpt>
   <trkpt lat="50.855990000000006" lon="4.50194">
    <ele>64.53999999999999</ele>
   </trkpt>
   <trkpt lat="50.855520000000006" lon="4.50088">
    <ele>66.22</ele>
   </trkpt>
   <trkpt lat="50.855030000000006" lon="4.49993">
    <ele>66.78</ele>
   </trkpt>
   <trkpt lat="50.854327156255394" lon="4.500652922500415">
    <ele>66.61</ele>
   </trkpt>
   <trkpt lat="50.85362430804514" lon="4.501375823212345">
    <ele>66.05000000000001</ele>
   </trkpt>
   <trkpt lat="50.85292145536946" lon="4.502098702136855">
    <ele>65.54</ele>
   </trkpt>
   <trkpt lat="50.85221859822861" lon="4.5028215592750085">
    <ele>64.92</ele>
   </trkpt>
   <trkpt lat="50.85151573662283" lon="4.50354439462787">
    <ele>64.28</ele>
   </trkpt>
   <trkpt lat="50.85081287055239" lon="4.504267208196502">
    <ele>64.64</ele>
   </trkpt>
   <trkpt lat="50.85011" lon="4.50499">
    <ele>65.80000000000001</ele>
   </trkpt>
   <trkpt lat="50.84940669120169" lon="4.5042673801728474">
    <ele>66.63000000000001</ele>
   </trkpt>
   <trkpt lat="50.848703377941305" lon="4.503544782135644">
    <ele>67.92</ele>
   </trkpt>
   <trkpt lat="50.84800006021909" lon="4.502822205887328">
    <ele>68.49000000000001</ele>
   </trkpt>
   <trkpt lat="50.84729673803529" lon="4.502099651426832">
    <ele>70.03</ele>
   </trkpt>
   <trkpt lat="50.84659341139014" lon="4.50137711875309">
    <ele>71.79</ele>
   </trkpt>
   <trkpt lat="50.845890080283894" lon="4.500654607865039">
    <ele>74.55</ele>
   </trkpt>
   <trkpt lat="50.8451867447168" lon="4.499932118761614">
    <ele>77.28</ele>
   </trkpt>
   <trkpt lat="50.84448340468911" lon="4.49920965144175">
    <ele>79.22000000000001</ele>
   </trkpt>
   <trkpt lat="50.84378006020105" lon="4.498487205904381">
    <ele>79.67</ele>
   </trkpt>
   <trkpt lat="50.8430767112529" lon="4.497764782148444">
    <ele>78.73</ele>
   </trkpt>
   <trkpt lat="50.84237335784486" lon="4.497042380172872">
    <ele>78.26</ele>
   </trkpt>
   <trkpt lat="50.84167000000001" lon="4.496320000000001">
    <ele>76.61000000000001</ele>
   </trkpt>
   <trkpt lat="50.8417" lon="4.49638">
    <ele>76.93</ele>
   </trkpt>
   <trkpt lat="50.84092285910394" lon="4.4966571705544585">
    <ele>74.42</ele>
   </trkpt>
   <trkpt lat="50.84014571755139" lon="4.49693433187653">
    <ele>71.93</ele>
   </trkpt>
   <trkpt lat="50.83936857534235" lon="4.497211483966771">
    <ele>70.57000000000001</ele>
   </trkpt>
   <trkpt lat="50.838591432476896" lon="4.497488626825738">
    <ele>72.76</ele>
   </trkpt>
   <trkpt lat="50.837814288955066" lon="4.497765760453984">
    <ele>76.08000000000001</ele>
   </trkpt>
   <trkpt lat="50.837037144776886" lon="4.498042884852065">
    <ele>78.23</ele>
   </trkpt>
   <trkpt lat="50.83626" lon="4.4983200000000005">
    <ele>79.84</ele>
   </trkpt>
   <trkpt lat="50.83634000000001" lon="4.498530000000001">
    <ele>80.82000000000001</ele>
   </trkpt>
   <trkpt lat="50.835710000000006" lon="4.49911">
    <ele>84.35000000000001</ele>
   </trkpt>
   <trkpt lat="50.83541" lon="4.49932">
    <ele>85.19</ele>
   </trkpt>
   <trkpt lat="50.83516" lon="4.4994700000000005">
    <ele>85.77000000000001</ele>
   </trkpt>
   <trkpt lat="50.8345550003378" lon="4.499750003628314">
    <ele>88.36</ele>
   </trkpt>
   <trkpt lat="50.83395" lon="4.500030000000001">
    <ele>89.39000000000001</ele>
   </trkpt>
   <trkpt lat="50.83335000034598" lon="4.500295003386357">
    <ele>90.67</ele>
   </trkpt>
   <trkpt lat="50.832750000000004" lon="4.50056">
    <ele>92.08000000000001</ele>
   </trkpt>
   <trkpt lat="50.83259" lon="4.50065">
    <ele>92.91000000000001</ele>
   </trkpt>
   <trkpt lat="50.83231000000001" lon="4.50087">
    <ele>93.52000000000001</ele>
   </trkpt>
   <trkpt lat="50.832190000000004" lon="4.50103">
    <ele>93.63000000000001</ele>
   </trkpt>
   <trkpt lat="50.832" lon="4.50138">
    <ele>92.71</ele>
   </trkpt>
   <trkpt lat="50.83159334580863" lon="4.502586687599965">
    <ele>89.39000000000001</ele>
   </trkpt>
   <trkpt lat="50.831186679173" lon="4.503793354174121">
    <ele>84.76</ele>
   </trkpt>
   <trkpt lat="50.830780000000004" lon="4.505000000000001">
    <ele>79.63000000000001</ele>
   </trkpt>
   <trkpt lat="50.83061000000001" lon="4.505400000000001">
    <ele>77.69000000000001</ele>
   </trkpt>
   <trkpt lat="50.83052000000001" lon="4.50558">
    <ele>77.12</ele>
   </trkpt>
   <trkpt lat="50.83034000000001" lon="4.50581">
    <ele>76.91000000000001</ele>
   </trkpt>
   <trkpt lat="50.83016000000001" lon="4.50598">
    <ele>76.32000000000001</ele>
   </trkpt>
   <trkpt lat="50.82997" lon="4.5061100000000005">
    <ele>74.99</ele>
   </trkpt>
   <trkpt lat="50.829310000433" lon="4.506455004917378">
    <ele>73.49</ele>
   </trkpt>
   <trkpt lat="50.82865" lon="4.5068">
    <ele>73.00000000000001</ele>
   </trkpt>
   <trkpt lat="50.82835000000001" lon="4.5069300000000005">
    <ele>72.86000000000001</ele>
   </trkpt>
   <trkpt lat="50.82797000000001" lon="4.50706">
    <ele>72.75000000000001</ele>
   </trkpt>
   <trkpt lat="50.82732000014375" lon="4.5072200022193">
    <ele>72.37</ele>
   </trkpt>
   <trkpt lat="50.82667000000001" lon="4.50738">
    <ele>72.05</ele>
   </trkpt>
   <trkpt lat="50.82600000000001" lon="4.50767">
    <ele>72.25000000000001</ele>
   </trkpt>
   <trkpt lat="50.82587" lon="4.50774">
    <ele>72.42000000000002</ele>
   </trkpt>
   <trkpt lat="50.82538" lon="4.508120000000001">
    <ele>73.05</ele>
   </trkpt>
   <trkpt lat="50.8254" lon="4.50818">
    <ele>73.07000000000001</ele>
   </trkpt>
   <trkpt lat="50.825450000000004" lon="4.508220000000001">
    <ele>73.07000000000001</ele>
   </trkpt>
   <trkpt lat="50.825570000000006" lon="4.50847">
    <ele>72.85000000000001</ele>
   </trkpt>
   <trkpt lat="50.82598334333417" lon="4.5095499809597515">
    <ele>73.7</ele>
   </trkpt>
   <trkpt lat="50.82639667669951" lon="4.510629981043055">
    <ele>76.01</ele>
   </trkpt>
   <trkpt lat="50.82681" lon="4.511710000000001">
    <ele>78.97000000000001</ele>
   </trkpt>
   <trkpt lat="50.8269" lon="4.512090000000001">
    <ele>79.9</ele>
   </trkpt>
   <trkpt lat="50.82688" lon="4.5123500000000005">
    <ele>80.26</ele>
   </trkpt>
   <trkpt lat="50.82694000000001" lon="4.512390000000001">
    <ele>80.47</ele>
   </trkpt>
   <trkpt lat="50.82699" lon="4.51248">
    <ele>80.47</ele>
   </trkpt>
   <trkpt lat="50.827070000000006" lon="4.51274">
    <ele>80.45</ele>
   </trkpt>
   <trkpt lat="50.827180000000006" lon="4.51278">
    <ele>80.65</ele>
   </trkpt>
   <trkpt lat="50.82728" lon="4.51287">
    <ele>80.92</ele>
   </trkpt>
   <trkpt lat="50.82748" lon="4.51273">
    <ele>81.31</ele>
   </trkpt>
   <trkpt lat="50.82761000000001" lon="4.51257">
    <ele>81.51</ele>
   </trkpt>
   <trkpt lat="50.82761000000001" lon="4.512440000000001">
    <ele>81.48</ele>
   </trkpt>
   <trkpt lat="50.82766" lon="4.51229">
    <ele>81.48</ele>
   </trkpt>
   <trkpt lat="50.827630000000006" lon="4.5122100000000005">
    <ele>81.44000000000001</ele>
   </trkpt>
   <trkpt lat="50.82761000000001" lon="4.51208">
    <ele>81.26</ele>
   </trkpt>
   <trkpt lat="50.827540000000006" lon="4.5120700000000005">
    <ele>80.93</ele>
   </trkpt>
   <trkpt lat="50.82737" lon="4.51192">
    <ele>90.08000000000001</ele>
   </trkpt>
   <trkpt lat="50.827310000000004" lon="4.511900000000001">
    <ele>80.25</ele>
   </trkpt>
   <trkpt lat="50.82724" lon="4.51191">
    <ele>80.07000000000001</ele>
   </trkpt>
   <trkpt lat="50.827180000000006" lon="4.51194">
    <ele>80.07000000000001</ele>
   </trkpt>
   <trkpt lat="50.82712" lon="4.5120000000000005">
    <ele>80.02000000000001</ele>
   </trkpt>
   <trkpt lat="50.82706" lon="4.51215">
    <ele>79.99000000000001</ele>
   </trkpt>
   <trkpt lat="50.827040000000004" lon="4.51234">
    <ele>88.24000000000001</ele>
   </trkpt>
   <trkpt lat="50.82699" lon="4.51248">
    <ele>80.47</ele>
   </trkpt>
   <trkpt lat="50.82694000000001" lon="4.512390000000001">
    <ele>80.26</ele>
   </trkpt>
   <trkpt lat="50.82688" lon="4.5123500000000005">
    <ele>80.26</ele>
   </trkpt>
   <trkpt lat="50.82678000000001" lon="4.5126">
    <ele>78.5</ele>
   </trkpt>
   <trkpt lat="50.82674" lon="4.51273">
    <ele>77.59</ele>
   </trkpt>
   <trkpt lat="50.826480000000004" lon="4.5129">
    <ele>75.56</ele>
   </trkpt>
   <trkpt lat="50.82611000000001" lon="4.513000000000001">
    <ele>73.74</ele>
   </trkpt>
   <trkpt lat="50.825790000000005" lon="4.5130300000000005">
    <ele>72.87</ele>
   </trkpt>
   <trkpt lat="50.82511000002904" lon="4.513065000508547">
    <ele>72.05</ele>
   </trkpt>
   <trkpt lat="50.82443000000001" lon="4.5131000000000006">
    <ele>75.74</ele>
   </trkpt>
   <trkpt lat="50.824400000000004" lon="4.513260000000001">
    <ele>76.82</ele>
   </trkpt>
   <trkpt lat="50.82435" lon="4.51323">
    <ele>76.50000000000001</ele>
   </trkpt>
   <trkpt lat="50.824290000000005" lon="4.51346">
    <ele>76.56</ele>
   </trkpt>
   <trkpt lat="50.82401" lon="4.5132900000000005">
    <ele>77.62</ele>
   </trkpt>
   <trkpt lat="50.823910000000005" lon="4.51327">
    <ele>78.05000000000001</ele>
   </trkpt>
   <trkpt lat="50.823530000000005" lon="4.51327">
    <ele>79.92999999999999</ele>
   </trkpt>
   <trkpt lat="50.823170000000005" lon="4.51323">
    <ele>81.68</ele>
   </trkpt>
   <trkpt lat="50.82296" lon="4.51325">
    <ele>82.54</ele>
   </trkpt>
   <trkpt lat="50.82339" lon="4.514460000000001">
    <ele>78.29</ele>
   </trkpt>
   <trkpt lat="50.823310000000006" lon="4.51454">
    <ele>77.93</ele>
   </trkpt>
   <trkpt lat="50.82316" lon="4.5148600000000005">
    <ele>76.58000000000001</ele>
   </trkpt>
   <trkpt lat="50.822720000000004" lon="4.51552">
    <ele>72.13</ele>
   </trkpt>
   <trkpt lat="50.82225000146328" lon="4.516105005887582">
    <ele>69.81000000000002</ele>
   </trkpt>
   <trkpt lat="50.821780000000004" lon="4.5166900000000005">
    <ele>70.44</ele>
   </trkpt>
   <trkpt lat="50.82164" lon="4.51686">
    <ele>70.62</ele>
   </trkpt>
   <trkpt lat="50.82150000000001" lon="4.517060000000001">
    <ele>70.89</ele>
   </trkpt>
   <trkpt lat="50.82137" lon="4.5173700000000006">
    <ele>71.49000000000001</ele>
   </trkpt>
   <trkpt lat="50.821270000000005" lon="4.51782">
    <ele>72.12</ele>
   </trkpt>
   <trkpt lat="50.821250000000006" lon="4.51815">
    <ele>72.74</ele>
   </trkpt>
   <trkpt lat="50.82133752397629" lon="4.519517492327772">
    <ele>73.94</ele>
   </trkpt>
   <trkpt lat="50.82142503196912" lon="4.520884989781607">
    <ele>77.72000000000001</ele>
   </trkpt>
   <trkpt lat="50.82151252397845" lon="4.522252492360607">
    <ele>82.33</ele>
   </trkpt>
   <trkpt lat="50.821600000000004" lon="4.52362">
    <ele>85.72</ele>
   </trkpt>
   <trkpt lat="50.821600000000004" lon="4.52392">
    <ele>86.49000000000001</ele>
   </trkpt>
   <trkpt lat="50.82157" lon="4.52423">
    <ele>86.63000000000001</ele>
   </trkpt>
   <trkpt lat="50.821490000000004" lon="4.524520000000001">
    <ele>86.39</ele>
   </trkpt>
   <trkpt lat="50.821360000000006" lon="4.5248">
    <ele>85.74000000000001</ele>
   </trkpt>
   <trkpt lat="50.82086333811355" lon="4.525550015996339">
    <ele>82.31</ele>
   </trkpt>
   <trkpt lat="50.82036667141924" lon="4.526300016037837">
    <ele>80.67</ele>
   </trkpt>
   <trkpt lat="50.81987" lon="4.52705">
    <ele>77.98</ele>
   </trkpt>
   <trkpt lat="50.81926000402604" lon="4.528015012532347">
    <ele>75.19000000000001</ele>
   </trkpt>
   <trkpt lat="50.818650000000005" lon="4.528980000000001">
    <ele>74.31</ele>
   </trkpt>
   <trkpt lat="50.81853" lon="4.52927">
    <ele>74.99</ele>
   </trkpt>
   <trkpt lat="50.81848" lon="4.52944">
    <ele>74.82000000000001</ele>
   </trkpt>
   <trkpt lat="50.818450000000006" lon="4.5297600000000005">
    <ele>74.16</ele>
   </trkpt>
   <trkpt lat="50.818450000000006" lon="4.5308">
    <ele>74.59</ele>
   </trkpt>
   <trkpt lat="50.818430000000006" lon="4.53127">
    <ele>76.93</ele>
   </trkpt>
   <trkpt lat="50.81832000000001" lon="4.53179">
    <ele>78.14</ele>
   </trkpt>
   <trkpt lat="50.81796000546309" lon="4.532915008502952">
    <ele>82.09</ele>
   </trkpt>
   <trkpt lat="50.817600000000006" lon="4.53404">
    <ele>83.51</ele>
   </trkpt>
   <trkpt lat="50.81749000000001" lon="4.534420000000001">
    <ele>83.75</ele>
   </trkpt>
   <trkpt lat="50.81722500276702" lon="4.535215004313344">
    <ele>84.35000000000001</ele>
   </trkpt>
   <trkpt lat="50.81696" lon="4.53601">
    <ele>84.72</ele>
   </trkpt>
   <trkpt lat="50.81673500213546" lon="4.53672000348035">
    <ele>85.70000000000002</ele>
   </trkpt>
   <trkpt lat="50.81651" lon="4.5374300000000005">
    <ele>85.70000000000002</ele>
   </trkpt>
   <trkpt lat="50.81636" lon="4.53805">
    <ele>86.20000000000002</ele>
   </trkpt>
   <trkpt lat="50.81623000228091" lon="4.538775001825472">
    <ele>86.57000000000001</ele>
   </trkpt>
   <trkpt lat="50.816100000000006" lon="4.5395">
    <ele>86.92000000000002</ele>
   </trkpt>
   <trkpt lat="50.815960000000004" lon="4.53997">
    <ele>87.09</ele>
   </trkpt>
   <trkpt lat="50.815830000000005" lon="4.540310000000001">
    <ele>87.41</ele>
   </trkpt>
   <trkpt lat="50.815720000000006" lon="4.540520000000001">
    <ele>87.76</ele>
   </trkpt>
   <trkpt lat="50.815580000000004" lon="4.540710000000001">
    <ele>88.27</ele>
   </trkpt>
   <trkpt lat="50.81542" lon="4.54084">
    <ele>88.76</ele>
   </trkpt>
   <trkpt lat="50.81508" lon="4.5410200000000005">
    <ele>90.33000000000001</ele>
   </trkpt>
   <trkpt lat="50.814426667309675" lon="4.541300007845115">
    <ele>93.62</ele>
   </trkpt>
   <trkpt lat="50.81377333394923" lon="4.541580007856605">
    <ele>95.95</ele>
   </trkpt>
   <trkpt lat="50.813120000000005" lon="4.541860000000001">
    <ele>100.21000000000001</ele>
   </trkpt>
   <trkpt lat="50.81289" lon="4.54201">
    <ele>100.74000000000001</ele>
   </trkpt>
   <trkpt lat="50.81264" lon="4.54223">
    <ele>101.0</ele>
   </trkpt>
   <trkpt lat="50.81197" lon="4.542940000000001">
    <ele>100.81</ele>
   </trkpt>
   <trkpt lat="50.811820000000004" lon="4.543130000000001">
    <ele>100.95</ele>
   </trkpt>
   <trkpt lat="50.811800000000005" lon="4.54321">
    <ele>100.95</ele>
   </trkpt>
   <trkpt lat="50.81181" lon="4.543290000000001">
    <ele>101.01</ele>
   </trkpt>
   <trkpt lat="50.81208" lon="4.54389">
    <ele>99.98000000000002</ele>
   </trkpt>
   <trkpt lat="50.81259002593526" lon="4.544991606523227">
    <ele>98.78</ele>
   </trkpt>
   <trkpt lat="50.813100041497435" lon="4.546093237104185">
    <ele>98.78</ele>
   </trkpt>
   <trkpt lat="50.813610046686094" lon="4.547194891743349">
    <ele>94.17</ele>
   </trkpt>
   <trkpt lat="50.814120041500836" lon="4.548296570441191">
    <ele>94.17</ele>
   </trkpt>
   <trkpt lat="50.81463002594122" lon="4.549398273198185">
    <ele>94.17</ele>
   </trkpt>
   <trkpt lat="50.81514000000001" lon="4.5505">
    <ele>94.17</ele>
   </trkpt>
   <trkpt lat="50.81545000201551" lon="4.551204995073398">
    <ele>95.54</ele>
   </trkpt>
   <trkpt lat="50.815760000000004" lon="4.55191">
    <ele>96.32000000000001</ele>
   </trkpt>
   <trkpt lat="50.81607" lon="4.55187">
    <ele>96.80000000000001</ele>
   </trkpt>
   <trkpt lat="50.81613" lon="4.55191">
    <ele>96.80000000000001</ele>
   </trkpt>
   <trkpt lat="50.816480000000006" lon="4.552630000000001">
    <ele>97.93</ele>
   </trkpt>
   <trkpt lat="50.816950000000006" lon="4.55325">
    <ele>100.18</ele>
   </trkpt>
   <trkpt lat="50.817080000000004" lon="4.55348">
    <ele>100.18</ele>
   </trkpt>
   <trkpt lat="50.817170000000004" lon="4.5537">
    <ele>100.43</ele>
   </trkpt>
   <trkpt lat="50.81759000598525" lon="4.554884989297655">
    <ele>102.18</ele>
   </trkpt>
   <trkpt lat="50.81801" lon="4.55607">
    <ele>102.36</ele>
   </trkpt>
   <trkpt lat="50.818000000000005" lon="4.556150000000001">
    <ele>102.36</ele>
   </trkpt>
   <trkpt lat="50.81824" lon="4.55682">
    <ele>101.75</ele>
   </trkpt>
   <trkpt lat="50.81851000322185" lon="4.5576899949283645">
    <ele>101.39</ele>
   </trkpt>
   <trkpt lat="50.818780000000004" lon="4.55856">
    <ele>101.31</ele>
   </trkpt>
   <trkpt lat="50.81919500402763" lon="4.559529991394975">
    <ele>101.44</ele>
   </trkpt>
   <trkpt lat="50.819610000000004" lon="4.5605">
    <ele>101.89</ele>
   </trkpt>
   <trkpt lat="50.81974" lon="4.56083">
    <ele>102.53</ele>
   </trkpt>
   <trkpt lat="50.81978" lon="4.56099">
    <ele>102.53</ele>
   </trkpt>
   <trkpt lat="50.81996" lon="4.561400000000001">
    <ele>102.98</ele>
   </trkpt>
   <trkpt lat="50.82011000000001" lon="4.56167">
    <ele>102.98</ele>
   </trkpt>
   <trkpt lat="50.82036" lon="4.562080000000001">
    <ele>103.44</ele>
   </trkpt>
   <trkpt lat="50.820600000000006" lon="4.56236">
    <ele>103.67000000000002</ele>
   </trkpt>
   <trkpt lat="50.820690000000006" lon="4.56243">
    <ele>103.67000000000002</ele>
   </trkpt>
   <trkpt lat="50.82124000054465" lon="4.5627349964890245">
    <ele>102.59000000000002</ele>
   </trkpt>
   <trkpt lat="50.82179000000001" lon="4.56304">
    <ele>101.71000000000001</ele>
   </trkpt>
   <trkpt lat="50.82240500079498" lon="4.563434994879633">
    <ele>99.98000000000002</ele>
   </trkpt>
   <trkpt lat="50.82302000000001" lon="4.56383">
    <ele>98.73</ele>
   </trkpt>
   <trkpt lat="50.823640000000005" lon="4.56421">
    <ele>96.82000000000001</ele>
   </trkpt>
   <trkpt lat="50.82414500018796" lon="4.56447499707485">
    <ele>94.46</ele>
   </trkpt>
   <trkpt lat="50.824650000000005" lon="4.5647400000000005">
    <ele>91.93</ele>
   </trkpt>
   <trkpt lat="50.82522" lon="4.56498">
    <ele>88.95</ele>
   </trkpt>
   <trkpt lat="50.825790000000005" lon="4.56515">
    <ele>86.07000000000001</ele>
   </trkpt>
   <trkpt lat="50.82652400045876" lon="4.565311989814057">
    <ele>82.03</ele>
   </trkpt>
   <trkpt lat="50.82725800069325" lon="4.565473984721916">
    <ele>78.5</ele>
   </trkpt>
   <trkpt lat="50.827992000703425" lon="4.56563598472387">
    <ele>74.79</ele>
   </trkpt>
   <trkpt lat="50.8287260004893" lon="4.565797989820209">
    <ele>70.83</ele>
   </trkpt>
   <trkpt lat="50.829460000000005" lon="4.5659600000000005">
    <ele>68.88000000000001</ele>
   </trkpt>
   <trkpt lat="50.83008000004854" lon="4.566039998940165">
    <ele>64.72</ele>
   </trkpt>
   <trkpt lat="50.83070000000001" lon="4.566120000000001">
    <ele>62.09</ele>
   </trkpt>
   <trkpt lat="50.830850000000005" lon="4.5661700000000005">
    <ele>61.83</ele>
   </trkpt>
   <trkpt lat="50.831050000000005" lon="4.566280000000001">
    <ele>61.410000000000004</ele>
   </trkpt>
   <trkpt lat="50.83144" lon="4.5665700000000005">
    <ele>61.57000000000001</ele>
   </trkpt>
   <trkpt lat="50.83146000000001" lon="4.566520000000001">
    <ele>61.57000000000001</ele>
   </trkpt>
   <trkpt lat="50.831570000000006" lon="4.56658">
    <ele>61.52</ele>
   </trkpt>
   <trkpt lat="50.83156" lon="4.56658">
    <ele>61.52</ele>
   </trkpt>
   <trkpt lat="50.831680000000006" lon="4.56656">
    <ele>61.52</ele>
   </trkpt>
   <trkpt lat="50.83176" lon="4.5665000000000004">
    <ele>61.45</ele>
   </trkpt>
   <trkpt lat="50.832010000000004" lon="4.566190000000001">
    <ele>61.36000000000001</ele>
   </trkpt>
   <trkpt lat="50.83272" lon="4.5654200000000005">
    <ele>62.02</ele>
   </trkpt>
   <trkpt lat="50.833225001154595" lon="4.564895005704484">
    <ele>62.84</ele>
   </trkpt>
   <trkpt lat="50.83373" lon="4.56437">
    <ele>62.27</ele>
   </trkpt>
   <trkpt lat="50.83363000000001" lon="4.563770000000001">
    <ele>61.58</ele>
   </trkpt>
   <trkpt lat="50.83346" lon="4.56332">
    <ele>60.11</ele>
   </trkpt>
   <trkpt lat="50.832980000000006" lon="4.562130000000001">
    <ele>57.32</ele>
   </trkpt>
   <trkpt lat="50.832860000000004" lon="4.561660000000001">
    <ele>57.67</ele>
   </trkpt>
   <trkpt lat="50.832705006091956" lon="4.5604699963604975">
    <ele>59.31</ele>
   </trkpt>
   <trkpt lat="50.832550000000005" lon="4.55928">
    <ele>60.160000000000004</ele>
   </trkpt>
   <trkpt lat="50.832390000000004" lon="4.55872">
    <ele>59.870000000000005</ele>
   </trkpt>
   <trkpt lat="50.832440000000005" lon="4.5586400000000005">
    <ele>59.46000000000001</ele>
   </trkpt>
   <trkpt lat="50.832420000000006" lon="4.558540000000001">
    <ele>59.46000000000001</ele>
   </trkpt>
   <trkpt lat="50.832420000000006" lon="4.55853">
    <ele>59.46000000000001</ele>
   </trkpt>
   <trkpt lat="50.83279" lon="4.5581000000000005">
    <ele>57.480000000000004</ele>
   </trkpt>
   <trkpt lat="50.833040000000004" lon="4.55792">
    <ele>56.77000000000001</ele>
   </trkpt>
   <trkpt lat="50.83314000000001" lon="4.557860000000001">
    <ele>56.75</ele>
   </trkpt>
   <trkpt lat="50.83380500043118" lon="4.5575950037234945">
    <ele>56.910000000000004</ele>
   </trkpt>
   <trkpt lat="50.83447" lon="4.55733">
    <ele>59.72</ele>
   </trkpt>
   <trkpt lat="50.8346" lon="4.5578">
    <ele>59.99</ele>
   </trkpt>
   <trkpt lat="50.83469" lon="4.55795">
    <ele>59.99</ele>
   </trkpt>
   <trkpt lat="50.8346" lon="4.557980000000001">
    <ele>60.09</ele>
   </trkpt>
   <trkpt lat="50.834520000000005" lon="4.558050000000001">
    <ele>59.79</ele>
   </trkpt>
   <trkpt lat="50.834480000000006" lon="4.55811">
    <ele>59.620000000000005</ele>
   </trkpt>
   <trkpt lat="50.834410000000005" lon="4.5583">
    <ele>58.660000000000004</ele>
   </trkpt>
   <trkpt lat="50.83442" lon="4.558450000000001">
    <ele>58.49000000000001</ele>
   </trkpt>
   <trkpt lat="50.83447" lon="4.55858">
    <ele>58.190000000000005</ele>
   </trkpt>
   <trkpt lat="50.83442" lon="4.558450000000001">
    <ele>58.660000000000004</ele>
   </trkpt>
   <trkpt lat="50.834410000000005" lon="4.5583">
    <ele>58.660000000000004</ele>
   </trkpt>
   <trkpt lat="50.834480000000006" lon="4.55811">
    <ele>59.620000000000005</ele>
   </trkpt>
   <trkpt lat="50.834520000000005" lon="4.558050000000001">
    <ele>59.79</ele>
   </trkpt>
   <trkpt lat="50.8346" lon="4.557980000000001">
    <ele>60.09</ele>
   </trkpt>
   <trkpt lat="50.83469" lon="4.55795">
    <ele>59.870000000000005</ele>
   </trkpt>
   <trkpt lat="50.83482000000001" lon="4.55815">
    <ele>59.67000000000001</ele>
   </trkpt>
   <trkpt lat="50.83487" lon="4.55827">
    <ele>59.410000000000004</ele>
   </trkpt>
   <trkpt lat="50.83493000000001" lon="4.5586">
    <ele>58.67000000000001</ele>
   </trkpt>
   <trkpt lat="50.835" lon="4.55876">
    <ele>58.32</ele>
   </trkpt>
   <trkpt lat="50.83532" lon="4.55933">
    <ele>56.910000000000004</ele>
   </trkpt>
   <trkpt lat="50.835770000000004" lon="4.56024">
    <ele>56.730000000000004</ele>
   </trkpt>
   <trkpt lat="50.83635801942369" lon="4.559174053722566">
    <ele>56.38</ele>
   </trkpt>
   <trkpt lat="50.836946029136605" lon="4.558108080583501">
    <ele>56.38</ele>
   </trkpt>
   <trkpt lat="50.837534029138325" lon="4.5570420805820095">
    <ele>59.42000000000001</ele>
   </trkpt>
   <trkpt lat="50.83812201942837" lon="4.555976053717296">
    <ele>59.42000000000001</ele>
   </trkpt>
   <trkpt lat="50.838710000000006" lon="4.5549100000000005">
    <ele>59.42000000000001</ele>
   </trkpt>
   <trkpt lat="50.839130000000004" lon="4.55424">
    <ele>59.65</ele>
   </trkpt>
   <trkpt lat="50.83943000000001" lon="4.55367">
    <ele>60.15</ele>
   </trkpt>
   <trkpt lat="50.83992001070103" lon="4.552550023565344">
    <ele>60.230000000000004</ele>
   </trkpt>
   <trkpt lat="50.840410010682234" lon="4.551430023608763">
    <ele>61.33</ele>
   </trkpt>
   <trkpt lat="50.840900000000005" lon="4.5503100000000005">
    <ele>64.81</ele>
   </trkpt>
   <trkpt lat="50.841010000000004" lon="4.550000000000001">
    <ele>65.34</ele>
   </trkpt>
   <trkpt lat="50.84113000000001" lon="4.54976">
    <ele>65.46000000000001</ele>
   </trkpt>
   <trkpt lat="50.84148334220192" lon="4.54874334862851">
    <ele>67.61</ele>
   </trkpt>
   <trkpt lat="50.841836675570875" lon="4.54772668185959">
    <ele>71.76</ele>
   </trkpt>
   <trkpt lat="50.84219" lon="4.54671">
    <ele>72.91</ele>
   </trkpt>
   <trkpt lat="50.84234000000001" lon="4.54656">
    <ele>73.23</ele>
   </trkpt>
   <trkpt lat="50.842380000000006" lon="4.546480000000001">
    <ele>73.23</ele>
   </trkpt>
   <trkpt lat="50.84246" lon="4.546270000000001">
    <ele>73.94</ele>
   </trkpt>
   <trkpt lat="50.842470000000006" lon="4.54614">
    <ele>73.94</ele>
   </trkpt>
   <trkpt lat="50.84246" lon="4.54588">
    <ele>74.6</ele>
   </trkpt>
   <trkpt lat="50.842330000000004" lon="4.54488">
    <ele>76.81</ele>
   </trkpt>
   <trkpt lat="50.842150000000004" lon="4.5435300000000005">
    <ele>79.95</ele>
   </trkpt>
   <trkpt lat="50.84194500802999" lon="4.542159994048702">
    <ele>82.52000000000001</ele>
   </trkpt>
   <trkpt lat="50.84174" lon="4.54079">
    <ele>84.36</ele>
   </trkpt>
   <trkpt lat="50.84217" lon="4.5406200000000005">
    <ele>84.44</ele>
   </trkpt>
   <trkpt lat="50.84237" lon="4.54051">
    <ele>84.48000000000002</ele>
   </trkpt>
   <trkpt lat="50.84261000000001" lon="4.5403400000000005">
    <ele>84.49000000000001</ele>
   </trkpt>
   <trkpt lat="50.84306000034824" lon="4.5399750036995945">
    <ele>85.24000000000001</ele>
   </trkpt>
   <trkpt lat="50.84351" lon="4.539610000000001">
    <ele>86.10000000000001</ele>
   </trkpt>
   <trkpt lat="50.84391" lon="4.53932">
    <ele>86.93</ele>
   </trkpt>
   <trkpt lat="50.84443" lon="4.538860000000001">
    <ele>87.70000000000002</ele>
   </trkpt>
   <trkpt lat="50.845110001227134" lon="4.538325007794524">
    <ele>88.7</ele>
   </trkpt>
   <trkpt lat="50.84579" lon="4.53779">
    <ele>89.37</ele>
   </trkpt>
   <trkpt lat="50.84591" lon="4.5376">
    <ele>89.9</ele>
   </trkpt>
   <trkpt lat="50.84644" lon="4.53789">
    <ele>90.7</ele>
   </trkpt>
   <trkpt lat="50.8468" lon="4.53802">
    <ele>90.99</ele>
   </trkpt>
   <trkpt lat="50.84707" lon="4.538080000000001">
    <ele>91.14000000000001</ele>
   </trkpt>
   <trkpt lat="50.84767" lon="4.53814">
    <ele>92.24</ele>
   </trkpt>
   <trkpt lat="50.84789000000001" lon="4.53821">
    <ele>92.37</ele>
   </trkpt>
   <trkpt lat="50.848090000000006" lon="4.53831">
    <ele>92.64000000000001</ele>
   </trkpt>
   <trkpt lat="50.848220000000005" lon="4.5384">
    <ele>93.02000000000001</ele>
   </trkpt>
   <trkpt lat="50.84893500178657" lon="4.539034990323559">
    <ele>93.42</ele>
   </trkpt>
   <trkpt lat="50.849650000000004" lon="4.53967">
    <ele>94.03</ele>
   </trkpt>
   <trkpt lat="50.84982" lon="4.53976">
    <ele>94.61000000000001</ele>
   </trkpt>
   <trkpt lat="50.849990000000005" lon="4.5398000000000005">
    <ele>94.92</ele>
   </trkpt>
   <trkpt lat="50.85077000009757" lon="4.539854999086251">
    <ele>95.71000000000001</ele>
   </trkpt>
   <trkpt lat="50.85155" lon="4.539910000000001">
    <ele>96.09</ele>
   </trkpt>
   <trkpt lat="50.85173" lon="4.53992">
    <ele>96.01</ele>
   </trkpt>
   <trkpt lat="50.85206" lon="4.539890000000001">
    <ele>95.65</ele>
   </trkpt>
   <trkpt lat="50.85251169188639" lon="4.540976614036617">
    <ele>96.94000000000001</ele>
   </trkpt>
   <trkpt lat="50.85296337368303" lon="4.5420632491192805">
    <ele>97.87</ele>
   </trkpt>
   <trkpt lat="50.85341504538959" lon="4.5431499052482645">
    <ele>98.71000000000001</ele>
   </trkpt>
   <trkpt lat="50.85386670700568" lon="4.544236582423848">
    <ele>99.34</ele>
   </trkpt>
   <trkpt lat="50.85431835853096" lon="4.545323280646308">
    <ele>100.07000000000001</ele>
   </trkpt>
   <trkpt lat="50.85477" lon="4.546410000000001">
    <ele>100.69</ele>
   </trkpt>
   <trkpt lat="50.85522334438646" lon="4.54754664460132">
    <ele>100.72</ele>
   </trkpt>
   <trkpt lat="50.85567667773286" lon="4.548683311300357">
    <ele>100.47</ele>
   </trkpt>
   <trkpt lat="50.85613000000001" lon="4.54982">
    <ele>100.04</ele>
   </trkpt>
   <trkpt lat="50.85615000000001" lon="4.549980000000001">
    <ele>100.0</ele>
   </trkpt>
   <trkpt lat="50.85613000000001" lon="4.550190000000001">
    <ele>99.84</ele>
   </trkpt>
   <trkpt lat="50.855900000000005" lon="4.550750000000001">
    <ele>99.15</ele>
   </trkpt>
   <trkpt lat="50.8558" lon="4.55098">
    <ele>99.01000000000002</ele>
   </trkpt>
   <trkpt lat="50.85578" lon="4.551100000000001">
    <ele>99.01000000000002</ele>
   </trkpt>
   <trkpt lat="50.855790000000006" lon="4.55126">
    <ele>99.01000000000002</ele>
   </trkpt>
   <trkpt lat="50.85589" lon="4.55184">
    <ele>97.37</ele>
   </trkpt>
   <trkpt lat="50.855880000000006" lon="4.5522100000000005">
    <ele>97.10000000000001</ele>
   </trkpt>
   <trkpt lat="50.85615000000001" lon="4.55222">
    <ele>97.44000000000001</ele>
   </trkpt>
   <trkpt lat="50.856739999957455" lon="4.552215000063619">
    <ele>99.09</ele>
   </trkpt>
   <trkpt lat="50.857330000000005" lon="4.5522100000000005">
    <ele>101.33</ele>
   </trkpt>
   <trkpt lat="50.85765000000001" lon="4.55226">
    <ele>101.54</ele>
   </trkpt>
   <trkpt lat="50.85779" lon="4.55233">
    <ele>101.54</ele>
   </trkpt>
   <trkpt lat="50.85810000000001" lon="4.55255">
    <ele>101.43</ele>
   </trkpt>
   <trkpt lat="50.85831" lon="4.552790000000001">
    <ele>101.43</ele>
   </trkpt>
   <trkpt lat="50.85855" lon="4.553100000000001">
    <ele>101.43</ele>
   </trkpt>
   <trkpt lat="50.85889000093627" lon="4.5535749964979875">
    <ele>101.10000000000001</ele>
   </trkpt>
   <trkpt lat="50.859230000000004" lon="4.55405">
    <ele>100.86</ele>
   </trkpt>
   <trkpt lat="50.85951000000001" lon="4.5545100000000005">
    <ele>100.66000000000001</ele>
   </trkpt>
   <trkpt lat="50.859970003386344" lon="4.55539999122442">
    <ele>100.22</ele>
   </trkpt>
   <trkpt lat="50.86043" lon="4.556290000000001">
    <ele>99.54</ele>
   </trkpt>
   <trkpt lat="50.86065000000001" lon="4.55665">
    <ele>99.35000000000001</ele>
   </trkpt>
   <trkpt lat="50.86075" lon="4.556760000000001">
    <ele>99.28</ele>
   </trkpt>
   <trkpt lat="50.86086" lon="4.55684">
    <ele>98.99000000000001</ele>
   </trkpt>
   <trkpt lat="50.86104" lon="4.556900000000001">
    <ele>98.99000000000001</ele>
   </trkpt>
   <trkpt lat="50.86176666673325" lon="4.556983330736684">
    <ele>98.17</ele>
   </trkpt>
   <trkpt lat="50.86249333340718" lon="4.557066664070798">
    <ele>97.41000000000001</ele>
   </trkpt>
   <trkpt lat="50.863220000000005" lon="4.55715">
    <ele>95.18</ele>
   </trkpt>
   <trkpt lat="50.863400000000006" lon="4.55722">
    <ele>92.11000000000001</ele>
   </trkpt>
   <trkpt lat="50.86368" lon="4.55743">
    <ele>92.11000000000001</ele>
   </trkpt>
   <trkpt lat="50.86426333599025" lon="4.557986652745528">
    <ele>88.03000000000002</ele>
   </trkpt>
   <trkpt lat="50.86484666933285" lon="4.5585433194207985">
    <ele>83.79</ele>
   </trkpt>
   <trkpt lat="50.86543" lon="4.5591">
    <ele>81.03</ele>
   </trkpt>
   <trkpt lat="50.86569" lon="4.55938">
    <ele>77.86000000000001</ele>
   </trkpt>
   <trkpt lat="50.866310000000006" lon="4.56017">
    <ele>73.78000000000002</ele>
   </trkpt>
   <trkpt lat="50.86652" lon="4.5604000000000005">
    <ele>71.85000000000001</ele>
   </trkpt>
   <trkpt lat="50.867130003151296" lon="4.560897480453287">
    <ele>68.38000000000001</ele>
   </trkpt>
   <trkpt lat="50.86774000418794" lon="4.56139497392603">
    <ele>66.11</ele>
   </trkpt>
   <trkpt lat="50.86835000310983" lon="4.561892480418812">
    <ele>65.75</ele>
   </trkpt>
   <trkpt lat="50.86896" lon="4.562390000000001">
    <ele>66.02000000000001</ele>
   </trkpt>
   <trkpt lat="50.86932" lon="4.56278">
    <ele>65.91000000000001</ele>
   </trkpt>
   <trkpt lat="50.869925002344914" lon="4.563509990607644">
    <ele>66.02000000000001</ele>
   </trkpt>
   <trkpt lat="50.87053" lon="4.564240000000001">
    <ele>66.15</ele>
   </trkpt>
   <trkpt lat="50.870670000000004" lon="4.56437">
    <ele>66.15</ele>
   </trkpt>
   <trkpt lat="50.870990000000006" lon="4.56461">
    <ele>66.78</ele>
   </trkpt>
   <trkpt lat="50.871170000000006" lon="4.564710000000001">
    <ele>66.78</ele>
   </trkpt>
   <trkpt lat="50.87190500053187" lon="4.565039994826062">
    <ele>65.73</ele>
   </trkpt>
   <trkpt lat="50.872640000000004" lon="4.565370000000001">
    <ele>64.08000000000001</ele>
   </trkpt>
   <trkpt lat="50.872780000000006" lon="4.56547">
    <ele>64.08000000000001</ele>
   </trkpt>
   <trkpt lat="50.87288" lon="4.5656300000000005">
    <ele>63.72</ele>
   </trkpt>
   <trkpt lat="50.872980000000005" lon="4.5659600000000005">
    <ele>63.40000000000001</ele>
   </trkpt>
   <trkpt lat="50.873160000000006" lon="4.56717">
    <ele>62.080000000000005</ele>
   </trkpt>
   <trkpt lat="50.87326" lon="4.567620000000001">
    <ele>61.06</ele>
   </trkpt>
   <trkpt lat="50.873360000000005" lon="4.56784">
    <ele>61.06</ele>
   </trkpt>
   <trkpt lat="50.87351" lon="4.5681">
    <ele>60.56</ele>
   </trkpt>
   <trkpt lat="50.87368000000001" lon="4.56826">
    <ele>60.35000000000001</ele>
   </trkpt>
   <trkpt lat="50.873870000000004" lon="4.56838">
    <ele>60.18</ele>
   </trkpt>
   <trkpt lat="50.8746" lon="4.56871">
    <ele>60.480000000000004</ele>
   </trkpt>
   <trkpt lat="50.874790000000004" lon="4.56874">
    <ele>60.370000000000005</ele>
   </trkpt>
   <trkpt lat="50.874990000000004" lon="4.568700000000001">
    <ele>60.17000000000001</ele>
   </trkpt>
   <trkpt lat="50.875150000000005" lon="4.56864">
    <ele>60.17000000000001</ele>
   </trkpt>
   <trkpt lat="50.87559" lon="4.56857">
    <ele>59.690000000000005</ele>
   </trkpt>
   <trkpt lat="50.87597" lon="4.568490000000001">
    <ele>59.260000000000005</ele>
   </trkpt>
   <trkpt lat="50.87662" lon="4.56822">
    <ele>57.580000000000005</ele>
   </trkpt>
   <trkpt lat="50.87706000000001" lon="4.5681400000000005">
    <ele>56.580000000000005</ele>
   </trkpt>
   <trkpt lat="50.877190000000006" lon="4.56815">
    <ele>56.050000000000004</ele>
   </trkpt>
   <trkpt lat="50.877210000000005" lon="4.56826">
    <ele>56.050000000000004</ele>
   </trkpt>
   <trkpt lat="50.87727" lon="4.56832">
    <ele>55.93000000000001</ele>
   </trkpt>
   <trkpt lat="50.877300000000005" lon="4.56832">
    <ele>55.93000000000001</ele>
   </trkpt>
   <trkpt lat="50.87735000000001" lon="4.568300000000001">
    <ele>55.93000000000001</ele>
   </trkpt>
   <trkpt lat="50.8774" lon="4.56817">
    <ele>55.84</ele>
   </trkpt>
   <trkpt lat="50.877390000000005" lon="4.5681">
    <ele>55.84</ele>
   </trkpt>
   <trkpt lat="50.87733" lon="4.56801">
    <ele>55.64</ele>
   </trkpt>
   <trkpt lat="50.877300000000005" lon="4.5680000000000005">
    <ele>55.64</ele>
   </trkpt>
   <trkpt lat="50.87724000000001" lon="4.568020000000001">
    <ele>55.64</ele>
   </trkpt>
   <trkpt lat="50.87722" lon="4.56785">
    <ele>55.24</ele>
   </trkpt>
   <trkpt lat="50.877070004704585" lon="4.566799996584619">
    <ele>52.18</ele>
   </trkpt>
   <trkpt lat="50.876920000000005" lon="4.56575">
    <ele>50.440000000000005</ele>
   </trkpt>
   <trkpt lat="50.87676000778359" lon="4.564399995349469">
    <ele>49.6</ele>
   </trkpt>
   <trkpt lat="50.8766" lon="4.5630500000000005">
    <ele>49.54</ele>
   </trkpt>
   <trkpt lat="50.876540000000006" lon="4.562460000000001">
    <ele>49.59</ele>
   </trkpt>
   <trkpt lat="50.8764866815526" lon="4.5611399969636475">
    <ele>49.720000000000006</ele>
   </trkpt>
   <trkpt lat="50.876433348218626" lon="4.5598199969482005">
    <ele>50.07</ele>
   </trkpt>
   <trkpt lat="50.876380000000005" lon="4.5585">
    <ele>50.510000000000005</ele>
   </trkpt>
   <trkpt lat="50.87635" lon="4.55816">
    <ele>50.730000000000004</ele>
   </trkpt>
   <trkpt lat="50.87630000000001" lon="4.55789">
    <ele>50.830000000000005</ele>
   </trkpt>
   <trkpt lat="50.87603000000001" lon="4.55694">
    <ele>50.940000000000005</ele>
   </trkpt>
   <trkpt lat="50.876020000000004" lon="4.55666">
    <ele>50.85000000000001</ele>
   </trkpt>
   <trkpt lat="50.876050000000006" lon="4.55633">
    <ele>50.85000000000001</ele>
   </trkpt>
   <trkpt lat="50.87599" lon="4.5551200000000005">
    <ele>50.980000000000004</ele>
   </trkpt>
   <trkpt lat="50.876020000000004" lon="4.5548">
    <ele>51.10000000000001</ele>
   </trkpt>
   <trkpt lat="50.87612000000001" lon="4.55447">
    <ele>51.10000000000001</ele>
   </trkpt>
   <trkpt lat="50.87628" lon="4.55405">
    <ele>51.14</ele>
   </trkpt>
   <trkpt lat="50.87641000000001" lon="4.55416">
    <ele>50.71</ele>
   </trkpt>
   <trkpt lat="50.877030000000005" lon="4.5544">
    <ele>50.24000000000001</ele>
   </trkpt>
   <trkpt lat="50.87762000000001" lon="4.55445">
    <ele>50.14</ele>
   </trkpt>
   <trkpt lat="50.878350000000005" lon="4.55445">
    <ele>50.010000000000005</ele>
   </trkpt>
   <trkpt lat="50.87924" lon="4.55463">
    <ele>51.050000000000004</ele>
   </trkpt>
   <trkpt lat="50.87913000356672" lon="4.5537149977593385">
    <ele>50.81</ele>
   </trkpt>
   <trkpt lat="50.879020000000004" lon="4.5528">
    <ele>50.980000000000004</ele>
   </trkpt>
   <trkpt lat="50.87886" lon="4.5514">
    <ele>51.14</ele>
   </trkpt>
  </trkseg>
 </trk>
</gpx>
