<?xml version="1.0" encoding="UTF-8"?>
<gpx xmlns="http://www.topografix.com/GPX/1/1" creator="RouteYou" version="1.1" xmlns:xsi="http://www.w3.org/2001/XMLSchema-instance" xsi:schemaLocation="http://www.topografix.com/GPX/1/1 http://www.topografix.com/GPX/1/1/gpx.xsd">
  <trk>
    <name>Maleizen 2025</name>
    <desc></desc>
    <trkseg>
      <trkpt lat="50.87885" lon="4.5513">
        <ele>54</ele>
      </trkpt>
      <trkpt lat="50.87926" lon="4.5547">
        <ele>51</ele>
      </trkpt>
      <trkpt lat="50.87933" lon="4.55516">
        <ele>54</ele>
      </trkpt>
      <trkpt lat="50.87985" lon="4.55718">
        <ele>55</ele>
      </trkpt>
      <trkpt lat="50.88046" lon="4.5608">
        <ele>59</ele>
      </trkpt>
      <trkpt lat="50.88051" lon="4.56137">
        <ele>59</ele>
      </trkpt>
      <trkpt lat="50.88047" lon="4.56195">
        <ele>59</ele>
      </trkpt>
      <trkpt lat="50.88029" lon="4.56297">
        <ele>58</ele>
      </trkpt>
      <trkpt lat="50.88007" lon="4.56408">
        <ele>51</ele>
      </trkpt>
      <trkpt lat="50.88005" lon="4.56437">
        <ele>49</ele>
      </trkpt>
      <trkpt lat="50.88009" lon="4.56619">
        <ele>46</ele>
      </trkpt>
      <trkpt lat="50.88006" lon="4.56621">
        <ele>46</ele>
      </trkpt>
      <trkpt lat="50.88002" lon="4.5663">
        <ele>46</ele>
      </trkpt>
      <trkpt lat="50.88002" lon="4.56636">
        <ele>46</ele>
      </trkpt>
      <trkpt lat="50.87913" lon="4.56684">
        <ele>46</ele>
      </trkpt>
      <trkpt lat="50.87886" lon="4.567">
        <ele>46</ele>
      </trkpt>
      <trkpt lat="50.87784" lon="4.56786">
        <ele>50</ele>
      </trkpt>
      <trkpt lat="50.87739" lon="4.5681">
        <ele>53</ele>
      </trkpt>
      <trkpt lat="50.87738" lon="4.56806">
        <ele>53</ele>
      </trkpt>
      <trkpt lat="50.8773" lon="4.568">
        <ele>53</ele>
      </trkpt>
      <trkpt lat="50.87725" lon="4.56802">
        <ele>53</ele>
      </trkpt>
      <trkpt lat="50.87722" lon="4.56806">
        <ele>53</ele>
      </trkpt>
      <trkpt lat="50.87719" lon="4.56816">
        <ele>53</ele>
      </trkpt>
      <trkpt lat="50.87711" lon="4.56815">
        <ele>54</ele>
      </trkpt>
      <trkpt lat="50.87662" lon="4.56822">
        <ele>55</ele>
      </trkpt>
      <trkpt lat="50.87598" lon="4.5685">
        <ele>56</ele>
      </trkpt>
      <trkpt lat="50.87538" lon="4.56861">
        <ele>57</ele>
      </trkpt>
      <trkpt lat="50.87479" lon="4.56875">
        <ele>57</ele>
      </trkpt>
      <trkpt lat="50.87461" lon="4.56871">
        <ele>57</ele>
      </trkpt>
      <trkpt lat="50.87387" lon="4.56838">
        <ele>57</ele>
      </trkpt>
      <trkpt lat="50.87369" lon="4.56827">
        <ele>57</ele>
      </trkpt>
      <trkpt lat="50.87352" lon="4.56811">
        <ele>58</ele>
      </trkpt>
      <trkpt lat="50.87336" lon="4.56785">
        <ele>59</ele>
      </trkpt>
      <trkpt lat="50.87327" lon="4.56763">
        <ele>59</ele>
      </trkpt>
      <trkpt lat="50.87317" lon="4.56718">
        <ele>59</ele>
      </trkpt>
      <trkpt lat="50.87299" lon="4.56596">
        <ele>59</ele>
      </trkpt>
      <trkpt lat="50.87288" lon="4.56564">
        <ele>59</ele>
      </trkpt>
      <trkpt lat="50.87279" lon="4.56547">
        <ele>59</ele>
      </trkpt>
      <trkpt lat="50.87272" lon="4.56542">
        <ele>59</ele>
      </trkpt>
      <trkpt lat="50.87118" lon="4.56472">
        <ele>65</ele>
      </trkpt>
      <trkpt lat="50.87082" lon="4.56449">
        <ele>64</ele>
      </trkpt>
      <trkpt lat="50.87054" lon="4.56424">
        <ele>64</ele>
      </trkpt>
      <trkpt lat="50.86938" lon="4.56286">
        <ele>68</ele>
      </trkpt>
      <trkpt lat="50.86896" lon="4.56241">
        <ele>69</ele>
      </trkpt>
      <trkpt lat="50.8687" lon="4.56217">
        <ele>69</ele>
      </trkpt>
      <trkpt lat="50.86653" lon="4.5604">
        <ele>80</ele>
      </trkpt>
      <trkpt lat="50.86631" lon="4.56017">
        <ele>81</ele>
      </trkpt>
      <trkpt lat="50.8657" lon="4.55938">
        <ele>92</ele>
      </trkpt>
      <trkpt lat="50.86544" lon="4.5591">
        <ele>93</ele>
      </trkpt>
      <trkpt lat="50.86369" lon="4.55743">
        <ele>99</ele>
      </trkpt>
      <trkpt lat="50.86341" lon="4.55723">
        <ele>101</ele>
      </trkpt>
      <trkpt lat="50.86323" lon="4.55715">
        <ele>101</ele>
      </trkpt>
      <trkpt lat="50.86104" lon="4.5569">
        <ele>98</ele>
      </trkpt>
      <trkpt lat="50.86087" lon="4.55686">
        <ele>98</ele>
      </trkpt>
      <trkpt lat="50.86076" lon="4.55677">
        <ele>98</ele>
      </trkpt>
      <trkpt lat="50.86066" lon="4.55665">
        <ele>98</ele>
      </trkpt>
      <trkpt lat="50.86043" lon="4.55629">
        <ele>99</ele>
      </trkpt>
      <trkpt lat="50.85952" lon="4.55451">
        <ele>97</ele>
      </trkpt>
      <trkpt lat="50.85924" lon="4.55405">
        <ele>98</ele>
      </trkpt>
      <trkpt lat="50.85884" lon="4.55351">
        <ele>98</ele>
      </trkpt>
      <trkpt lat="50.85886" lon="4.55347">
        <ele>98</ele>
      </trkpt>
      <trkpt lat="50.85884" lon="4.55351">
        <ele>98</ele>
      </trkpt>
      <trkpt lat="50.85832" lon="4.5528">
        <ele>99</ele>
      </trkpt>
      <trkpt lat="50.85811" lon="4.55256">
        <ele>100</ele>
      </trkpt>
      <trkpt lat="50.8578" lon="4.55233">
        <ele>100</ele>
      </trkpt>
      <trkpt lat="50.85765" lon="4.55227">
        <ele>100</ele>
      </trkpt>
      <trkpt lat="50.85733" lon="4.55221">
        <ele>100</ele>
      </trkpt>
      <trkpt lat="50.85632" lon="4.55222">
        <ele>98</ele>
      </trkpt>
      <trkpt lat="50.85589" lon="4.55223">
        <ele>97</ele>
      </trkpt>
      <trkpt lat="50.85589" lon="4.55179">
        <ele>97</ele>
      </trkpt>
      <trkpt lat="50.85579" lon="4.5512">
        <ele>97</ele>
      </trkpt>
      <trkpt lat="50.85579" lon="4.5511">
        <ele>97</ele>
      </trkpt>
      <trkpt lat="50.8558" lon="4.551">
        <ele>97</ele>
      </trkpt>
      <trkpt lat="50.8559" lon="4.55075">
        <ele>97</ele>
      </trkpt>
      <trkpt lat="50.85613" lon="4.5502">
        <ele>97</ele>
      </trkpt>
      <trkpt lat="50.85616" lon="4.55007">
        <ele>97</ele>
      </trkpt>
      <trkpt lat="50.85614" lon="4.54986">
        <ele>96</ele>
      </trkpt>
      <trkpt lat="50.85498" lon="4.54695">
        <ele>97</ele>
      </trkpt>
      <trkpt lat="50.85478" lon="4.54641">
        <ele>97</ele>
      </trkpt>
      <trkpt lat="50.85341" lon="4.54312">
        <ele>98</ele>
      </trkpt>
      <trkpt lat="50.85206" lon="4.5399">
        <ele>93</ele>
      </trkpt>
      <trkpt lat="50.85155" lon="4.53991">
        <ele>95</ele>
      </trkpt>
      <trkpt lat="50.84982" lon="4.53978">
        <ele>95</ele>
      </trkpt>
      <trkpt lat="50.84971" lon="4.53972">
        <ele>95</ele>
      </trkpt>
      <trkpt lat="50.84916" lon="4.53924">
        <ele>95</ele>
      </trkpt>
      <trkpt lat="50.84823" lon="4.53841">
        <ele>94</ele>
      </trkpt>
      <trkpt lat="50.84785" lon="4.53819">
        <ele>93</ele>
      </trkpt>
      <trkpt lat="50.84768" lon="4.53814">
        <ele>93</ele>
      </trkpt>
      <trkpt lat="50.84724" lon="4.53812">
        <ele>92</ele>
      </trkpt>
      <trkpt lat="50.84688" lon="4.53805">
        <ele>91</ele>
      </trkpt>
      <trkpt lat="50.84651" lon="4.53792">
        <ele>89</ele>
      </trkpt>
      <trkpt lat="50.84598" lon="4.53765">
        <ele>89</ele>
      </trkpt>
      <trkpt lat="50.84559" lon="4.53737">
        <ele>87</ele>
      </trkpt>
      <trkpt lat="50.84429" lon="4.53627">
        <ele>83</ele>
      </trkpt>
      <trkpt lat="50.84412" lon="4.53616">
        <ele>83</ele>
      </trkpt>
      <trkpt lat="50.84348" lon="4.5358">
        <ele>83</ele>
      </trkpt>
      <trkpt lat="50.8433" lon="4.53573">
        <ele>82</ele>
      </trkpt>
      <trkpt lat="50.84314" lon="4.53572">
        <ele>82</ele>
      </trkpt>
      <trkpt lat="50.84298" lon="4.53575">
        <ele>82</ele>
      </trkpt>
      <trkpt lat="50.84283" lon="4.53582">
        <ele>84</ele>
      </trkpt>
      <trkpt lat="50.84252" lon="4.53607">
        <ele>83</ele>
      </trkpt>
      <trkpt lat="50.84075" lon="4.53768">
        <ele>75</ele>
      </trkpt>
      <trkpt lat="50.83963" lon="4.5387">
        <ele>73</ele>
      </trkpt>
      <trkpt lat="50.83892" lon="4.53932">
        <ele>73</ele>
      </trkpt>
      <trkpt lat="50.83827" lon="4.5397">
        <ele>73</ele>
      </trkpt>
      <trkpt lat="50.8363" lon="4.54045">
        <ele>77</ele>
      </trkpt>
      <trkpt lat="50.83637" lon="4.54091">
        <ele>79</ele>
      </trkpt>
      <trkpt lat="50.83683" lon="4.54349">
        <ele>84</ele>
      </trkpt>
      <trkpt lat="50.83686" lon="4.54377">
        <ele>84</ele>
      </trkpt>
      <trkpt lat="50.83686" lon="4.54407">
        <ele>84</ele>
      </trkpt>
      <trkpt lat="50.83684" lon="4.54428">
        <ele>84</ele>
      </trkpt>
      <trkpt lat="50.83681" lon="4.54452">
        <ele>84</ele>
      </trkpt>
      <trkpt lat="50.83675" lon="4.54476">
        <ele>85</ele>
      </trkpt>
      <trkpt lat="50.83666" lon="4.54502">
        <ele>84</ele>
      </trkpt>
      <trkpt lat="50.83658" lon="4.54518">
        <ele>84</ele>
      </trkpt>
      <trkpt lat="50.83655" lon="4.54534">
        <ele>84</ele>
      </trkpt>
      <trkpt lat="50.83655" lon="4.54545">
        <ele>84</ele>
      </trkpt>
      <trkpt lat="50.83663" lon="4.54601">
        <ele>82</ele>
      </trkpt>
      <trkpt lat="50.83667" lon="4.54616">
        <ele>82</ele>
      </trkpt>
      <trkpt lat="50.83674" lon="4.5462">
        <ele>82</ele>
      </trkpt>
      <trkpt lat="50.83665" lon="4.5471">
        <ele>80</ele>
      </trkpt>
      <trkpt lat="50.83664" lon="4.54746">
        <ele>78</ele>
      </trkpt>
      <trkpt lat="50.83656" lon="4.54974">
        <ele>75</ele>
      </trkpt>
      <trkpt lat="50.83578" lon="4.55363">
        <ele>71</ele>
      </trkpt>
      <trkpt lat="50.8355" lon="4.5554">
        <ele>67</ele>
      </trkpt>
      <trkpt lat="50.83541" lon="4.55593">
        <ele>64</ele>
      </trkpt>
      <trkpt lat="50.8353" lon="4.5562">
        <ele>64</ele>
      </trkpt>
      <trkpt lat="50.83526" lon="4.55626">
        <ele>64</ele>
      </trkpt>
      <trkpt lat="50.83458" lon="4.55726">
        <ele>61</ele>
      </trkpt>
      <trkpt lat="50.8345" lon="4.55732">
        <ele>61</ele>
      </trkpt>
      <trkpt lat="50.83341" lon="4.55773">
        <ele>57</ele>
      </trkpt>
      <trkpt lat="50.83312" lon="4.55787">
        <ele>55</ele>
      </trkpt>
      <trkpt lat="50.83287" lon="4.55803">
        <ele>56</ele>
      </trkpt>
      <trkpt lat="50.83272" lon="4.55817">
        <ele>56</ele>
      </trkpt>
      <trkpt lat="50.83241" lon="4.55853">
        <ele>59</ele>
      </trkpt>
      <trkpt lat="50.83239" lon="4.5585">
        <ele>59</ele>
      </trkpt>
      <trkpt lat="50.83231" lon="4.55851">
        <ele>59</ele>
      </trkpt>
      <trkpt lat="50.83228" lon="4.55861">
        <ele>59</ele>
      </trkpt>
      <trkpt lat="50.83229" lon="4.55869">
        <ele>59</ele>
      </trkpt>
      <trkpt lat="50.83236" lon="4.55873">
        <ele>59</ele>
      </trkpt>
      <trkpt lat="50.83239" lon="4.55872">
        <ele>59</ele>
      </trkpt>
      <trkpt lat="50.83245" lon="4.55889">
        <ele>59</ele>
      </trkpt>
      <trkpt lat="50.83249" lon="4.55905">
        <ele>59</ele>
      </trkpt>
      <trkpt lat="50.83255" lon="4.55929">
        <ele>59</ele>
      </trkpt>
      <trkpt lat="50.83287" lon="4.56167">
        <ele>56</ele>
      </trkpt>
      <trkpt lat="50.83298" lon="4.56214">
        <ele>55</ele>
      </trkpt>
      <trkpt lat="50.8333" lon="4.5629">
        <ele>56</ele>
      </trkpt>
      <trkpt lat="50.83364" lon="4.56378">
        <ele>57</ele>
      </trkpt>
      <trkpt lat="50.83371" lon="4.5642">
        <ele>58</ele>
      </trkpt>
      <trkpt lat="50.83371" lon="4.56437">
        <ele>58</ele>
      </trkpt>
      <trkpt lat="50.83335" lon="4.56476">
        <ele>59</ele>
      </trkpt>
      <trkpt lat="50.83234" lon="4.56584">
        <ele>61</ele>
      </trkpt>
      <trkpt lat="50.83201" lon="4.56619">
        <ele>61</ele>
      </trkpt>
      <trkpt lat="50.83176" lon="4.56651">
        <ele>60</ele>
      </trkpt>
      <trkpt lat="50.83163" lon="4.56657">
        <ele>60</ele>
      </trkpt>
      <trkpt lat="50.83155" lon="4.56658">
        <ele>60</ele>
      </trkpt>
      <trkpt lat="50.83146" lon="4.56652">
        <ele>60</ele>
      </trkpt>
      <trkpt lat="50.83148" lon="4.56647">
        <ele>60</ele>
      </trkpt>
      <trkpt lat="50.8311" lon="4.5662">
        <ele>60</ele>
      </trkpt>
      <trkpt lat="50.83085" lon="4.56607">
        <ele>61</ele>
      </trkpt>
      <trkpt lat="50.83056" lon="4.56599">
        <ele>62</ele>
      </trkpt>
      <trkpt lat="50.82942" lon="4.56585">
        <ele>66</ele>
      </trkpt>
      <trkpt lat="50.8283" lon="4.56558">
        <ele>72</ele>
      </trkpt>
      <trkpt lat="50.82722" lon="4.56537">
        <ele>76</ele>
      </trkpt>
      <trkpt lat="50.82581" lon="4.56505">
        <ele>83</ele>
      </trkpt>
      <trkpt lat="50.82528" lon="4.56489">
        <ele>83</ele>
      </trkpt>
      <trkpt lat="50.82467" lon="4.56465">
        <ele>86</ele>
      </trkpt>
      <trkpt lat="50.82367" lon="4.56412">
        <ele>91</ele>
      </trkpt>
      <trkpt lat="50.82321" lon="4.56385">
        <ele>94</ele>
      </trkpt>
      <trkpt lat="50.8215" lon="4.56275">
        <ele>101</ele>
      </trkpt>
      <trkpt lat="50.82072" lon="4.56233">
        <ele>101</ele>
      </trkpt>
      <trkpt lat="50.82063" lon="4.56225">
        <ele>101</ele>
      </trkpt>
      <trkpt lat="50.82033" lon="4.56188">
        <ele>100</ele>
      </trkpt>
      <trkpt lat="50.82006" lon="4.56142">
        <ele>99</ele>
      </trkpt>
      <trkpt lat="50.81988" lon="4.56103">
        <ele>99</ele>
      </trkpt>
      <trkpt lat="50.81967" lon="4.56046">
        <ele>97</ele>
      </trkpt>
      <trkpt lat="50.81965" lon="4.56048">
        <ele>97</ele>
      </trkpt>
      <trkpt lat="50.81943" lon="4.56005">
        <ele>97</ele>
      </trkpt>
      <trkpt lat="50.8188" lon="4.55854">
        <ele>98</ele>
      </trkpt>
      <trkpt lat="50.81868" lon="4.55869">
        <ele>98</ele>
      </trkpt>
      <trkpt lat="50.8188" lon="4.55854">
        <ele>98</ele>
      </trkpt>
      <trkpt lat="50.81827" lon="4.5568">
        <ele>100</ele>
      </trkpt>
      <trkpt lat="50.81717" lon="4.55372">
        <ele>100</ele>
      </trkpt>
      <trkpt lat="50.81706" lon="4.55345">
        <ele>99</ele>
      </trkpt>
      <trkpt lat="50.81695" lon="4.55326">
        <ele>99</ele>
      </trkpt>
      <trkpt lat="50.81642" lon="4.55254">
        <ele>97</ele>
      </trkpt>
      <trkpt lat="50.81609" lon="4.55187">
        <ele>94</ele>
      </trkpt>
      <trkpt lat="50.81416" lon="4.55217">
        <ele>95</ele>
      </trkpt>
      <trkpt lat="50.81375" lon="4.55227">
        <ele>95</ele>
      </trkpt>
      <trkpt lat="50.81314" lon="4.55201">
        <ele>96</ele>
      </trkpt>
      <trkpt lat="50.81192" lon="4.55144">
        <ele>97</ele>
      </trkpt>
      <trkpt lat="50.81136" lon="4.55127">
        <ele>99</ele>
      </trkpt>
      <trkpt lat="50.80885" lon="4.55057">
        <ele>94</ele>
      </trkpt>
      <trkpt lat="50.80824" lon="4.55044">
        <ele>90</ele>
      </trkpt>
      <trkpt lat="50.80797" lon="4.55041">
        <ele>90</ele>
      </trkpt>
      <trkpt lat="50.80772" lon="4.55043">
        <ele>90</ele>
      </trkpt>
      <trkpt lat="50.80747" lon="4.5505">
        <ele>88</ele>
      </trkpt>
      <trkpt lat="50.80713" lon="4.55065">
        <ele>87</ele>
      </trkpt>
      <trkpt lat="50.80634" lon="4.5513">
        <ele>84</ele>
      </trkpt>
      <trkpt lat="50.80593" lon="4.5517">
        <ele>82</ele>
      </trkpt>
      <trkpt lat="50.80569" lon="4.55188">
        <ele>82</ele>
      </trkpt>
      <trkpt lat="50.80536" lon="4.55208">
        <ele>81</ele>
      </trkpt>
      <trkpt lat="50.80494" lon="4.55228">
        <ele>80</ele>
      </trkpt>
      <trkpt lat="50.80462" lon="4.55238">
        <ele>80</ele>
      </trkpt>
      <trkpt lat="50.80335" lon="4.55268">
        <ele>78</ele>
      </trkpt>
      <trkpt lat="50.80302" lon="4.55269">
        <ele>78</ele>
      </trkpt>
      <trkpt lat="50.80263" lon="4.55262">
        <ele>76</ele>
      </trkpt>
      <trkpt lat="50.80246" lon="4.55255">
        <ele>76</ele>
      </trkpt>
      <trkpt lat="50.80211" lon="4.55231">
        <ele>75</ele>
      </trkpt>
      <trkpt lat="50.80192" lon="4.55208">
        <ele>75</ele>
      </trkpt>
      <trkpt lat="50.80121" lon="4.55134">
        <ele>73</ele>
      </trkpt>
      <trkpt lat="50.80085" lon="4.55093">
        <ele>74</ele>
      </trkpt>
      <trkpt lat="50.80043" lon="4.55053">
        <ele>74</ele>
      </trkpt>
      <trkpt lat="50.79964" lon="4.5502">
        <ele>73</ele>
      </trkpt>
      <trkpt lat="50.79945" lon="4.55">
        <ele>73</ele>
      </trkpt>
      <trkpt lat="50.79836" lon="4.54907">
        <ele>70</ele>
      </trkpt>
      <trkpt lat="50.79804" lon="4.54879">
        <ele>69</ele>
      </trkpt>
      <trkpt lat="50.79772" lon="4.54856">
        <ele>69</ele>
      </trkpt>
      <trkpt lat="50.79687" lon="4.54744">
        <ele>69</ele>
      </trkpt>
      <trkpt lat="50.79674" lon="4.54737">
        <ele>71</ele>
      </trkpt>
      <trkpt lat="50.79639" lon="4.54733">
        <ele>71</ele>
      </trkpt>
      <trkpt lat="50.79621" lon="4.54721">
        <ele>72</ele>
      </trkpt>
      <trkpt lat="50.79601" lon="4.54694">
        <ele>72</ele>
      </trkpt>
      <trkpt lat="50.79552" lon="4.54601">
        <ele>75</ele>
      </trkpt>
      <trkpt lat="50.7952" lon="4.54545">
        <ele>76</ele>
      </trkpt>
      <trkpt lat="50.7932" lon="4.54235">
        <ele>89</ele>
      </trkpt>
      <trkpt lat="50.79296" lon="4.54204">
        <ele>89</ele>
      </trkpt>
      <trkpt lat="50.79257" lon="4.54167">
        <ele>92</ele>
      </trkpt>
      <trkpt lat="50.79216" lon="4.54143">
        <ele>93</ele>
      </trkpt>
      <trkpt lat="50.79031" lon="4.54075">
        <ele>99</ele>
      </trkpt>
      <trkpt lat="50.79011" lon="4.54063">
        <ele>101</ele>
      </trkpt>
      <trkpt lat="50.78982" lon="4.54037">
        <ele>101</ele>
      </trkpt>
      <trkpt lat="50.78971" lon="4.54024">
        <ele>101</ele>
      </trkpt>
      <trkpt lat="50.78842" lon="4.53823">
        <ele>105</ele>
      </trkpt>
      <trkpt lat="50.7881" lon="4.53776">
        <ele>105</ele>
      </trkpt>
      <trkpt lat="50.78789" lon="4.53755">
        <ele>105</ele>
      </trkpt>
      <trkpt lat="50.78749" lon="4.53724">
        <ele>107</ele>
      </trkpt>
      <trkpt lat="50.78721" lon="4.53695">
        <ele>107</ele>
      </trkpt>
      <trkpt lat="50.78697" lon="4.5366">
        <ele>107</ele>
      </trkpt>
      <trkpt lat="50.78685" lon="4.53638">
        <ele>107</ele>
      </trkpt>
      <trkpt lat="50.78623" lon="4.53505">
        <ele>108</ele>
      </trkpt>
      <trkpt lat="50.78601" lon="4.53468">
        <ele>107</ele>
      </trkpt>
      <trkpt lat="50.78389" lon="4.53166">
        <ele>110</ele>
      </trkpt>
      <trkpt lat="50.78324" lon="4.53069">
        <ele>110</ele>
      </trkpt>
      <trkpt lat="50.78298" lon="4.53021">
        <ele>110</ele>
      </trkpt>
      <trkpt lat="50.7828" lon="4.52969">
        <ele>110</ele>
      </trkpt>
      <trkpt lat="50.78267" lon="4.52921">
        <ele>109</ele>
      </trkpt>
      <trkpt lat="50.78257" lon="4.52868">
        <ele>109</ele>
      </trkpt>
      <trkpt lat="50.78249" lon="4.52804">
        <ele>110</ele>
      </trkpt>
      <trkpt lat="50.78228" lon="4.526">
        <ele>111</ele>
      </trkpt>
      <trkpt lat="50.78217" lon="4.5254">
        <ele>111</ele>
      </trkpt>
      <trkpt lat="50.7821" lon="4.52515">
        <ele>111</ele>
      </trkpt>
      <trkpt lat="50.78195" lon="4.52466">
        <ele>110</ele>
      </trkpt>
      <trkpt lat="50.78178" lon="4.52418">
        <ele>111</ele>
      </trkpt>
      <trkpt lat="50.78162" lon="4.52382">
        <ele>111</ele>
      </trkpt>
      <trkpt lat="50.78075" lon="4.52206">
        <ele>110</ele>
      </trkpt>
      <trkpt lat="50.78054" lon="4.52176">
        <ele>110</ele>
      </trkpt>
      <trkpt lat="50.7802" lon="4.52143">
        <ele>109</ele>
      </trkpt>
      <trkpt lat="50.78006" lon="4.52134">
        <ele>108</ele>
      </trkpt>
      <trkpt lat="50.77977" lon="4.52126">
        <ele>107</ele>
      </trkpt>
      <trkpt lat="50.77867" lon="4.5212">
        <ele>106</ele>
      </trkpt>
      <trkpt lat="50.7783" lon="4.52121">
        <ele>107</ele>
      </trkpt>
      <trkpt lat="50.77807" lon="4.52112">
        <ele>107</ele>
      </trkpt>
      <trkpt lat="50.77797" lon="4.52103">
        <ele>107</ele>
      </trkpt>
      <trkpt lat="50.77773" lon="4.52066">
        <ele>107</ele>
      </trkpt>
      <trkpt lat="50.77688" lon="4.51926">
        <ele>106</ele>
      </trkpt>
      <trkpt lat="50.77578" lon="4.51738">
        <ele>104</ele>
      </trkpt>
      <trkpt lat="50.77551" lon="4.51699">
        <ele>105</ele>
      </trkpt>
      <trkpt lat="50.77521" lon="4.51665">
        <ele>104</ele>
      </trkpt>
      <trkpt lat="50.77509" lon="4.51661">
        <ele>104</ele>
      </trkpt>
      <trkpt lat="50.77503" lon="4.51663">
        <ele>104</ele>
      </trkpt>
      <trkpt lat="50.77503" lon="4.51655">
        <ele>103</ele>
      </trkpt>
      <trkpt lat="50.77499" lon="4.51642">
        <ele>103</ele>
      </trkpt>
      <trkpt lat="50.774" lon="4.51483">
        <ele>101</ele>
      </trkpt>
      <trkpt lat="50.77386" lon="4.51459">
        <ele>101</ele>
      </trkpt>
      <trkpt lat="50.77381" lon="4.51454">
        <ele>101</ele>
      </trkpt>
      <trkpt lat="50.77371" lon="4.51448">
        <ele>101</ele>
      </trkpt>
      <trkpt lat="50.77371" lon="4.51434">
        <ele>101</ele>
      </trkpt>
      <trkpt lat="50.77369" lon="4.51428">
        <ele>101</ele>
      </trkpt>
      <trkpt lat="50.77289" lon="4.51289">
        <ele>101</ele>
      </trkpt>
      <trkpt lat="50.77254" lon="4.51241">
        <ele>101</ele>
      </trkpt>
      <trkpt lat="50.77216" lon="4.51223">
        <ele>101</ele>
      </trkpt>
      <trkpt lat="50.77148" lon="4.51184">
        <ele>101</ele>
      </trkpt>
      <trkpt lat="50.77138" lon="4.51182">
        <ele>101</ele>
      </trkpt>
      <trkpt lat="50.77102" lon="4.51183">
        <ele>101</ele>
      </trkpt>
      <trkpt lat="50.77092" lon="4.51179">
        <ele>98</ele>
      </trkpt>
      <trkpt lat="50.77066" lon="4.51156">
        <ele>99</ele>
      </trkpt>
      <trkpt lat="50.77041" lon="4.51102">
        <ele>99</ele>
      </trkpt>
      <trkpt lat="50.7702" lon="4.51055">
        <ele>95</ele>
      </trkpt>
      <trkpt lat="50.7701" lon="4.51015">
        <ele>87</ele>
      </trkpt>
      <trkpt lat="50.77" lon="4.50958">
        <ele>82</ele>
      </trkpt>
      <trkpt lat="50.76993" lon="4.50875">
        <ele>75</ele>
      </trkpt>
      <trkpt lat="50.76989" lon="4.50852">
        <ele>74</ele>
      </trkpt>
      <trkpt lat="50.76972" lon="4.50798">
        <ele>69</ele>
      </trkpt>
      <trkpt lat="50.76965" lon="4.50753">
        <ele>68</ele>
      </trkpt>
      <trkpt lat="50.7694" lon="4.50764">
        <ele>68</ele>
      </trkpt>
      <trkpt lat="50.7693" lon="4.50763">
        <ele>68</ele>
      </trkpt>
      <trkpt lat="50.76962" lon="4.50595">
        <ele>65</ele>
      </trkpt>
      <trkpt lat="50.76996" lon="4.50403">
        <ele>69</ele>
      </trkpt>
      <trkpt lat="50.76994" lon="4.50328">
        <ele>69</ele>
      </trkpt>
      <trkpt lat="50.7699" lon="4.50259">
        <ele>70</ele>
      </trkpt>
      <trkpt lat="50.76988" lon="4.50219">
        <ele>70</ele>
      </trkpt>
      <trkpt lat="50.76977" lon="4.50222">
        <ele>70</ele>
      </trkpt>
      <trkpt lat="50.76988" lon="4.50219">
        <ele>70</ele>
      </trkpt>
      <trkpt lat="50.76982" lon="4.50091">
        <ele>70</ele>
      </trkpt>
      <trkpt lat="50.76987" lon="4.49947">
        <ele>69</ele>
      </trkpt>
      <trkpt lat="50.76986" lon="4.49879">
        <ele>70</ele>
      </trkpt>
      <trkpt lat="50.76973" lon="4.49715">
        <ele>74</ele>
      </trkpt>
      <trkpt lat="50.7697" lon="4.49469">
        <ele>75</ele>
      </trkpt>
      <trkpt lat="50.76966" lon="4.49413">
        <ele>75</ele>
      </trkpt>
      <trkpt lat="50.76958" lon="4.49371">
        <ele>73</ele>
      </trkpt>
      <trkpt lat="50.76867" lon="4.48991">
        <ele>70</ele>
      </trkpt>
      <trkpt lat="50.7686" lon="4.48957">
        <ele>70</ele>
      </trkpt>
      <trkpt lat="50.76857" lon="4.48932">
        <ele>70</ele>
      </trkpt>
      <trkpt lat="50.76856" lon="4.4888">
        <ele>69</ele>
      </trkpt>
      <trkpt lat="50.76864" lon="4.4883">
        <ele>69</ele>
      </trkpt>
      <trkpt lat="50.76901" lon="4.48718">
        <ele>67</ele>
      </trkpt>
      <trkpt lat="50.76909" lon="4.48704">
        <ele>67</ele>
      </trkpt>
      <trkpt lat="50.7697" lon="4.48361">
        <ele>78</ele>
      </trkpt>
      <trkpt lat="50.76981" lon="4.48295">
        <ele>81</ele>
      </trkpt>
      <trkpt lat="50.76984" lon="4.48259">
        <ele>82</ele>
      </trkpt>
      <trkpt lat="50.76985" lon="4.48229">
        <ele>84</ele>
      </trkpt>
      <trkpt lat="50.76934" lon="4.48229">
        <ele>80</ele>
      </trkpt>
      <trkpt lat="50.76862" lon="4.48229">
        <ele>71</ele>
      </trkpt>
      <trkpt lat="50.76782" lon="4.48223">
        <ele>70</ele>
      </trkpt>
      <trkpt lat="50.7676" lon="4.48302">
        <ele>70</ele>
      </trkpt>
      <trkpt lat="50.76754" lon="4.48318">
        <ele>70</ele>
      </trkpt>
      <trkpt lat="50.767" lon="4.48424">
        <ele>69</ele>
      </trkpt>
      <trkpt lat="50.76697" lon="4.48433">
        <ele>69</ele>
      </trkpt>
      <trkpt lat="50.76695" lon="4.48447">
        <ele>69</ele>
      </trkpt>
      <trkpt lat="50.76695" lon="4.48464">
        <ele>69</ele>
      </trkpt>
      <trkpt lat="50.76706" lon="4.48626">
        <ele>67</ele>
      </trkpt>
      <trkpt lat="50.76699" lon="4.48724">
        <ele>66</ele>
      </trkpt>
      <trkpt lat="50.76656" lon="4.48732">
        <ele>68</ele>
      </trkpt>
      <trkpt lat="50.76598" lon="4.48724">
        <ele>70</ele>
      </trkpt>
      <trkpt lat="50.76525" lon="4.48704">
        <ele>74</ele>
      </trkpt>
      <trkpt lat="50.76437" lon="4.48666">
        <ele>80</ele>
      </trkpt>
      <trkpt lat="50.76411" lon="4.48653">
        <ele>82</ele>
      </trkpt>
      <trkpt lat="50.76384" lon="4.48636">
        <ele>82</ele>
      </trkpt>
      <trkpt lat="50.7631" lon="4.48581">
        <ele>87</ele>
      </trkpt>
      <trkpt lat="50.763" lon="4.48576">
        <ele>87</ele>
      </trkpt>
      <trkpt lat="50.76253" lon="4.48574">
        <ele>91</ele>
      </trkpt>
      <trkpt lat="50.76243" lon="4.48566">
        <ele>91</ele>
      </trkpt>
      <trkpt lat="50.76234" lon="4.48555">
        <ele>91</ele>
      </trkpt>
      <trkpt lat="50.76202" lon="4.485">
        <ele>92</ele>
      </trkpt>
      <trkpt lat="50.76195" lon="4.48492">
        <ele>92</ele>
      </trkpt>
      <trkpt lat="50.76187" lon="4.48486">
        <ele>90</ele>
      </trkpt>
      <trkpt lat="50.76178" lon="4.48483">
        <ele>93</ele>
      </trkpt>
      <trkpt lat="50.76168" lon="4.48483">
        <ele>93</ele>
      </trkpt>
      <trkpt lat="50.76153" lon="4.4849">
        <ele>93</ele>
      </trkpt>
      <trkpt lat="50.76109" lon="4.48543">
        <ele>96</ele>
      </trkpt>
      <trkpt lat="50.76014" lon="4.48634">
        <ele>98</ele>
      </trkpt>
      <trkpt lat="50.75906" lon="4.48745">
        <ele>105</ele>
      </trkpt>
      <trkpt lat="50.75897" lon="4.48768">
        <ele>105</ele>
      </trkpt>
      <trkpt lat="50.75832" lon="4.49015">
        <ele>106</ele>
      </trkpt>
      <trkpt lat="50.75776" lon="4.49176">
        <ele>104</ele>
      </trkpt>
      <trkpt lat="50.75772" lon="4.49181">
        <ele>104</ele>
      </trkpt>
      <trkpt lat="50.75764" lon="4.49183">
        <ele>104</ele>
      </trkpt>
      <trkpt lat="50.75764" lon="4.49226">
        <ele>104</ele>
      </trkpt>
      <trkpt lat="50.75756" lon="4.49279">
        <ele>103</ele>
      </trkpt>
      <trkpt lat="50.7574" lon="4.49352">
        <ele>103</ele>
      </trkpt>
      <trkpt lat="50.75726" lon="4.49386">
        <ele>103</ele>
      </trkpt>
      <trkpt lat="50.75729" lon="4.49392">
        <ele>103</ele>
      </trkpt>
      <trkpt lat="50.75726" lon="4.49386">
        <ele>103</ele>
      </trkpt>
      <trkpt lat="50.7572" lon="4.49399">
        <ele>103</ele>
      </trkpt>
      <trkpt lat="50.75706" lon="4.49421">
        <ele>103</ele>
      </trkpt>
      <trkpt lat="50.75644" lon="4.49503">
        <ele>104</ele>
      </trkpt>
      <trkpt lat="50.75604" lon="4.49564">
        <ele>104</ele>
      </trkpt>
      <trkpt lat="50.75592" lon="4.49593">
        <ele>104</ele>
      </trkpt>
      <trkpt lat="50.75558" lon="4.49685">
        <ele>105</ele>
      </trkpt>
      <trkpt lat="50.75535" lon="4.49727">
        <ele>105</ele>
      </trkpt>
      <trkpt lat="50.7549" lon="4.49795">
        <ele>104</ele>
      </trkpt>
      <trkpt lat="50.75476" lon="4.49821">
        <ele>104</ele>
      </trkpt>
      <trkpt lat="50.75452" lon="4.49891">
        <ele>103</ele>
      </trkpt>
      <trkpt lat="50.75441" lon="4.49929">
        <ele>102</ele>
      </trkpt>
      <trkpt lat="50.75382" lon="4.50144">
        <ele>100</ele>
      </trkpt>
      <trkpt lat="50.75336" lon="4.50326">
        <ele>97</ele>
      </trkpt>
      <trkpt lat="50.75283" lon="4.50551">
        <ele>97</ele>
      </trkpt>
      <trkpt lat="50.75275" lon="4.50595">
        <ele>98</ele>
      </trkpt>
      <trkpt lat="50.75268" lon="4.50651">
        <ele>97</ele>
      </trkpt>
      <trkpt lat="50.75265" lon="4.50698">
        <ele>98</ele>
      </trkpt>
      <trkpt lat="50.75262" lon="4.5071">
        <ele>97</ele>
      </trkpt>
      <trkpt lat="50.75201" lon="4.50895">
        <ele>96</ele>
      </trkpt>
      <trkpt lat="50.75178" lon="4.50947">
        <ele>96</ele>
      </trkpt>
      <trkpt lat="50.75088" lon="4.51101">
        <ele>100</ele>
      </trkpt>
      <trkpt lat="50.75057" lon="4.51161">
        <ele>101</ele>
      </trkpt>
      <trkpt lat="50.75032" lon="4.51222">
        <ele>102</ele>
      </trkpt>
      <trkpt lat="50.75015" lon="4.51276">
        <ele>102</ele>
      </trkpt>
      <trkpt lat="50.75012" lon="4.51293">
        <ele>103</ele>
      </trkpt>
      <trkpt lat="50.75003" lon="4.51409">
        <ele>104</ele>
      </trkpt>
      <trkpt lat="50.74993" lon="4.51505">
        <ele>104</ele>
      </trkpt>
      <trkpt lat="50.74984" lon="4.51574">
        <ele>104</ele>
      </trkpt>
      <trkpt lat="50.74975" lon="4.51644">
        <ele>103</ele>
      </trkpt>
      <trkpt lat="50.74965" lon="4.51761">
        <ele>103</ele>
      </trkpt>
      <trkpt lat="50.74959" lon="4.51797">
        <ele>103</ele>
      </trkpt>
      <trkpt lat="50.74953" lon="4.51816">
        <ele>103</ele>
      </trkpt>
      <trkpt lat="50.74945" lon="4.51833">
        <ele>103</ele>
      </trkpt>
      <trkpt lat="50.74925" lon="4.51864">
        <ele>103</ele>
      </trkpt>
      <trkpt lat="50.74873" lon="4.51934">
        <ele>104</ele>
      </trkpt>
      <trkpt lat="50.74704" lon="4.52179">
        <ele>103</ele>
      </trkpt>
      <trkpt lat="50.74663" lon="4.52264">
        <ele>100</ele>
      </trkpt>
      <trkpt lat="50.74625" lon="4.52376">
        <ele>99</ele>
      </trkpt>
      <trkpt lat="50.74618" lon="4.52389">
        <ele>99</ele>
      </trkpt>
      <trkpt lat="50.74613" lon="4.52399">
        <ele>99</ele>
      </trkpt>
      <trkpt lat="50.74595" lon="4.52422">
        <ele>98</ele>
      </trkpt>
      <trkpt lat="50.74593" lon="4.52431">
        <ele>98</ele>
      </trkpt>
      <trkpt lat="50.74684" lon="4.52435">
        <ele>101</ele>
      </trkpt>
      <trkpt lat="50.74699" lon="4.52432">
        <ele>101</ele>
      </trkpt>
      <trkpt lat="50.74783" lon="4.52407">
        <ele>104</ele>
      </trkpt>
      <trkpt lat="50.74865" lon="4.52365">
        <ele>106</ele>
      </trkpt>
      <trkpt lat="50.74945" lon="4.52891">
        <ele>101</ele>
      </trkpt>
      <trkpt lat="50.75007" lon="4.53265">
        <ele>98</ele>
      </trkpt>
      <trkpt lat="50.75042" lon="4.53462">
        <ele>98</ele>
      </trkpt>
      <trkpt lat="50.75114" lon="4.53866">
        <ele>94</ele>
      </trkpt>
      <trkpt lat="50.75121" lon="4.53924">
        <ele>96</ele>
      </trkpt>
      <trkpt lat="50.75122" lon="4.53955">
        <ele>96</ele>
      </trkpt>
      <trkpt lat="50.75122" lon="4.53987">
        <ele>96</ele>
      </trkpt>
      <trkpt lat="50.75116" lon="4.5411">
        <ele>97</ele>
      </trkpt>
      <trkpt lat="50.75116" lon="4.54152">
        <ele>97</ele>
      </trkpt>
      <trkpt lat="50.75118" lon="4.54204">
        <ele>96</ele>
      </trkpt>
      <trkpt lat="50.75131" lon="4.54342">
        <ele>95</ele>
      </trkpt>
      <trkpt lat="50.75146" lon="4.54453">
        <ele>93</ele>
      </trkpt>
      <trkpt lat="50.75227" lon="4.55032">
        <ele>89</ele>
      </trkpt>
      <trkpt lat="50.75252" lon="4.55154">
        <ele>88</ele>
      </trkpt>
      <trkpt lat="50.75284" lon="4.55293">
        <ele>87</ele>
      </trkpt>
      <trkpt lat="50.75291" lon="4.55316">
        <ele>87</ele>
      </trkpt>
      <trkpt lat="50.75342" lon="4.55457">
        <ele>82</ele>
      </trkpt>
      <trkpt lat="50.75384" lon="4.55572">
        <ele>78</ele>
      </trkpt>
      <trkpt lat="50.75394" lon="4.55608">
        <ele>76</ele>
      </trkpt>
      <trkpt lat="50.75397" lon="4.55631">
        <ele>76</ele>
      </trkpt>
      <trkpt lat="50.75398" lon="4.55692">
        <ele>73</ele>
      </trkpt>
      <trkpt lat="50.75397" lon="4.55834">
        <ele>65</ele>
      </trkpt>
      <trkpt lat="50.75392" lon="4.55909">
        <ele>63</ele>
      </trkpt>
      <trkpt lat="50.75393" lon="4.56123">
        <ele>53</ele>
      </trkpt>
      <trkpt lat="50.75392" lon="4.56242">
        <ele>50</ele>
      </trkpt>
      <trkpt lat="50.75387" lon="4.56315">
        <ele>50</ele>
      </trkpt>
      <trkpt lat="50.75386" lon="4.56394">
        <ele>50</ele>
      </trkpt>
      <trkpt lat="50.75392" lon="4.5669">
        <ele>48</ele>
      </trkpt>
      <trkpt lat="50.75392" lon="4.56716">
        <ele>48</ele>
      </trkpt>
      <trkpt lat="50.75403" lon="4.56711">
        <ele>48</ele>
      </trkpt>
      <trkpt lat="50.75412" lon="4.56708">
        <ele>49</ele>
      </trkpt>
      <trkpt lat="50.75424" lon="4.56708">
        <ele>50</ele>
      </trkpt>
      <trkpt lat="50.75441" lon="4.56711">
        <ele>57</ele>
      </trkpt>
      <trkpt lat="50.75452" lon="4.56717">
        <ele>58</ele>
      </trkpt>
      <trkpt lat="50.75499" lon="4.56758">
        <ele>58</ele>
      </trkpt>
      <trkpt lat="50.75518" lon="4.56761">
        <ele>66</ele>
      </trkpt>
      <trkpt lat="50.75525" lon="4.56757">
        <ele>67</ele>
      </trkpt>
      <trkpt lat="50.75532" lon="4.56749">
        <ele>67</ele>
      </trkpt>
      <trkpt lat="50.75537" lon="4.56735">
        <ele>69</ele>
      </trkpt>
      <trkpt lat="50.75539" lon="4.56717">
        <ele>69</ele>
      </trkpt>
      <trkpt lat="50.7554" lon="4.56646">
        <ele>70</ele>
      </trkpt>
      <trkpt lat="50.75549" lon="4.56594">
        <ele>70</ele>
      </trkpt>
      <trkpt lat="50.75557" lon="4.56565">
        <ele>69</ele>
      </trkpt>
      <trkpt lat="50.75569" lon="4.5654">
        <ele>69</ele>
      </trkpt>
      <trkpt lat="50.75584" lon="4.5652">
        <ele>69</ele>
      </trkpt>
      <trkpt lat="50.75599" lon="4.56509">
        <ele>71</ele>
      </trkpt>
      <trkpt lat="50.75614" lon="4.56504">
        <ele>71</ele>
      </trkpt>
      <trkpt lat="50.75634" lon="4.56503">
        <ele>71</ele>
      </trkpt>
      <trkpt lat="50.75658" lon="4.56509">
        <ele>71</ele>
      </trkpt>
      <trkpt lat="50.75671" lon="4.5651">
        <ele>71</ele>
      </trkpt>
      <trkpt lat="50.75692" lon="4.56483">
        <ele>73</ele>
      </trkpt>
      <trkpt lat="50.75711" lon="4.56445">
        <ele>74</ele>
      </trkpt>
      <trkpt lat="50.75774" lon="4.56283">
        <ele>82</ele>
      </trkpt>
      <trkpt lat="50.75787" lon="4.56253">
        <ele>83</ele>
      </trkpt>
      <trkpt lat="50.75796" lon="4.56238">
        <ele>84</ele>
      </trkpt>
      <trkpt lat="50.75807" lon="4.56224">
        <ele>85</ele>
      </trkpt>
      <trkpt lat="50.76004" lon="4.56039">
        <ele>86</ele>
      </trkpt>
      <trkpt lat="50.76004" lon="4.56038">
        <ele>86</ele>
      </trkpt>
      <trkpt lat="50.76074" lon="4.55973">
        <ele>85</ele>
      </trkpt>
      <trkpt lat="50.76078" lon="4.55973">
        <ele>85</ele>
      </trkpt>
      <trkpt lat="50.76086" lon="4.5598">
        <ele>85</ele>
      </trkpt>
      <trkpt lat="50.75999" lon="4.56151">
        <ele>86</ele>
      </trkpt>
      <trkpt lat="50.75982" lon="4.56187">
        <ele>86</ele>
      </trkpt>
      <trkpt lat="50.75956" lon="4.56252">
        <ele>86</ele>
      </trkpt>
      <trkpt lat="50.75764" lon="4.56805">
        <ele>80</ele>
      </trkpt>
      <trkpt lat="50.7575" lon="4.56836">
        <ele>79</ele>
      </trkpt>
      <trkpt lat="50.75717" lon="4.56893">
        <ele>79</ele>
      </trkpt>
      <trkpt lat="50.75696" lon="4.56921">
        <ele>79</ele>
      </trkpt>
      <trkpt lat="50.75665" lon="4.56951">
        <ele>75</ele>
      </trkpt>
      <trkpt lat="50.75648" lon="4.56964">
        <ele>74</ele>
      </trkpt>
      <trkpt lat="50.75689" lon="4.57133">
        <ele>75</ele>
      </trkpt>
      <trkpt lat="50.75693" lon="4.57155">
        <ele>75</ele>
      </trkpt>
      <trkpt lat="50.75694" lon="4.57183">
        <ele>73</ele>
      </trkpt>
      <trkpt lat="50.75693" lon="4.57225">
        <ele>72</ele>
      </trkpt>
      <trkpt lat="50.75694" lon="4.57263">
        <ele>69</ele>
      </trkpt>
      <trkpt lat="50.75698" lon="4.57285">
        <ele>69</ele>
      </trkpt>
      <trkpt lat="50.75776" lon="4.57519">
        <ele>67</ele>
      </trkpt>
      <trkpt lat="50.758" lon="4.57566">
        <ele>67</ele>
      </trkpt>
      <trkpt lat="50.75898" lon="4.57716">
        <ele>60</ele>
      </trkpt>
      <trkpt lat="50.75912" lon="4.57749">
        <ele>54</ele>
      </trkpt>
      <trkpt lat="50.75917" lon="4.57777">
        <ele>53</ele>
      </trkpt>
      <trkpt lat="50.75962" lon="4.58095">
        <ele>48</ele>
      </trkpt>
      <trkpt lat="50.75969" lon="4.58129">
        <ele>47</ele>
      </trkpt>
      <trkpt lat="50.76016" lon="4.58285">
        <ele>50</ele>
      </trkpt>
      <trkpt lat="50.76033" lon="4.58318">
        <ele>50</ele>
      </trkpt>
      <trkpt lat="50.76055" lon="4.5835">
        <ele>48</ele>
      </trkpt>
      <trkpt lat="50.76125" lon="4.58452">
        <ele>53</ele>
      </trkpt>
      <trkpt lat="50.76156" lon="4.58511">
        <ele>52</ele>
      </trkpt>
      <trkpt lat="50.76182" lon="4.58548">
        <ele>62</ele>
      </trkpt>
      <trkpt lat="50.76232" lon="4.58598">
        <ele>62</ele>
      </trkpt>
      <trkpt lat="50.76243" lon="4.58613">
        <ele>63</ele>
      </trkpt>
      <trkpt lat="50.76252" lon="4.58629">
        <ele>63</ele>
      </trkpt>
      <trkpt lat="50.76262" lon="4.58651">
        <ele>64</ele>
      </trkpt>
      <trkpt lat="50.76269" lon="4.58679">
        <ele>69</ele>
      </trkpt>
      <trkpt lat="50.76373" lon="4.59267">
        <ele>49</ele>
      </trkpt>
      <trkpt lat="50.7638" lon="4.59295">
        <ele>48</ele>
      </trkpt>
      <trkpt lat="50.76398" lon="4.5934">
        <ele>47</ele>
      </trkpt>
      <trkpt lat="50.7668" lon="4.59934">
        <ele>42</ele>
      </trkpt>
      <trkpt lat="50.76704" lon="4.59972">
        <ele>42</ele>
      </trkpt>
      <trkpt lat="50.76735" lon="4.60009">
        <ele>40</ele>
      </trkpt>
      <trkpt lat="50.76785" lon="4.60071">
        <ele>43</ele>
      </trkpt>
      <trkpt lat="50.768" lon="4.60099">
        <ele>41</ele>
      </trkpt>
      <trkpt lat="50.76836" lon="4.60184">
        <ele>40</ele>
      </trkpt>
      <trkpt lat="50.76846" lon="4.60211">
        <ele>40</ele>
      </trkpt>
      <trkpt lat="50.76853" lon="4.60223">
        <ele>42</ele>
      </trkpt>
      <trkpt lat="50.76878" lon="4.60258">
        <ele>40</ele>
      </trkpt>
      <trkpt lat="50.76926" lon="4.60307">
        <ele>40</ele>
      </trkpt>
      <trkpt lat="50.76955" lon="4.60355">
        <ele>41</ele>
      </trkpt>
      <trkpt lat="50.76921" lon="4.60387">
        <ele>39</ele>
      </trkpt>
      <trkpt lat="50.76811" lon="4.60538">
        <ele>36</ele>
      </trkpt>
      <trkpt lat="50.76804" lon="4.60546">
        <ele>36</ele>
      </trkpt>
      <trkpt lat="50.76766" lon="4.60573">
        <ele>36</ele>
      </trkpt>
      <trkpt lat="50.76738" lon="4.60598">
        <ele>37</ele>
      </trkpt>
      <trkpt lat="50.76692" lon="4.60649">
        <ele>38</ele>
      </trkpt>
      <trkpt lat="50.76669" lon="4.60669">
        <ele>41</ele>
      </trkpt>
      <trkpt lat="50.76655" lon="4.60677">
        <ele>41</ele>
      </trkpt>
      <trkpt lat="50.76642" lon="4.6068">
        <ele>41</ele>
      </trkpt>
      <trkpt lat="50.76622" lon="4.60678">
        <ele>41</ele>
      </trkpt>
      <trkpt lat="50.76544" lon="4.60669">
        <ele>43</ele>
      </trkpt>
      <trkpt lat="50.76478" lon="4.60685">
        <ele>44</ele>
      </trkpt>
      <trkpt lat="50.76468" lon="4.60686">
        <ele>44</ele>
      </trkpt>
      <trkpt lat="50.7646" lon="4.60683">
        <ele>44</ele>
      </trkpt>
      <trkpt lat="50.76451" lon="4.60676">
        <ele>44</ele>
      </trkpt>
      <trkpt lat="50.76443" lon="4.60664">
        <ele>43</ele>
      </trkpt>
      <trkpt lat="50.76382" lon="4.60548">
        <ele>41</ele>
      </trkpt>
      <trkpt lat="50.76347" lon="4.60485">
        <ele>40</ele>
      </trkpt>
      <trkpt lat="50.76324" lon="4.60449">
        <ele>43</ele>
      </trkpt>
      <trkpt lat="50.76306" lon="4.60427">
        <ele>43</ele>
      </trkpt>
      <trkpt lat="50.76274" lon="4.60395">
        <ele>43</ele>
      </trkpt>
      <trkpt lat="50.76216" lon="4.60347">
        <ele>47</ele>
      </trkpt>
      <trkpt lat="50.76168" lon="4.60315">
        <ele>51</ele>
      </trkpt>
      <trkpt lat="50.76087" lon="4.60278">
        <ele>54</ele>
      </trkpt>
      <trkpt lat="50.76065" lon="4.60263">
        <ele>55</ele>
      </trkpt>
      <trkpt lat="50.76036" lon="4.60226">
        <ele>56</ele>
      </trkpt>
      <trkpt lat="50.76021" lon="4.6021">
        <ele>56</ele>
      </trkpt>
      <trkpt lat="50.75938" lon="4.60156">
        <ele>56</ele>
      </trkpt>
      <trkpt lat="50.75894" lon="4.60146">
        <ele>59</ele>
      </trkpt>
      <trkpt lat="50.75774" lon="4.60151">
        <ele>63</ele>
      </trkpt>
      <trkpt lat="50.75724" lon="4.60162">
        <ele>67</ele>
      </trkpt>
      <trkpt lat="50.75707" lon="4.60169">
        <ele>67</ele>
      </trkpt>
      <trkpt lat="50.75507" lon="4.603">
        <ele>73</ele>
      </trkpt>
      <trkpt lat="50.75465" lon="4.60319">
        <ele>73</ele>
      </trkpt>
      <trkpt lat="50.75426" lon="4.6033">
        <ele>75</ele>
      </trkpt>
      <trkpt lat="50.7538" lon="4.6035">
        <ele>77</ele>
      </trkpt>
      <trkpt lat="50.75327" lon="4.60383">
        <ele>78</ele>
      </trkpt>
      <trkpt lat="50.7516" lon="4.60533">
        <ele>83</ele>
      </trkpt>
      <trkpt lat="50.75113" lon="4.60568">
        <ele>83</ele>
      </trkpt>
      <trkpt lat="50.75106" lon="4.60576">
        <ele>83</ele>
      </trkpt>
      <trkpt lat="50.75104" lon="4.60583">
        <ele>84</ele>
      </trkpt>
      <trkpt lat="50.751" lon="4.60583">
        <ele>84</ele>
      </trkpt>
      <trkpt lat="50.75015" lon="4.6065">
        <ele>86</ele>
      </trkpt>
      <trkpt lat="50.74884" lon="4.60833">
        <ele>90</ele>
      </trkpt>
      <trkpt lat="50.74829" lon="4.60898">
        <ele>92</ele>
      </trkpt>
      <trkpt lat="50.74523" lon="4.61215">
        <ele>100</ele>
      </trkpt>
      <trkpt lat="50.74543" lon="4.61278">
        <ele>99</ele>
      </trkpt>
      <trkpt lat="50.74568" lon="4.61329">
        <ele>98</ele>
      </trkpt>
      <trkpt lat="50.74573" lon="4.61334">
        <ele>98</ele>
      </trkpt>
      <trkpt lat="50.74616" lon="4.61384">
        <ele>96</ele>
      </trkpt>
      <trkpt lat="50.74659" lon="4.61422">
        <ele>96</ele>
      </trkpt>
      <trkpt lat="50.74715" lon="4.61459">
        <ele>94</ele>
      </trkpt>
      <trkpt lat="50.74733" lon="4.61483">
        <ele>93</ele>
      </trkpt>
      <trkpt lat="50.74756" lon="4.61533">
        <ele>93</ele>
      </trkpt>
      <trkpt lat="50.74763" lon="4.61556">
        <ele>92</ele>
      </trkpt>
      <trkpt lat="50.74766" lon="4.61587">
        <ele>92</ele>
      </trkpt>
      <trkpt lat="50.74798" lon="4.6159">
        <ele>92</ele>
      </trkpt>
      <trkpt lat="50.74965" lon="4.61585">
        <ele>93</ele>
      </trkpt>
      <trkpt lat="50.75026" lon="4.61597">
        <ele>94</ele>
      </trkpt>
      <trkpt lat="50.75114" lon="4.61609">
        <ele>95</ele>
      </trkpt>
      <trkpt lat="50.75129" lon="4.61617">
        <ele>95</ele>
      </trkpt>
      <trkpt lat="50.75135" lon="4.61617">
        <ele>95</ele>
      </trkpt>
      <trkpt lat="50.75201" lon="4.61586">
        <ele>94</ele>
      </trkpt>
      <trkpt lat="50.75267" lon="4.61591">
        <ele>92</ele>
      </trkpt>
      <trkpt lat="50.7561" lon="4.61727">
        <ele>89</ele>
      </trkpt>
      <trkpt lat="50.76006" lon="4.61851">
        <ele>85</ele>
      </trkpt>
      <trkpt lat="50.76068" lon="4.61871">
        <ele>87</ele>
      </trkpt>
      <trkpt lat="50.76105" lon="4.61886">
        <ele>92</ele>
      </trkpt>
      <trkpt lat="50.76149" lon="4.61915">
        <ele>92</ele>
      </trkpt>
      <trkpt lat="50.76182" lon="4.61951">
        <ele>93</ele>
      </trkpt>
      <trkpt lat="50.76204" lon="4.61981">
        <ele>93</ele>
      </trkpt>
      <trkpt lat="50.76246" lon="4.6205">
        <ele>90</ele>
      </trkpt>
      <trkpt lat="50.76281" lon="4.62115">
        <ele>86</ele>
      </trkpt>
      <trkpt lat="50.76371" lon="4.6227">
        <ele>83</ele>
      </trkpt>
      <trkpt lat="50.76538" lon="4.62567">
        <ele>80</ele>
      </trkpt>
      <trkpt lat="50.76649" lon="4.6275">
        <ele>77</ele>
      </trkpt>
      <trkpt lat="50.76672" lon="4.6278">
        <ele>77</ele>
      </trkpt>
      <trkpt lat="50.76699" lon="4.62806">
        <ele>74</ele>
      </trkpt>
      <trkpt lat="50.76789" lon="4.62871">
        <ele>71</ele>
      </trkpt>
      <trkpt lat="50.7683" lon="4.62907">
        <ele>71</ele>
      </trkpt>
      <trkpt lat="50.76941" lon="4.63032">
        <ele>65</ele>
      </trkpt>
      <trkpt lat="50.7696" lon="4.63048">
        <ele>64</ele>
      </trkpt>
      <trkpt lat="50.76991" lon="4.63066">
        <ele>64</ele>
      </trkpt>
      <trkpt lat="50.77077" lon="4.63099">
        <ele>62</ele>
      </trkpt>
      <trkpt lat="50.773" lon="4.63189">
        <ele>49</ele>
      </trkpt>
      <trkpt lat="50.77354" lon="4.63206">
        <ele>48</ele>
      </trkpt>
      <trkpt lat="50.77389" lon="4.6321">
        <ele>48</ele>
      </trkpt>
      <trkpt lat="50.77468" lon="4.63204">
        <ele>46</ele>
      </trkpt>
      <trkpt lat="50.77521" lon="4.63206">
        <ele>44</ele>
      </trkpt>
      <trkpt lat="50.77608" lon="4.63217">
        <ele>42</ele>
      </trkpt>
      <trkpt lat="50.77788" lon="4.63267">
        <ele>36</ele>
      </trkpt>
      <trkpt lat="50.77859" lon="4.63294">
        <ele>34</ele>
      </trkpt>
      <trkpt lat="50.77855" lon="4.63315">
        <ele>34</ele>
      </trkpt>
      <trkpt lat="50.77848" lon="4.63338">
        <ele>33</ele>
      </trkpt>
      <trkpt lat="50.7784" lon="4.63355">
        <ele>34</ele>
      </trkpt>
      <trkpt lat="50.77832" lon="4.63366">
        <ele>34</ele>
      </trkpt>
      <trkpt lat="50.77822" lon="4.63375">
        <ele>34</ele>
      </trkpt>
      <trkpt lat="50.77807" lon="4.63384">
        <ele>34</ele>
      </trkpt>
      <trkpt lat="50.77745" lon="4.6341">
        <ele>34</ele>
      </trkpt>
      <trkpt lat="50.77641" lon="4.63453">
        <ele>32</ele>
      </trkpt>
      <trkpt lat="50.77539" lon="4.6349">
        <ele>34</ele>
      </trkpt>
      <trkpt lat="50.77452" lon="4.63532">
        <ele>34</ele>
      </trkpt>
      <trkpt lat="50.7741" lon="4.63543">
        <ele>34</ele>
      </trkpt>
      <trkpt lat="50.77377" lon="4.63544">
        <ele>34</ele>
      </trkpt>
      <trkpt lat="50.77288" lon="4.63535">
        <ele>35</ele>
      </trkpt>
      <trkpt lat="50.77242" lon="4.63539">
        <ele>36</ele>
      </trkpt>
      <trkpt lat="50.77203" lon="4.63549">
        <ele>37</ele>
      </trkpt>
      <trkpt lat="50.77163" lon="4.63552">
        <ele>40</ele>
      </trkpt>
      <trkpt lat="50.77116" lon="4.63545">
        <ele>41</ele>
      </trkpt>
      <trkpt lat="50.77096" lon="4.63539">
        <ele>44</ele>
      </trkpt>
      <trkpt lat="50.76976" lon="4.63499">
        <ele>47</ele>
      </trkpt>
      <trkpt lat="50.76953" lon="4.63497">
        <ele>47</ele>
      </trkpt>
      <trkpt lat="50.7693" lon="4.63499">
        <ele>46</ele>
      </trkpt>
      <trkpt lat="50.76895" lon="4.63511">
        <ele>44</ele>
      </trkpt>
      <trkpt lat="50.76861" lon="4.63532">
        <ele>43</ele>
      </trkpt>
      <trkpt lat="50.76813" lon="4.63567">
        <ele>41</ele>
      </trkpt>
      <trkpt lat="50.76743" lon="4.63632">
        <ele>38</ele>
      </trkpt>
      <trkpt lat="50.76701" lon="4.63674">
        <ele>36</ele>
      </trkpt>
      <trkpt lat="50.76664" lon="4.63706">
        <ele>36</ele>
      </trkpt>
      <trkpt lat="50.7663" lon="4.63728">
        <ele>36</ele>
      </trkpt>
      <trkpt lat="50.76529" lon="4.63788">
        <ele>36</ele>
      </trkpt>
      <trkpt lat="50.765" lon="4.6381">
        <ele>36</ele>
      </trkpt>
      <trkpt lat="50.76471" lon="4.63839">
        <ele>35</ele>
      </trkpt>
      <trkpt lat="50.76439" lon="4.63886">
        <ele>35</ele>
      </trkpt>
      <trkpt lat="50.76392" lon="4.63936">
        <ele>35</ele>
      </trkpt>
      <trkpt lat="50.76356" lon="4.63971">
        <ele>35</ele>
      </trkpt>
      <trkpt lat="50.76318" lon="4.64002">
        <ele>35</ele>
      </trkpt>
      <trkpt lat="50.76302" lon="4.6401">
        <ele>35</ele>
      </trkpt>
      <trkpt lat="50.76288" lon="4.64012">
        <ele>35</ele>
      </trkpt>
      <trkpt lat="50.76271" lon="4.6401">
        <ele>35</ele>
      </trkpt>
      <trkpt lat="50.76259" lon="4.64005">
        <ele>36</ele>
      </trkpt>
      <trkpt lat="50.76114" lon="4.63927">
        <ele>36</ele>
      </trkpt>
      <trkpt lat="50.76096" lon="4.63924">
        <ele>37</ele>
      </trkpt>
      <trkpt lat="50.76083" lon="4.63926">
        <ele>37</ele>
      </trkpt>
      <trkpt lat="50.76052" lon="4.63934">
        <ele>37</ele>
      </trkpt>
      <trkpt lat="50.76012" lon="4.63955">
        <ele>38</ele>
      </trkpt>
      <trkpt lat="50.75953" lon="4.6397">
        <ele>38</ele>
      </trkpt>
      <trkpt lat="50.75922" lon="4.63974">
        <ele>39</ele>
      </trkpt>
      <trkpt lat="50.7591" lon="4.64038">
        <ele>39</ele>
      </trkpt>
      <trkpt lat="50.75905" lon="4.64089">
        <ele>39</ele>
      </trkpt>
      <trkpt lat="50.75901" lon="4.64221">
        <ele>37</ele>
      </trkpt>
      <trkpt lat="50.75901" lon="4.64235">
        <ele>37</ele>
      </trkpt>
      <trkpt lat="50.75906" lon="4.64261">
        <ele>37</ele>
      </trkpt>
      <trkpt lat="50.75912" lon="4.64281">
        <ele>37</ele>
      </trkpt>
      <trkpt lat="50.7593" lon="4.64325">
        <ele>37</ele>
      </trkpt>
      <trkpt lat="50.75943" lon="4.64363">
        <ele>36</ele>
      </trkpt>
      <trkpt lat="50.75963" lon="4.64461">
        <ele>35</ele>
      </trkpt>
      <trkpt lat="50.75966" lon="4.64489">
        <ele>35</ele>
      </trkpt>
      <trkpt lat="50.75969" lon="4.64792">
        <ele>37</ele>
      </trkpt>
      <trkpt lat="50.75974" lon="4.64863">
        <ele>37</ele>
      </trkpt>
      <trkpt lat="50.75983" lon="4.64915">
        <ele>36</ele>
      </trkpt>
      <trkpt lat="50.75993" lon="4.64954">
        <ele>36</ele>
      </trkpt>
      <trkpt lat="50.76092" lon="4.65258">
        <ele>39</ele>
      </trkpt>
      <trkpt lat="50.76121" lon="4.65352">
        <ele>47</ele>
      </trkpt>
      <trkpt lat="50.7613" lon="4.65356">
        <ele>47</ele>
      </trkpt>
      <trkpt lat="50.76145" lon="4.65357">
        <ele>47</ele>
      </trkpt>
      <trkpt lat="50.76178" lon="4.65321">
        <ele>45</ele>
      </trkpt>
      <trkpt lat="50.7654" lon="4.64939">
        <ele>45</ele>
      </trkpt>
      <trkpt lat="50.76566" lon="4.64916">
        <ele>44</ele>
      </trkpt>
      <trkpt lat="50.76652" lon="4.64862">
        <ele>39</ele>
      </trkpt>
      <trkpt lat="50.76673" lon="4.6485">
        <ele>39</ele>
      </trkpt>
      <trkpt lat="50.76685" lon="4.64846">
        <ele>38</ele>
      </trkpt>
      <trkpt lat="50.76704" lon="4.64844">
        <ele>37</ele>
      </trkpt>
      <trkpt lat="50.76713" lon="4.64845">
        <ele>37</ele>
      </trkpt>
      <trkpt lat="50.76779" lon="4.6487">
        <ele>37</ele>
      </trkpt>
      <trkpt lat="50.76794" lon="4.64871">
        <ele>36</ele>
      </trkpt>
      <trkpt lat="50.7681" lon="4.64871">
        <ele>36</ele>
      </trkpt>
      <trkpt lat="50.76879" lon="4.64856">
        <ele>37</ele>
      </trkpt>
      <trkpt lat="50.76925" lon="4.64853">
        <ele>37</ele>
      </trkpt>
      <trkpt lat="50.76941" lon="4.64855">
        <ele>37</ele>
      </trkpt>
      <trkpt lat="50.76955" lon="4.64862">
        <ele>37</ele>
      </trkpt>
      <trkpt lat="50.76969" lon="4.64873">
        <ele>36</ele>
      </trkpt>
      <trkpt lat="50.7699" lon="4.64895">
        <ele>37</ele>
      </trkpt>
      <trkpt lat="50.76997" lon="4.64897">
        <ele>37</ele>
      </trkpt>
      <trkpt lat="50.77073" lon="4.64906">
        <ele>36</ele>
      </trkpt>
      <trkpt lat="50.77165" lon="4.64929">
        <ele>38</ele>
      </trkpt>
      <trkpt lat="50.77311" lon="4.64977">
        <ele>37</ele>
      </trkpt>
      <trkpt lat="50.77348" lon="4.64993">
        <ele>36</ele>
      </trkpt>
      <trkpt lat="50.77583" lon="4.65052">
        <ele>40</ele>
      </trkpt>
      <trkpt lat="50.77752" lon="4.65101">
        <ele>39</ele>
      </trkpt>
      <trkpt lat="50.77826" lon="4.65122">
        <ele>38</ele>
      </trkpt>
      <trkpt lat="50.77818" lon="4.65178">
        <ele>42</ele>
      </trkpt>
      <trkpt lat="50.77811" lon="4.65213">
        <ele>42</ele>
      </trkpt>
      <trkpt lat="50.77818" lon="4.65216">
        <ele>43</ele>
      </trkpt>
      <trkpt lat="50.77838" lon="4.65217">
        <ele>43</ele>
      </trkpt>
      <trkpt lat="50.77864" lon="4.65214">
        <ele>44</ele>
      </trkpt>
      <trkpt lat="50.7788" lon="4.65216">
        <ele>44</ele>
      </trkpt>
      <trkpt lat="50.77894" lon="4.65223">
        <ele>44</ele>
      </trkpt>
      <trkpt lat="50.77914" lon="4.65241">
        <ele>45</ele>
      </trkpt>
      <trkpt lat="50.77922" lon="4.65252">
        <ele>51</ele>
      </trkpt>
      <trkpt lat="50.77935" lon="4.6528">
        <ele>55</ele>
      </trkpt>
      <trkpt lat="50.77944" lon="4.65293">
        <ele>56</ele>
      </trkpt>
      <trkpt lat="50.78014" lon="4.65383">
        <ele>69</ele>
      </trkpt>
      <trkpt lat="50.78026" lon="4.65414">
        <ele>76</ele>
      </trkpt>
      <trkpt lat="50.78031" lon="4.65435">
        <ele>76</ele>
      </trkpt>
      <trkpt lat="50.78043" lon="4.65517">
        <ele>81</ele>
      </trkpt>
      <trkpt lat="50.7805" lon="4.65545">
        <ele>82</ele>
      </trkpt>
      <trkpt lat="50.78091" lon="4.65668">
        <ele>85</ele>
      </trkpt>
      <trkpt lat="50.7812" lon="4.65753">
        <ele>83</ele>
      </trkpt>
      <trkpt lat="50.78125" lon="4.6577">
        <ele>82</ele>
      </trkpt>
      <trkpt lat="50.7814" lon="4.6586">
        <ele>77</ele>
      </trkpt>
      <trkpt lat="50.78159" lon="4.65946">
        <ele>75</ele>
      </trkpt>
      <trkpt lat="50.78205" lon="4.66101">
        <ele>76</ele>
      </trkpt>
      <trkpt lat="50.7821" lon="4.66126">
        <ele>76</ele>
      </trkpt>
      <trkpt lat="50.78213" lon="4.66152">
        <ele>76</ele>
      </trkpt>
      <trkpt lat="50.78214" lon="4.66195">
        <ele>77</ele>
      </trkpt>
      <trkpt lat="50.78212" lon="4.66231">
        <ele>77</ele>
      </trkpt>
      <trkpt lat="50.78204" lon="4.66284">
        <ele>77</ele>
      </trkpt>
      <trkpt lat="50.78196" lon="4.66358">
        <ele>75</ele>
      </trkpt>
      <trkpt lat="50.78196" lon="4.66404">
        <ele>75</ele>
      </trkpt>
      <trkpt lat="50.782" lon="4.66478">
        <ele>74</ele>
      </trkpt>
      <trkpt lat="50.78207" lon="4.66526">
        <ele>74</ele>
      </trkpt>
      <trkpt lat="50.78238" lon="4.66632">
        <ele>74</ele>
      </trkpt>
      <trkpt lat="50.78245" lon="4.66667">
        <ele>72</ele>
      </trkpt>
      <trkpt lat="50.78263" lon="4.66824">
        <ele>66</ele>
      </trkpt>
      <trkpt lat="50.78281" lon="4.67026">
        <ele>54</ele>
      </trkpt>
      <trkpt lat="50.78287" lon="4.67073">
        <ele>53</ele>
      </trkpt>
      <trkpt lat="50.78316" lon="4.67235">
        <ele>49</ele>
      </trkpt>
      <trkpt lat="50.78329" lon="4.67312">
        <ele>48</ele>
      </trkpt>
      <trkpt lat="50.78335" lon="4.67334">
        <ele>47</ele>
      </trkpt>
      <trkpt lat="50.78343" lon="4.67351">
        <ele>47</ele>
      </trkpt>
      <trkpt lat="50.78378" lon="4.67405">
        <ele>47</ele>
      </trkpt>
      <trkpt lat="50.78388" lon="4.67394">
        <ele>47</ele>
      </trkpt>
      <trkpt lat="50.78433" lon="4.67365">
        <ele>48</ele>
      </trkpt>
      <trkpt lat="50.78546" lon="4.67273">
        <ele>52</ele>
      </trkpt>
      <trkpt lat="50.78633" lon="4.67205">
        <ele>53</ele>
      </trkpt>
      <trkpt lat="50.78672" lon="4.67177">
        <ele>53</ele>
      </trkpt>
      <trkpt lat="50.7872" lon="4.67138">
        <ele>52</ele>
      </trkpt>
      <trkpt lat="50.78857" lon="4.67045">
        <ele>41</ele>
      </trkpt>
      <trkpt lat="50.78945" lon="4.66987">
        <ele>39</ele>
      </trkpt>
      <trkpt lat="50.78965" lon="4.66967">
        <ele>39</ele>
      </trkpt>
      <trkpt lat="50.78974" lon="4.66954">
        <ele>38</ele>
      </trkpt>
      <trkpt lat="50.78982" lon="4.66937">
        <ele>39</ele>
      </trkpt>
      <trkpt lat="50.79004" lon="4.66883">
        <ele>39</ele>
      </trkpt>
      <trkpt lat="50.7902" lon="4.66839">
        <ele>42</ele>
      </trkpt>
      <trkpt lat="50.79038" lon="4.66774">
        <ele>42</ele>
      </trkpt>
      <trkpt lat="50.79076" lon="4.66595">
        <ele>42</ele>
      </trkpt>
      <trkpt lat="50.79092" lon="4.66535">
        <ele>41</ele>
      </trkpt>
      <trkpt lat="50.79266" lon="4.66027">
        <ele>35</ele>
      </trkpt>
      <trkpt lat="50.793" lon="4.65945">
        <ele>34</ele>
      </trkpt>
      <trkpt lat="50.79519" lon="4.65428">
        <ele>33</ele>
      </trkpt>
      <trkpt lat="50.7965" lon="4.65118">
        <ele>29</ele>
      </trkpt>
      <trkpt lat="50.79657" lon="4.65096">
        <ele>30</ele>
      </trkpt>
      <trkpt lat="50.79662" lon="4.6504">
        <ele>29</ele>
      </trkpt>
      <trkpt lat="50.79666" lon="4.65026">
        <ele>29</ele>
      </trkpt>
      <trkpt lat="50.79672" lon="4.65014">
        <ele>29</ele>
      </trkpt>
      <trkpt lat="50.79682" lon="4.65002">
        <ele>30</ele>
      </trkpt>
      <trkpt lat="50.79738" lon="4.64971">
        <ele>30</ele>
      </trkpt>
      <trkpt lat="50.79781" lon="4.64936">
        <ele>31</ele>
      </trkpt>
      <trkpt lat="50.79779" lon="4.64914">
        <ele>31</ele>
      </trkpt>
      <trkpt lat="50.79804" lon="4.64707">
        <ele>30</ele>
      </trkpt>
      <trkpt lat="50.7981" lon="4.64636">
        <ele>30</ele>
      </trkpt>
      <trkpt lat="50.7981" lon="4.64541">
        <ele>29</ele>
      </trkpt>
      <trkpt lat="50.79817" lon="4.64487">
        <ele>29</ele>
      </trkpt>
      <trkpt lat="50.79818" lon="4.64461">
        <ele>29</ele>
      </trkpt>
      <trkpt lat="50.79816" lon="4.6445">
        <ele>29</ele>
      </trkpt>
      <trkpt lat="50.79778" lon="4.64348">
        <ele>30</ele>
      </trkpt>
      <trkpt lat="50.79755" lon="4.64318">
        <ele>31</ele>
      </trkpt>
      <trkpt lat="50.79725" lon="4.64291">
        <ele>32</ele>
      </trkpt>
      <trkpt lat="50.79686" lon="4.64262">
        <ele>31</ele>
      </trkpt>
      <trkpt lat="50.79524" lon="4.64115">
        <ele>30</ele>
      </trkpt>
      <trkpt lat="50.79476" lon="4.64059">
        <ele>29</ele>
      </trkpt>
      <trkpt lat="50.79383" lon="4.63939">
        <ele>29</ele>
      </trkpt>
      <trkpt lat="50.79338" lon="4.63893">
        <ele>31</ele>
      </trkpt>
      <trkpt lat="50.793" lon="4.63868">
        <ele>32</ele>
      </trkpt>
      <trkpt lat="50.79265" lon="4.63848">
        <ele>32</ele>
      </trkpt>
      <trkpt lat="50.79189" lon="4.6383">
        <ele>32</ele>
      </trkpt>
      <trkpt lat="50.79006" lon="4.63793">
        <ele>29</ele>
      </trkpt>
      <trkpt lat="50.78974" lon="4.63778">
        <ele>29</ele>
      </trkpt>
      <trkpt lat="50.78948" lon="4.63759">
        <ele>29</ele>
      </trkpt>
      <trkpt lat="50.78923" lon="4.63733">
        <ele>28</ele>
      </trkpt>
      <trkpt lat="50.78792" lon="4.63584">
        <ele>27</ele>
      </trkpt>
      <trkpt lat="50.78774" lon="4.6356">
        <ele>28</ele>
      </trkpt>
      <trkpt lat="50.78766" lon="4.63545">
        <ele>28</ele>
      </trkpt>
      <trkpt lat="50.78754" lon="4.63517">
        <ele>30</ele>
      </trkpt>
      <trkpt lat="50.78778" lon="4.63494">
        <ele>29</ele>
      </trkpt>
      <trkpt lat="50.78785" lon="4.6349">
        <ele>29</ele>
      </trkpt>
      <trkpt lat="50.7888" lon="4.63472">
        <ele>29</ele>
      </trkpt>
      <trkpt lat="50.78889" lon="4.63467">
        <ele>29</ele>
      </trkpt>
      <trkpt lat="50.78923" lon="4.6344">
        <ele>29</ele>
      </trkpt>
      <trkpt lat="50.78938" lon="4.63429">
        <ele>29</ele>
      </trkpt>
      <trkpt lat="50.78951" lon="4.63425">
        <ele>29</ele>
      </trkpt>
      <trkpt lat="50.79118" lon="4.63418">
        <ele>28</ele>
      </trkpt>
      <trkpt lat="50.79129" lon="4.63413">
        <ele>28</ele>
      </trkpt>
      <trkpt lat="50.79138" lon="4.63406">
        <ele>28</ele>
      </trkpt>
      <trkpt lat="50.79189" lon="4.63356">
        <ele>28</ele>
      </trkpt>
      <trkpt lat="50.79214" lon="4.63334">
        <ele>28</ele>
      </trkpt>
      <trkpt lat="50.79237" lon="4.63325">
        <ele>28</ele>
      </trkpt>
      <trkpt lat="50.79276" lon="4.63313">
        <ele>29</ele>
      </trkpt>
      <trkpt lat="50.7935" lon="4.63302">
        <ele>29</ele>
      </trkpt>
      <trkpt lat="50.79373" lon="4.63306">
        <ele>29</ele>
      </trkpt>
      <trkpt lat="50.79448" lon="4.63326">
        <ele>29</ele>
      </trkpt>
      <trkpt lat="50.79467" lon="4.6332">
        <ele>29</ele>
      </trkpt>
      <trkpt lat="50.79477" lon="4.6331">
        <ele>28</ele>
      </trkpt>
      <trkpt lat="50.79485" lon="4.63297">
        <ele>28</ele>
      </trkpt>
      <trkpt lat="50.79525" lon="4.6321">
        <ele>28</ele>
      </trkpt>
      <trkpt lat="50.79533" lon="4.63184">
        <ele>28</ele>
      </trkpt>
      <trkpt lat="50.79535" lon="4.63165">
        <ele>28</ele>
      </trkpt>
      <trkpt lat="50.79536" lon="4.63144">
        <ele>28</ele>
      </trkpt>
      <trkpt lat="50.79532" lon="4.63101">
        <ele>27</ele>
      </trkpt>
      <trkpt lat="50.79532" lon="4.63078">
        <ele>27</ele>
      </trkpt>
      <trkpt lat="50.79537" lon="4.63036">
        <ele>28</ele>
      </trkpt>
      <trkpt lat="50.79572" lon="4.62889">
        <ele>30</ele>
      </trkpt>
      <trkpt lat="50.79637" lon="4.62654">
        <ele>37</ele>
      </trkpt>
      <trkpt lat="50.79647" lon="4.6266">
        <ele>37</ele>
      </trkpt>
      <trkpt lat="50.79881" lon="4.62857">
        <ele>34</ele>
      </trkpt>
      <trkpt lat="50.80103" lon="4.62968">
        <ele>35</ele>
      </trkpt>
      <trkpt lat="50.8013" lon="4.62977">
        <ele>35</ele>
      </trkpt>
      <trkpt lat="50.80157" lon="4.62978">
        <ele>35</ele>
      </trkpt>
      <trkpt lat="50.8019" lon="4.62965">
        <ele>34</ele>
      </trkpt>
      <trkpt lat="50.80308" lon="4.62874">
        <ele>37</ele>
      </trkpt>
      <trkpt lat="50.80329" lon="4.62864">
        <ele>38</ele>
      </trkpt>
      <trkpt lat="50.80384" lon="4.62849">
        <ele>38</ele>
      </trkpt>
      <trkpt lat="50.80407" lon="4.62849">
        <ele>38</ele>
      </trkpt>
      <trkpt lat="50.80503" lon="4.62878">
        <ele>39</ele>
      </trkpt>
      <trkpt lat="50.80525" lon="4.62879">
        <ele>40</ele>
      </trkpt>
      <trkpt lat="50.80546" lon="4.62873">
        <ele>40</ele>
      </trkpt>
      <trkpt lat="50.80586" lon="4.62857">
        <ele>41</ele>
      </trkpt>
      <trkpt lat="50.80605" lon="4.62852">
        <ele>42</ele>
      </trkpt>
      <trkpt lat="50.80622" lon="4.62853">
        <ele>42</ele>
      </trkpt>
      <trkpt lat="50.80799" lon="4.62895">
        <ele>46</ele>
      </trkpt>
      <trkpt lat="50.80812" lon="4.62898">
        <ele>46</ele>
      </trkpt>
      <trkpt lat="50.80891" lon="4.62936">
        <ele>43</ele>
      </trkpt>
      <trkpt lat="50.80901" lon="4.62938">
        <ele>43</ele>
      </trkpt>
      <trkpt lat="50.80923" lon="4.62935">
        <ele>43</ele>
      </trkpt>
      <trkpt lat="50.80936" lon="4.62928">
        <ele>43</ele>
      </trkpt>
      <trkpt lat="50.80949" lon="4.62918">
        <ele>43</ele>
      </trkpt>
      <trkpt lat="50.81062" lon="4.62768">
        <ele>50</ele>
      </trkpt>
      <trkpt lat="50.81084" lon="4.62744">
        <ele>49</ele>
      </trkpt>
      <trkpt lat="50.81099" lon="4.62733">
        <ele>47</ele>
      </trkpt>
      <trkpt lat="50.81112" lon="4.62728">
        <ele>46</ele>
      </trkpt>
      <trkpt lat="50.81146" lon="4.62726">
        <ele>45</ele>
      </trkpt>
      <trkpt lat="50.81185" lon="4.62732">
        <ele>40</ele>
      </trkpt>
      <trkpt lat="50.81195" lon="4.62729">
        <ele>40</ele>
      </trkpt>
      <trkpt lat="50.81216" lon="4.62717">
        <ele>39</ele>
      </trkpt>
      <trkpt lat="50.81432" lon="4.62529">
        <ele>32</ele>
      </trkpt>
      <trkpt lat="50.8153" lon="4.62431">
        <ele>36</ele>
      </trkpt>
      <trkpt lat="50.81559" lon="4.62405">
        <ele>38</ele>
      </trkpt>
      <trkpt lat="50.81568" lon="4.62403">
        <ele>38</ele>
      </trkpt>
      <trkpt lat="50.8158" lon="4.6242">
        <ele>37</ele>
      </trkpt>
      <trkpt lat="50.81605" lon="4.6247">
        <ele>42</ele>
      </trkpt>
      <trkpt lat="50.81623" lon="4.62514">
        <ele>42</ele>
      </trkpt>
      <trkpt lat="50.81637" lon="4.62533">
        <ele>42</ele>
      </trkpt>
      <trkpt lat="50.81647" lon="4.62542">
        <ele>42</ele>
      </trkpt>
      <trkpt lat="50.81676" lon="4.62568">
        <ele>43</ele>
      </trkpt>
      <trkpt lat="50.81694" lon="4.62587">
        <ele>48</ele>
      </trkpt>
      <trkpt lat="50.81717" lon="4.62626">
        <ele>48</ele>
      </trkpt>
      <trkpt lat="50.81722" lon="4.62629">
        <ele>49</ele>
      </trkpt>
      <trkpt lat="50.81726" lon="4.62628">
        <ele>49</ele>
      </trkpt>
      <trkpt lat="50.81737" lon="4.62618">
        <ele>49</ele>
      </trkpt>
      <trkpt lat="50.81743" lon="4.62606">
        <ele>49</ele>
      </trkpt>
      <trkpt lat="50.81747" lon="4.62576">
        <ele>50</ele>
      </trkpt>
      <trkpt lat="50.81745" lon="4.62546">
        <ele>50</ele>
      </trkpt>
      <trkpt lat="50.81747" lon="4.62537">
        <ele>50</ele>
      </trkpt>
      <trkpt lat="50.8175" lon="4.62533">
        <ele>51</ele>
      </trkpt>
      <trkpt lat="50.81796" lon="4.62671">
        <ele>52</ele>
      </trkpt>
      <trkpt lat="50.81818" lon="4.62728">
        <ele>51</ele>
      </trkpt>
      <trkpt lat="50.81941" lon="4.62962">
        <ele>47</ele>
      </trkpt>
      <trkpt lat="50.81954" lon="4.62976">
        <ele>47</ele>
      </trkpt>
      <trkpt lat="50.81973" lon="4.62985">
        <ele>47</ele>
      </trkpt>
      <trkpt lat="50.82018" lon="4.62998">
        <ele>51</ele>
      </trkpt>
      <trkpt lat="50.82032" lon="4.63005">
        <ele>51</ele>
      </trkpt>
      <trkpt lat="50.82047" lon="4.63015">
        <ele>52</ele>
      </trkpt>
      <trkpt lat="50.82072" lon="4.63041">
        <ele>52</ele>
      </trkpt>
      <trkpt lat="50.82091" lon="4.63065">
        <ele>52</ele>
      </trkpt>
      <trkpt lat="50.82121" lon="4.6311">
        <ele>54</ele>
      </trkpt>
      <trkpt lat="50.82189" lon="4.63202">
        <ele>53</ele>
      </trkpt>
      <trkpt lat="50.82235" lon="4.63257">
        <ele>50</ele>
      </trkpt>
      <trkpt lat="50.82276" lon="4.633">
        <ele>46</ele>
      </trkpt>
      <trkpt lat="50.82284" lon="4.63314">
        <ele>46</ele>
      </trkpt>
      <trkpt lat="50.82307" lon="4.63365">
        <ele>42</ele>
      </trkpt>
      <trkpt lat="50.8232" lon="4.63382">
        <ele>42</ele>
      </trkpt>
      <trkpt lat="50.82362" lon="4.63416">
        <ele>39</ele>
      </trkpt>
      <trkpt lat="50.82372" lon="4.63421">
        <ele>38</ele>
      </trkpt>
      <trkpt lat="50.82384" lon="4.63424">
        <ele>38</ele>
      </trkpt>
      <trkpt lat="50.82403" lon="4.63425">
        <ele>38</ele>
      </trkpt>
      <trkpt lat="50.82444" lon="4.63422">
        <ele>38</ele>
      </trkpt>
      <trkpt lat="50.82485" lon="4.63437">
        <ele>38</ele>
      </trkpt>
      <trkpt lat="50.82515" lon="4.63454">
        <ele>39</ele>
      </trkpt>
      <trkpt lat="50.82528" lon="4.63461">
        <ele>39</ele>
      </trkpt>
      <trkpt lat="50.82557" lon="4.63467">
        <ele>39</ele>
      </trkpt>
      <trkpt lat="50.82576" lon="4.63467">
        <ele>39</ele>
      </trkpt>
      <trkpt lat="50.82675" lon="4.63445">
        <ele>39</ele>
      </trkpt>
      <trkpt lat="50.82739" lon="4.63449">
        <ele>39</ele>
      </trkpt>
      <trkpt lat="50.82846" lon="4.63435">
        <ele>40</ele>
      </trkpt>
      <trkpt lat="50.82856" lon="4.63436">
        <ele>40</ele>
      </trkpt>
      <trkpt lat="50.82922" lon="4.63452">
        <ele>40</ele>
      </trkpt>
      <trkpt lat="50.83028" lon="4.63459">
        <ele>43</ele>
      </trkpt>
      <trkpt lat="50.83068" lon="4.63468">
        <ele>43</ele>
      </trkpt>
      <trkpt lat="50.83167" lon="4.63501">
        <ele>36</ele>
      </trkpt>
      <trkpt lat="50.83212" lon="4.63513">
        <ele>34</ele>
      </trkpt>
      <trkpt lat="50.8325" lon="4.6352">
        <ele>34</ele>
      </trkpt>
      <trkpt lat="50.83281" lon="4.63533">
        <ele>35</ele>
      </trkpt>
      <trkpt lat="50.83331" lon="4.6357">
        <ele>35</ele>
      </trkpt>
      <trkpt lat="50.83368" lon="4.63603">
        <ele>35</ele>
      </trkpt>
      <trkpt lat="50.83381" lon="4.6361">
        <ele>34</ele>
      </trkpt>
      <trkpt lat="50.83415" lon="4.6362">
        <ele>35</ele>
      </trkpt>
      <trkpt lat="50.83476" lon="4.63654">
        <ele>34</ele>
      </trkpt>
      <trkpt lat="50.83502" lon="4.63662">
        <ele>32</ele>
      </trkpt>
      <trkpt lat="50.83512" lon="4.63663">
        <ele>32</ele>
      </trkpt>
      <trkpt lat="50.83529" lon="4.63656">
        <ele>35</ele>
      </trkpt>
      <trkpt lat="50.83569" lon="4.63634">
        <ele>35</ele>
      </trkpt>
      <trkpt lat="50.83607" lon="4.63618">
        <ele>38</ele>
      </trkpt>
      <trkpt lat="50.83666" lon="4.63599">
        <ele>39</ele>
      </trkpt>
      <trkpt lat="50.83682" lon="4.636">
        <ele>43</ele>
      </trkpt>
      <trkpt lat="50.83689" lon="4.63603">
        <ele>43</ele>
      </trkpt>
      <trkpt lat="50.83695" lon="4.6361">
        <ele>43</ele>
      </trkpt>
      <trkpt lat="50.83721" lon="4.63657">
        <ele>44</ele>
      </trkpt>
      <trkpt lat="50.83786" lon="4.63811">
        <ele>43</ele>
      </trkpt>
      <trkpt lat="50.83796" lon="4.63829">
        <ele>41</ele>
      </trkpt>
      <trkpt lat="50.83804" lon="4.63835">
        <ele>41</ele>
      </trkpt>
      <trkpt lat="50.83817" lon="4.6384">
        <ele>41</ele>
      </trkpt>
      <trkpt lat="50.83892" lon="4.63865">
        <ele>43</ele>
      </trkpt>
      <trkpt lat="50.83977" lon="4.63921">
        <ele>42</ele>
      </trkpt>
      <trkpt lat="50.84001" lon="4.6394">
        <ele>41</ele>
      </trkpt>
      <trkpt lat="50.84034" lon="4.63977">
        <ele>42</ele>
      </trkpt>
      <trkpt lat="50.84054" lon="4.63996">
        <ele>39</ele>
      </trkpt>
      <trkpt lat="50.84081" lon="4.64015">
        <ele>39</ele>
      </trkpt>
      <trkpt lat="50.84107" lon="4.64025">
        <ele>40</ele>
      </trkpt>
      <trkpt lat="50.84123" lon="4.6402">
        <ele>40</ele>
      </trkpt>
      <trkpt lat="50.8415" lon="4.63987">
        <ele>43</ele>
      </trkpt>
      <trkpt lat="50.84165" lon="4.6398">
        <ele>43</ele>
      </trkpt>
      <trkpt lat="50.84178" lon="4.63982">
        <ele>43</ele>
      </trkpt>
      <trkpt lat="50.8419" lon="4.63991">
        <ele>43</ele>
      </trkpt>
      <trkpt lat="50.84203" lon="4.64004">
        <ele>42</ele>
      </trkpt>
      <trkpt lat="50.84264" lon="4.64083">
        <ele>39</ele>
      </trkpt>
      <trkpt lat="50.84337" lon="4.64145">
        <ele>39</ele>
      </trkpt>
      <trkpt lat="50.84357" lon="4.64165">
        <ele>38</ele>
      </trkpt>
      <trkpt lat="50.84381" lon="4.64196">
        <ele>37</ele>
      </trkpt>
      <trkpt lat="50.8441" lon="4.64253">
        <ele>37</ele>
      </trkpt>
      <trkpt lat="50.84422" lon="4.64288">
        <ele>37</ele>
      </trkpt>
      <trkpt lat="50.84445" lon="4.64374">
        <ele>37</ele>
      </trkpt>
      <trkpt lat="50.84472" lon="4.64451">
        <ele>35</ele>
      </trkpt>
      <trkpt lat="50.8449" lon="4.64484">
        <ele>35</ele>
      </trkpt>
      <trkpt lat="50.84553" lon="4.64538">
        <ele>37</ele>
      </trkpt>
      <trkpt lat="50.84642" lon="4.64595">
        <ele>38</ele>
      </trkpt>
      <trkpt lat="50.84656" lon="4.64608">
        <ele>38</ele>
      </trkpt>
      <trkpt lat="50.8473" lon="4.64719">
        <ele>37</ele>
      </trkpt>
      <trkpt lat="50.84762" lon="4.64755">
        <ele>34</ele>
      </trkpt>
      <trkpt lat="50.84828" lon="4.64807">
        <ele>34</ele>
      </trkpt>
      <trkpt lat="50.84891" lon="4.64843">
        <ele>32</ele>
      </trkpt>
      <trkpt lat="50.84918" lon="4.64868">
        <ele>32</ele>
      </trkpt>
      <trkpt lat="50.84946" lon="4.64897">
        <ele>34</ele>
      </trkpt>
      <trkpt lat="50.84967" lon="4.64914">
        <ele>33</ele>
      </trkpt>
      <trkpt lat="50.85237" lon="4.65098">
        <ele>38</ele>
      </trkpt>
      <trkpt lat="50.85407" lon="4.65213">
        <ele>41</ele>
      </trkpt>
      <trkpt lat="50.85409" lon="4.65221">
        <ele>40</ele>
      </trkpt>
      <trkpt lat="50.85563" lon="4.65328">
        <ele>43</ele>
      </trkpt>
      <trkpt lat="50.857" lon="4.6542">
        <ele>46</ele>
      </trkpt>
      <trkpt lat="50.85814" lon="4.65503">
        <ele>47</ele>
      </trkpt>
      <trkpt lat="50.85867" lon="4.65555">
        <ele>48</ele>
      </trkpt>
      <trkpt lat="50.86032" lon="4.65761">
        <ele>39</ele>
      </trkpt>
      <trkpt lat="50.86062" lon="4.65795">
        <ele>38</ele>
      </trkpt>
      <trkpt lat="50.86083" lon="4.65814">
        <ele>37</ele>
      </trkpt>
      <trkpt lat="50.86124" lon="4.65864">
        <ele>32</ele>
      </trkpt>
      <trkpt lat="50.86131" lon="4.65845">
        <ele>32</ele>
      </trkpt>
      <trkpt lat="50.86133" lon="4.65817">
        <ele>33</ele>
      </trkpt>
      <trkpt lat="50.86143" lon="4.65572">
        <ele>33</ele>
      </trkpt>
      <trkpt lat="50.86145" lon="4.65506">
        <ele>33</ele>
      </trkpt>
      <trkpt lat="50.86143" lon="4.65424">
        <ele>32</ele>
      </trkpt>
      <trkpt lat="50.86138" lon="4.65302">
        <ele>31</ele>
      </trkpt>
      <trkpt lat="50.86113" lon="4.65029">
        <ele>32</ele>
      </trkpt>
      <trkpt lat="50.86108" lon="4.65001">
        <ele>32</ele>
      </trkpt>
      <trkpt lat="50.86088" lon="4.64947">
        <ele>32</ele>
      </trkpt>
      <trkpt lat="50.86077" lon="4.649">
        <ele>33</ele>
      </trkpt>
      <trkpt lat="50.86074" lon="4.64865">
        <ele>32</ele>
      </trkpt>
      <trkpt lat="50.86076" lon="4.64754">
        <ele>35</ele>
      </trkpt>
      <trkpt lat="50.8608" lon="4.64713">
        <ele>37</ele>
      </trkpt>
      <trkpt lat="50.86087" lon="4.64683">
        <ele>37</ele>
      </trkpt>
      <trkpt lat="50.86098" lon="4.64652">
        <ele>38</ele>
      </trkpt>
      <trkpt lat="50.86171" lon="4.6448">
        <ele>39</ele>
      </trkpt>
      <trkpt lat="50.86215" lon="4.6438">
        <ele>38</ele>
      </trkpt>
      <trkpt lat="50.86224" lon="4.64351">
        <ele>38</ele>
      </trkpt>
      <trkpt lat="50.86236" lon="4.64307">
        <ele>39</ele>
      </trkpt>
      <trkpt lat="50.86243" lon="4.6426">
        <ele>39</ele>
      </trkpt>
      <trkpt lat="50.86259" lon="4.64001">
        <ele>39</ele>
      </trkpt>
      <trkpt lat="50.86266" lon="4.6398">
        <ele>38</ele>
      </trkpt>
      <trkpt lat="50.86278" lon="4.63953">
        <ele>37</ele>
      </trkpt>
      <trkpt lat="50.86282" lon="4.63949">
        <ele>37</ele>
      </trkpt>
      <trkpt lat="50.86297" lon="4.63944">
        <ele>37</ele>
      </trkpt>
      <trkpt lat="50.86317" lon="4.6394">
        <ele>36</ele>
      </trkpt>
      <trkpt lat="50.86369" lon="4.63956">
        <ele>35</ele>
      </trkpt>
      <trkpt lat="50.86419" lon="4.63967">
        <ele>35</ele>
      </trkpt>
      <trkpt lat="50.86434" lon="4.63968">
        <ele>35</ele>
      </trkpt>
      <trkpt lat="50.86478" lon="4.63965">
        <ele>35</ele>
      </trkpt>
      <trkpt lat="50.86489" lon="4.63893">
        <ele>34</ele>
      </trkpt>
      <trkpt lat="50.86502" lon="4.63809">
        <ele>34</ele>
      </trkpt>
      <trkpt lat="50.86504" lon="4.63743">
        <ele>35</ele>
      </trkpt>
      <trkpt lat="50.86511" lon="4.63703">
        <ele>35</ele>
      </trkpt>
      <trkpt lat="50.86512" lon="4.63689">
        <ele>35</ele>
      </trkpt>
      <trkpt lat="50.8651" lon="4.6366">
        <ele>36</ele>
      </trkpt>
      <trkpt lat="50.86495" lon="4.6361">
        <ele>36</ele>
      </trkpt>
      <trkpt lat="50.86493" lon="4.63602">
        <ele>36</ele>
      </trkpt>
      <trkpt lat="50.86486" lon="4.63592">
        <ele>35</ele>
      </trkpt>
      <trkpt lat="50.86479" lon="4.6359">
        <ele>35</ele>
      </trkpt>
      <trkpt lat="50.86445" lon="4.63596">
        <ele>35</ele>
      </trkpt>
      <trkpt lat="50.86437" lon="4.63592">
        <ele>35</ele>
      </trkpt>
      <trkpt lat="50.86429" lon="4.63585">
        <ele>35</ele>
      </trkpt>
      <trkpt lat="50.8642" lon="4.63568">
        <ele>35</ele>
      </trkpt>
      <trkpt lat="50.86395" lon="4.63507">
        <ele>35</ele>
      </trkpt>
      <trkpt lat="50.86355" lon="4.63393">
        <ele>35</ele>
      </trkpt>
      <trkpt lat="50.86306" lon="4.63195">
        <ele>36</ele>
      </trkpt>
      <trkpt lat="50.8628" lon="4.6308">
        <ele>37</ele>
      </trkpt>
      <trkpt lat="50.86279" lon="4.63064">
        <ele>38</ele>
      </trkpt>
      <trkpt lat="50.86281" lon="4.63021">
        <ele>37</ele>
      </trkpt>
      <trkpt lat="50.86285" lon="4.62952">
        <ele>38</ele>
      </trkpt>
      <trkpt lat="50.86278" lon="4.629">
        <ele>38</ele>
      </trkpt>
      <trkpt lat="50.86269" lon="4.62849">
        <ele>38</ele>
      </trkpt>
      <trkpt lat="50.86255" lon="4.62812">
        <ele>37</ele>
      </trkpt>
      <trkpt lat="50.86242" lon="4.62791">
        <ele>37</ele>
      </trkpt>
      <trkpt lat="50.86201" lon="4.62728">
        <ele>37</ele>
      </trkpt>
      <trkpt lat="50.86192" lon="4.6271">
        <ele>37</ele>
      </trkpt>
      <trkpt lat="50.86187" lon="4.62687">
        <ele>38</ele>
      </trkpt>
      <trkpt lat="50.86151" lon="4.62383">
        <ele>38</ele>
      </trkpt>
      <trkpt lat="50.86132" lon="4.62307">
        <ele>38</ele>
      </trkpt>
      <trkpt lat="50.86113" lon="4.62262">
        <ele>38</ele>
      </trkpt>
      <trkpt lat="50.86097" lon="4.62237">
        <ele>39</ele>
      </trkpt>
      <trkpt lat="50.85993" lon="4.621">
        <ele>41</ele>
      </trkpt>
      <trkpt lat="50.86083" lon="4.62045">
        <ele>40</ele>
      </trkpt>
      <trkpt lat="50.86129" lon="4.62002">
        <ele>42</ele>
      </trkpt>
      <trkpt lat="50.86181" lon="4.61944">
        <ele>43</ele>
      </trkpt>
      <trkpt lat="50.86225" lon="4.61891">
        <ele>46</ele>
      </trkpt>
      <trkpt lat="50.86238" lon="4.61862">
        <ele>46</ele>
      </trkpt>
      <trkpt lat="50.86249" lon="4.61846">
        <ele>46</ele>
      </trkpt>
      <trkpt lat="50.86258" lon="4.61843">
        <ele>46</ele>
      </trkpt>
      <trkpt lat="50.86264" lon="4.61845">
        <ele>47</ele>
      </trkpt>
      <trkpt lat="50.86272" lon="4.61844">
        <ele>48</ele>
      </trkpt>
      <trkpt lat="50.86276" lon="4.61839">
        <ele>48</ele>
      </trkpt>
      <trkpt lat="50.86281" lon="4.61825">
        <ele>48</ele>
      </trkpt>
      <trkpt lat="50.86281" lon="4.61818">
        <ele>48</ele>
      </trkpt>
      <trkpt lat="50.86306" lon="4.6179">
        <ele>48</ele>
      </trkpt>
      <trkpt lat="50.86317" lon="4.61772">
        <ele>48</ele>
      </trkpt>
      <trkpt lat="50.86332" lon="4.6174">
        <ele>47</ele>
      </trkpt>
      <trkpt lat="50.86336" lon="4.61727">
        <ele>47</ele>
      </trkpt>
      <trkpt lat="50.8634" lon="4.61695">
        <ele>47</ele>
      </trkpt>
      <trkpt lat="50.8634" lon="4.61666">
        <ele>46</ele>
      </trkpt>
      <trkpt lat="50.86333" lon="4.61563">
        <ele>44</ele>
      </trkpt>
      <trkpt lat="50.86334" lon="4.61528">
        <ele>44</ele>
      </trkpt>
      <trkpt lat="50.86338" lon="4.61496">
        <ele>44</ele>
      </trkpt>
      <trkpt lat="50.86348" lon="4.61462">
        <ele>44</ele>
      </trkpt>
      <trkpt lat="50.86362" lon="4.6143">
        <ele>44</ele>
      </trkpt>
      <trkpt lat="50.8641" lon="4.61364">
        <ele>45</ele>
      </trkpt>
      <trkpt lat="50.86442" lon="4.61309">
        <ele>48</ele>
      </trkpt>
      <trkpt lat="50.86459" lon="4.61279">
        <ele>48</ele>
      </trkpt>
      <trkpt lat="50.86609" lon="4.60933">
        <ele>56</ele>
      </trkpt>
      <trkpt lat="50.86649" lon="4.60795">
        <ele>54</ele>
      </trkpt>
      <trkpt lat="50.86717" lon="4.60432">
        <ele>59</ele>
      </trkpt>
      <trkpt lat="50.86779" lon="4.60107">
        <ele>65</ele>
      </trkpt>
      <trkpt lat="50.86794" lon="4.60046">
        <ele>65</ele>
      </trkpt>
      <trkpt lat="50.86813" lon="4.60001">
        <ele>66</ele>
      </trkpt>
      <trkpt lat="50.86837" lon="4.5996">
        <ele>67</ele>
      </trkpt>
      <trkpt lat="50.86865" lon="4.59936">
        <ele>69</ele>
      </trkpt>
      <trkpt lat="50.86899" lon="4.59912">
        <ele>70</ele>
      </trkpt>
      <trkpt lat="50.86982" lon="4.59864">
        <ele>75</ele>
      </trkpt>
      <trkpt lat="50.87135" lon="4.59777">
        <ele>79</ele>
      </trkpt>
      <trkpt lat="50.87189" lon="4.59742">
        <ele>74</ele>
      </trkpt>
      <trkpt lat="50.87239" lon="4.59697">
        <ele>72</ele>
      </trkpt>
      <trkpt lat="50.87411" lon="4.59504">
        <ele>61</ele>
      </trkpt>
      <trkpt lat="50.87611" lon="4.59283">
        <ele>49</ele>
      </trkpt>
      <trkpt lat="50.87753" lon="4.59123">
        <ele>48</ele>
      </trkpt>
      <trkpt lat="50.87789" lon="4.59078">
        <ele>48</ele>
      </trkpt>
      <trkpt lat="50.87798" lon="4.59071">
        <ele>48</ele>
      </trkpt>
      <trkpt lat="50.87804" lon="4.59061">
        <ele>48</ele>
      </trkpt>
      <trkpt lat="50.87806" lon="4.59055">
        <ele>48</ele>
      </trkpt>
      <trkpt lat="50.87808" lon="4.59043">
        <ele>48</ele>
      </trkpt>
      <trkpt lat="50.87807" lon="4.59022">
        <ele>48</ele>
      </trkpt>
      <trkpt lat="50.8781" lon="4.59004">
        <ele>48</ele>
      </trkpt>
      <trkpt lat="50.87832" lon="4.58936">
        <ele>47</ele>
      </trkpt>
      <trkpt lat="50.87857" lon="4.58874">
        <ele>46</ele>
      </trkpt>
      <trkpt lat="50.87903" lon="4.58787">
        <ele>44</ele>
      </trkpt>
      <trkpt lat="50.87944" lon="4.58716">
        <ele>44</ele>
      </trkpt>
      <trkpt lat="50.87959" lon="4.58695">
        <ele>44</ele>
      </trkpt>
      <trkpt lat="50.87998" lon="4.58641">
        <ele>43</ele>
      </trkpt>
      <trkpt lat="50.88147" lon="4.58463">
        <ele>40</ele>
      </trkpt>
      <trkpt lat="50.88176" lon="4.5842">
        <ele>39</ele>
      </trkpt>
      <trkpt lat="50.88201" lon="4.58382">
        <ele>38</ele>
      </trkpt>
      <trkpt lat="50.88308" lon="4.58191">
        <ele>40</ele>
      </trkpt>
      <trkpt lat="50.88302" lon="4.58173">
        <ele>39</ele>
      </trkpt>
      <trkpt lat="50.8826" lon="4.58019">
        <ele>37</ele>
      </trkpt>
      <trkpt lat="50.88247" lon="4.57979">
        <ele>37</ele>
      </trkpt>
      <trkpt lat="50.88194" lon="4.57805">
        <ele>37</ele>
      </trkpt>
      <trkpt lat="50.88125" lon="4.57644">
        <ele>40</ele>
      </trkpt>
      <trkpt lat="50.88015" lon="4.57443">
        <ele>42</ele>
      </trkpt>
      <trkpt lat="50.8799" lon="4.57392">
        <ele>44</ele>
      </trkpt>
      <trkpt lat="50.87956" lon="4.57289">
        <ele>44</ele>
      </trkpt>
      <trkpt lat="50.87931" lon="4.57211">
        <ele>47</ele>
      </trkpt>
      <trkpt lat="50.87882" lon="4.57121">
        <ele>48</ele>
      </trkpt>
      <trkpt lat="50.87899" lon="4.57089">
        <ele>49</ele>
      </trkpt>
      <trkpt lat="50.8792" lon="4.57054">
        <ele>49</ele>
      </trkpt>
      <trkpt lat="50.87911" lon="4.56987">
        <ele>48</ele>
      </trkpt>
      <trkpt lat="50.87914" lon="4.56977">
        <ele>48</ele>
      </trkpt>
      <trkpt lat="50.87954" lon="4.56903">
        <ele>46</ele>
      </trkpt>
      <trkpt lat="50.87962" lon="4.5689">
        <ele>46</ele>
      </trkpt>
      <trkpt lat="50.88014" lon="4.56811">
        <ele>46</ele>
      </trkpt>
      <trkpt lat="50.8802" lon="4.56788">
        <ele>46</ele>
      </trkpt>
      <trkpt lat="50.88012" lon="4.56689">
        <ele>46</ele>
      </trkpt>
      <trkpt lat="50.88013" lon="4.5667">
        <ele>46</ele>
      </trkpt>
      <trkpt lat="50.88012" lon="4.56647">
        <ele>46</ele>
      </trkpt>
      <trkpt lat="50.88018" lon="4.56641">
        <ele>48</ele>
      </trkpt>
      <trkpt lat="50.8802" lon="4.56633">
        <ele>48</ele>
      </trkpt>
      <trkpt lat="50.88018" lon="4.56624">
        <ele>48</ele>
      </trkpt>
      <trkpt lat="50.88012" lon="4.56619">
        <ele>46</ele>
      </trkpt>
      <trkpt lat="50.88009" lon="4.56619">
        <ele>46</ele>
      </trkpt>
      <trkpt lat="50.88005" lon="4.56437">
        <ele>49</ele>
      </trkpt>
      <trkpt lat="50.88007" lon="4.56408">
        <ele>51</ele>
      </trkpt>
      <trkpt lat="50.88047" lon="4.56195">
        <ele>59</ele>
      </trkpt>
      <trkpt lat="50.88051" lon="4.56137">
        <ele>59</ele>
      </trkpt>
      <trkpt lat="50.88046" lon="4.5608">
        <ele>59</ele>
      </trkpt>
      <trkpt lat="50.87999" lon="4.55798">
        <ele>56</ele>
      </trkpt>
      <trkpt lat="50.87985" lon="4.55718">
        <ele>55</ele>
      </trkpt>
      <trkpt lat="50.87957" lon="4.5561">
        <ele>54</ele>
      </trkpt>
      <trkpt lat="50.87933" lon="4.55516">
        <ele>54</ele>
      </trkpt>
      <trkpt lat="50.87926" lon="4.5547">
        <ele>51</ele>
      </trkpt>
      <trkpt lat="50.87886" lon="4.55141">
        <ele>54</ele>
      </trkpt>
    </trkseg>
  </trk>
</gpx>
