<?xml version="1.0" encoding="UTF-8"?>
<gpx xmlns="http://www.topografix.com/GPX/1/1" creator="RouteYou" version="1.1" xmlns:xsi="http://www.w3.org/2001/XMLSchema-instance" xsi:schemaLocation="http://www.topografix.com/GPX/1/1 http://www.topografix.com/GPX/1/1/gpx.xsd">
  <trk>
    <name>Openingsrit 2025</name>
    <desc></desc>
    <trkseg>
      <trkpt lat="50.87873" lon="4.55045">
        <ele>57</ele>
      </trkpt>
      <trkpt lat="50.8788" lon="4.55086">
        <ele>55</ele>
      </trkpt>
      <trkpt lat="50.87926" lon="4.5547">
        <ele>51</ele>
      </trkpt>
      <trkpt lat="50.87936" lon="4.5553">
        <ele>54</ele>
      </trkpt>
      <trkpt lat="50.87985" lon="4.55718">
        <ele>55</ele>
      </trkpt>
      <trkpt lat="50.88046" lon="4.5608">
        <ele>59</ele>
      </trkpt>
      <trkpt lat="50.88051" lon="4.56137">
        <ele>59</ele>
      </trkpt>
      <trkpt lat="50.88048" lon="4.56195">
        <ele>59</ele>
      </trkpt>
      <trkpt lat="50.88033" lon="4.56273">
        <ele>58</ele>
      </trkpt>
      <trkpt lat="50.88007" lon="4.56408">
        <ele>51</ele>
      </trkpt>
      <trkpt lat="50.88005" lon="4.56437">
        <ele>49</ele>
      </trkpt>
      <trkpt lat="50.88009" lon="4.56619">
        <ele>46</ele>
      </trkpt>
      <trkpt lat="50.88004" lon="4.56625">
        <ele>46</ele>
      </trkpt>
      <trkpt lat="50.88002" lon="4.56636">
        <ele>46</ele>
      </trkpt>
      <trkpt lat="50.87886" lon="4.567">
        <ele>46</ele>
      </trkpt>
      <trkpt lat="50.87784" lon="4.56786">
        <ele>50</ele>
      </trkpt>
      <trkpt lat="50.87739" lon="4.5681">
        <ele>53</ele>
      </trkpt>
      <trkpt lat="50.87734" lon="4.56801">
        <ele>53</ele>
      </trkpt>
      <trkpt lat="50.8773" lon="4.568">
        <ele>53</ele>
      </trkpt>
      <trkpt lat="50.87725" lon="4.56802">
        <ele>53</ele>
      </trkpt>
      <trkpt lat="50.8772" lon="4.56811">
        <ele>53</ele>
      </trkpt>
      <trkpt lat="50.87719" lon="4.56816">
        <ele>53</ele>
      </trkpt>
      <trkpt lat="50.87721" lon="4.56826">
        <ele>53</ele>
      </trkpt>
      <trkpt lat="50.87727" lon="4.56833">
        <ele>54</ele>
      </trkpt>
      <trkpt lat="50.87731" lon="4.56833">
        <ele>54</ele>
      </trkpt>
      <trkpt lat="50.87735" lon="4.56861">
        <ele>54</ele>
      </trkpt>
      <trkpt lat="50.87748" lon="4.56894">
        <ele>54</ele>
      </trkpt>
      <trkpt lat="50.87779" lon="4.5695">
        <ele>52</ele>
      </trkpt>
      <trkpt lat="50.87798" lon="4.56991">
        <ele>51</ele>
      </trkpt>
      <trkpt lat="50.8781" lon="4.57023">
        <ele>52</ele>
      </trkpt>
      <trkpt lat="50.87821" lon="4.57058">
        <ele>52</ele>
      </trkpt>
      <trkpt lat="50.87829" lon="4.57074">
        <ele>51</ele>
      </trkpt>
      <trkpt lat="50.87866" lon="4.57102">
        <ele>49</ele>
      </trkpt>
      <trkpt lat="50.87882" lon="4.57121">
        <ele>48</ele>
      </trkpt>
      <trkpt lat="50.87903" lon="4.5716">
        <ele>48</ele>
      </trkpt>
      <trkpt lat="50.87806" lon="4.57267">
        <ele>49</ele>
      </trkpt>
      <trkpt lat="50.87814" lon="4.57283">
        <ele>50</ele>
      </trkpt>
      <trkpt lat="50.87817" lon="4.57421">
        <ele>47</ele>
      </trkpt>
      <trkpt lat="50.87827" lon="4.57621">
        <ele>44</ele>
      </trkpt>
      <trkpt lat="50.87822" lon="4.57656">
        <ele>44</ele>
      </trkpt>
      <trkpt lat="50.87742" lon="4.58094">
        <ele>43</ele>
      </trkpt>
      <trkpt lat="50.87738" lon="4.58122">
        <ele>43</ele>
      </trkpt>
      <trkpt lat="50.87737" lon="4.58137">
        <ele>43</ele>
      </trkpt>
      <trkpt lat="50.87738" lon="4.58164">
        <ele>43</ele>
      </trkpt>
      <trkpt lat="50.87751" lon="4.58221">
        <ele>43</ele>
      </trkpt>
      <trkpt lat="50.87794" lon="4.58336">
        <ele>42</ele>
      </trkpt>
      <trkpt lat="50.87813" lon="4.5838">
        <ele>42</ele>
      </trkpt>
      <trkpt lat="50.8783" lon="4.58408">
        <ele>42</ele>
      </trkpt>
      <trkpt lat="50.87913" lon="4.58536">
        <ele>42</ele>
      </trkpt>
      <trkpt lat="50.87931" lon="4.58544">
        <ele>42</ele>
      </trkpt>
      <trkpt lat="50.8797" lon="4.58535">
        <ele>42</ele>
      </trkpt>
      <trkpt lat="50.87982" lon="4.58539">
        <ele>42</ele>
      </trkpt>
      <trkpt lat="50.87988" lon="4.58545">
        <ele>42</ele>
      </trkpt>
      <trkpt lat="50.88067" lon="4.58699">
        <ele>44</ele>
      </trkpt>
      <trkpt lat="50.88142" lon="4.58848">
        <ele>44</ele>
      </trkpt>
      <trkpt lat="50.88237" lon="4.59015">
        <ele>40</ele>
      </trkpt>
      <trkpt lat="50.88254" lon="4.59057">
        <ele>40</ele>
      </trkpt>
      <trkpt lat="50.8826" lon="4.5908">
        <ele>39</ele>
      </trkpt>
      <trkpt lat="50.88267" lon="4.59131">
        <ele>38</ele>
      </trkpt>
      <trkpt lat="50.88271" lon="4.59193">
        <ele>38</ele>
      </trkpt>
      <trkpt lat="50.88276" lon="4.59233">
        <ele>38</ele>
      </trkpt>
      <trkpt lat="50.8829" lon="4.5928">
        <ele>37</ele>
      </trkpt>
      <trkpt lat="50.88298" lon="4.59299">
        <ele>37</ele>
      </trkpt>
      <trkpt lat="50.88467" lon="4.59596">
        <ele>38</ele>
      </trkpt>
      <trkpt lat="50.88511" lon="4.59672">
        <ele>39</ele>
      </trkpt>
      <trkpt lat="50.88528" lon="4.59687">
        <ele>39</ele>
      </trkpt>
      <trkpt lat="50.88548" lon="4.59699">
        <ele>39</ele>
      </trkpt>
      <trkpt lat="50.88564" lon="4.59719">
        <ele>39</ele>
      </trkpt>
      <trkpt lat="50.88586" lon="4.59767">
        <ele>39</ele>
      </trkpt>
      <trkpt lat="50.88606" lon="4.59804">
        <ele>39</ele>
      </trkpt>
      <trkpt lat="50.88998" lon="4.60338">
        <ele>36</ele>
      </trkpt>
      <trkpt lat="50.8911" lon="4.60475">
        <ele>35</ele>
      </trkpt>
      <trkpt lat="50.89556" lon="4.60997">
        <ele>34</ele>
      </trkpt>
      <trkpt lat="50.89602" lon="4.61049">
        <ele>33</ele>
      </trkpt>
      <trkpt lat="50.89649" lon="4.61116">
        <ele>33</ele>
      </trkpt>
      <trkpt lat="50.89744" lon="4.61323">
        <ele>32</ele>
      </trkpt>
      <trkpt lat="50.89845" lon="4.61597">
        <ele>32</ele>
      </trkpt>
      <trkpt lat="50.89853" lon="4.61616">
        <ele>31</ele>
      </trkpt>
      <trkpt lat="50.89862" lon="4.6163">
        <ele>31</ele>
      </trkpt>
      <trkpt lat="50.89871" lon="4.6164">
        <ele>31</ele>
      </trkpt>
      <trkpt lat="50.89869" lon="4.61647">
        <ele>31</ele>
      </trkpt>
      <trkpt lat="50.89876" lon="4.61656">
        <ele>31</ele>
      </trkpt>
      <trkpt lat="50.89877" lon="4.61667">
        <ele>32</ele>
      </trkpt>
      <trkpt lat="50.89876" lon="4.61686">
        <ele>32</ele>
      </trkpt>
      <trkpt lat="50.8988" lon="4.61688">
        <ele>32</ele>
      </trkpt>
      <trkpt lat="50.89884" lon="4.61686">
        <ele>32</ele>
      </trkpt>
      <trkpt lat="50.89887" lon="4.61671">
        <ele>32</ele>
      </trkpt>
      <trkpt lat="50.89891" lon="4.61666">
        <ele>32</ele>
      </trkpt>
      <trkpt lat="50.89899" lon="4.61665">
        <ele>32</ele>
      </trkpt>
      <trkpt lat="50.89982" lon="4.617">
        <ele>31</ele>
      </trkpt>
      <trkpt lat="50.89998" lon="4.61712">
        <ele>31</ele>
      </trkpt>
      <trkpt lat="50.90009" lon="4.61724">
        <ele>31</ele>
      </trkpt>
      <trkpt lat="50.90021" lon="4.61748">
        <ele>30</ele>
      </trkpt>
      <trkpt lat="50.90032" lon="4.61793">
        <ele>30</ele>
      </trkpt>
      <trkpt lat="50.90038" lon="4.618">
        <ele>30</ele>
      </trkpt>
      <trkpt lat="50.90061" lon="4.61899">
        <ele>30</ele>
      </trkpt>
      <trkpt lat="50.90083" lon="4.6201">
        <ele>30</ele>
      </trkpt>
      <trkpt lat="50.90116" lon="4.62233">
        <ele>30</ele>
      </trkpt>
      <trkpt lat="50.90119" lon="4.62249">
        <ele>30</ele>
      </trkpt>
      <trkpt lat="50.90126" lon="4.62264">
        <ele>30</ele>
      </trkpt>
      <trkpt lat="50.90122" lon="4.62287">
        <ele>30</ele>
      </trkpt>
      <trkpt lat="50.90123" lon="4.62295">
        <ele>30</ele>
      </trkpt>
      <trkpt lat="50.90134" lon="4.62334">
        <ele>30</ele>
      </trkpt>
      <trkpt lat="50.90137" lon="4.62356">
        <ele>30</ele>
      </trkpt>
      <trkpt lat="50.90141" lon="4.62375">
        <ele>31</ele>
      </trkpt>
      <trkpt lat="50.90146" lon="4.62381">
        <ele>30</ele>
      </trkpt>
      <trkpt lat="50.90152" lon="4.62407">
        <ele>30</ele>
      </trkpt>
      <trkpt lat="50.90152" lon="4.62418">
        <ele>30</ele>
      </trkpt>
      <trkpt lat="50.90163" lon="4.62533">
        <ele>31</ele>
      </trkpt>
      <trkpt lat="50.90166" lon="4.62542">
        <ele>31</ele>
      </trkpt>
      <trkpt lat="50.90172" lon="4.62619">
        <ele>31</ele>
      </trkpt>
      <trkpt lat="50.90169" lon="4.62634">
        <ele>31</ele>
      </trkpt>
      <trkpt lat="50.90171" lon="4.62646">
        <ele>31</ele>
      </trkpt>
      <trkpt lat="50.90171" lon="4.6266">
        <ele>30</ele>
      </trkpt>
      <trkpt lat="50.90161" lon="4.62718">
        <ele>30</ele>
      </trkpt>
      <trkpt lat="50.90057" lon="4.6321">
        <ele>32</ele>
      </trkpt>
      <trkpt lat="50.90073" lon="4.63424">
        <ele>30</ele>
      </trkpt>
      <trkpt lat="50.90078" lon="4.63456">
        <ele>30</ele>
      </trkpt>
      <trkpt lat="50.90084" lon="4.63485">
        <ele>30</ele>
      </trkpt>
      <trkpt lat="50.90089" lon="4.63506">
        <ele>30</ele>
      </trkpt>
      <trkpt lat="50.90188" lon="4.63835">
        <ele>29</ele>
      </trkpt>
      <trkpt lat="50.90199" lon="4.63897">
        <ele>29</ele>
      </trkpt>
      <trkpt lat="50.90205" lon="4.63963">
        <ele>30</ele>
      </trkpt>
      <trkpt lat="50.90215" lon="4.64136">
        <ele>30</ele>
      </trkpt>
      <trkpt lat="50.90222" lon="4.64174">
        <ele>30</ele>
      </trkpt>
      <trkpt lat="50.9023" lon="4.64209">
        <ele>30</ele>
      </trkpt>
      <trkpt lat="50.9026" lon="4.64315">
        <ele>30</ele>
      </trkpt>
      <trkpt lat="50.90287" lon="4.64388">
        <ele>31</ele>
      </trkpt>
      <trkpt lat="50.90295" lon="4.64414">
        <ele>31</ele>
      </trkpt>
      <trkpt lat="50.90302" lon="4.64459">
        <ele>31</ele>
      </trkpt>
      <trkpt lat="50.90306" lon="4.64515">
        <ele>31</ele>
      </trkpt>
      <trkpt lat="50.90309" lon="4.64567">
        <ele>31</ele>
      </trkpt>
      <trkpt lat="50.90308" lon="4.64582">
        <ele>30</ele>
      </trkpt>
      <trkpt lat="50.90301" lon="4.64582">
        <ele>30</ele>
      </trkpt>
      <trkpt lat="50.90297" lon="4.64589">
        <ele>30</ele>
      </trkpt>
      <trkpt lat="50.90296" lon="4.64594">
        <ele>30</ele>
      </trkpt>
      <trkpt lat="50.90298" lon="4.64604">
        <ele>30</ele>
      </trkpt>
      <trkpt lat="50.90301" lon="4.64607">
        <ele>30</ele>
      </trkpt>
      <trkpt lat="50.90308" lon="4.64608">
        <ele>30</ele>
      </trkpt>
      <trkpt lat="50.90311" lon="4.64604">
        <ele>30</ele>
      </trkpt>
      <trkpt lat="50.90313" lon="4.64594">
        <ele>30</ele>
      </trkpt>
      <trkpt lat="50.90434" lon="4.64538">
        <ele>30</ele>
      </trkpt>
      <trkpt lat="50.91197" lon="4.63952">
        <ele>29</ele>
      </trkpt>
      <trkpt lat="50.91238" lon="4.6393">
        <ele>30</ele>
      </trkpt>
      <trkpt lat="50.9128" lon="4.63916">
        <ele>29</ele>
      </trkpt>
      <trkpt lat="50.91417" lon="4.63893">
        <ele>26</ele>
      </trkpt>
      <trkpt lat="50.91465" lon="4.63881">
        <ele>24</ele>
      </trkpt>
      <trkpt lat="50.91539" lon="4.63853">
        <ele>26</ele>
      </trkpt>
      <trkpt lat="50.91953" lon="4.63633">
        <ele>17</ele>
      </trkpt>
      <trkpt lat="50.92009" lon="4.63596">
        <ele>17</ele>
      </trkpt>
      <trkpt lat="50.92047" lon="4.63563">
        <ele>18</ele>
      </trkpt>
      <trkpt lat="50.92075" lon="4.63533">
        <ele>18</ele>
      </trkpt>
      <trkpt lat="50.9209" lon="4.63513">
        <ele>18</ele>
      </trkpt>
      <trkpt lat="50.92226" lon="4.63297">
        <ele>20</ele>
      </trkpt>
      <trkpt lat="50.92254" lon="4.63258">
        <ele>20</ele>
      </trkpt>
      <trkpt lat="50.92278" lon="4.63232">
        <ele>20</ele>
      </trkpt>
      <trkpt lat="50.92367" lon="4.63147">
        <ele>19</ele>
      </trkpt>
      <trkpt lat="50.92459" lon="4.63054">
        <ele>18</ele>
      </trkpt>
      <trkpt lat="50.92525" lon="4.62997">
        <ele>18</ele>
      </trkpt>
      <trkpt lat="50.92545" lon="4.62985">
        <ele>17</ele>
      </trkpt>
      <trkpt lat="50.92566" lon="4.62977">
        <ele>17</ele>
      </trkpt>
      <trkpt lat="50.92602" lon="4.62975">
        <ele>18</ele>
      </trkpt>
      <trkpt lat="50.92633" lon="4.62979">
        <ele>18</ele>
      </trkpt>
      <trkpt lat="50.92662" lon="4.62994">
        <ele>18</ele>
      </trkpt>
      <trkpt lat="50.92756" lon="4.63051">
        <ele>18</ele>
      </trkpt>
      <trkpt lat="50.92815" lon="4.63085">
        <ele>17</ele>
      </trkpt>
      <trkpt lat="50.92834" lon="4.63089">
        <ele>17</ele>
      </trkpt>
      <trkpt lat="50.92859" lon="4.6309">
        <ele>17</ele>
      </trkpt>
      <trkpt lat="50.93143" lon="4.63045">
        <ele>17</ele>
      </trkpt>
      <trkpt lat="50.93151" lon="4.63048">
        <ele>18</ele>
      </trkpt>
      <trkpt lat="50.93161" lon="4.63056">
        <ele>18</ele>
      </trkpt>
      <trkpt lat="50.93207" lon="4.63109">
        <ele>17</ele>
      </trkpt>
      <trkpt lat="50.93248" lon="4.63176">
        <ele>17</ele>
      </trkpt>
      <trkpt lat="50.93302" lon="4.63265">
        <ele>17</ele>
      </trkpt>
      <trkpt lat="50.93316" lon="4.63289">
        <ele>17</ele>
      </trkpt>
      <trkpt lat="50.93322" lon="4.63307">
        <ele>17</ele>
      </trkpt>
      <trkpt lat="50.93329" lon="4.63327">
        <ele>17</ele>
      </trkpt>
      <trkpt lat="50.93366" lon="4.63484">
        <ele>17</ele>
      </trkpt>
      <trkpt lat="50.93434" lon="4.63744">
        <ele>16</ele>
      </trkpt>
      <trkpt lat="50.93438" lon="4.63769">
        <ele>16</ele>
      </trkpt>
      <trkpt lat="50.93438" lon="4.63789">
        <ele>16</ele>
      </trkpt>
      <trkpt lat="50.93434" lon="4.63844">
        <ele>15</ele>
      </trkpt>
      <trkpt lat="50.93434" lon="4.63874">
        <ele>15</ele>
      </trkpt>
      <trkpt lat="50.93438" lon="4.63995">
        <ele>16</ele>
      </trkpt>
      <trkpt lat="50.9344" lon="4.64009">
        <ele>16</ele>
      </trkpt>
      <trkpt lat="50.93443" lon="4.64018">
        <ele>16</ele>
      </trkpt>
      <trkpt lat="50.93448" lon="4.64023">
        <ele>16</ele>
      </trkpt>
      <trkpt lat="50.93455" lon="4.64024">
        <ele>16</ele>
      </trkpt>
      <trkpt lat="50.93651" lon="4.63953">
        <ele>16</ele>
      </trkpt>
      <trkpt lat="50.93679" lon="4.63938">
        <ele>16</ele>
      </trkpt>
      <trkpt lat="50.93714" lon="4.6391">
        <ele>15</ele>
      </trkpt>
      <trkpt lat="50.93806" lon="4.63817">
        <ele>15</ele>
      </trkpt>
      <trkpt lat="50.93824" lon="4.63802">
        <ele>15</ele>
      </trkpt>
      <trkpt lat="50.9383" lon="4.63799">
        <ele>15</ele>
      </trkpt>
      <trkpt lat="50.93841" lon="4.63802">
        <ele>15</ele>
      </trkpt>
      <trkpt lat="50.93853" lon="4.63812">
        <ele>15</ele>
      </trkpt>
      <trkpt lat="50.94171" lon="4.64246">
        <ele>14</ele>
      </trkpt>
      <trkpt lat="50.94264" lon="4.64366">
        <ele>14</ele>
      </trkpt>
      <trkpt lat="50.94323" lon="4.64458">
        <ele>14</ele>
      </trkpt>
      <trkpt lat="50.94328" lon="4.64463">
        <ele>14</ele>
      </trkpt>
      <trkpt lat="50.94476" lon="4.64505">
        <ele>15</ele>
      </trkpt>
      <trkpt lat="50.94488" lon="4.64505">
        <ele>15</ele>
      </trkpt>
      <trkpt lat="50.94502" lon="4.64502">
        <ele>15</ele>
      </trkpt>
      <trkpt lat="50.94514" lon="4.64496">
        <ele>15</ele>
      </trkpt>
      <trkpt lat="50.94591" lon="4.64425">
        <ele>15</ele>
      </trkpt>
      <trkpt lat="50.94682" lon="4.64344">
        <ele>15</ele>
      </trkpt>
      <trkpt lat="50.94684" lon="4.64349">
        <ele>14</ele>
      </trkpt>
      <trkpt lat="50.9469" lon="4.6435">
        <ele>14</ele>
      </trkpt>
      <trkpt lat="50.94703" lon="4.64354">
        <ele>14</ele>
      </trkpt>
      <trkpt lat="50.94715" lon="4.6436">
        <ele>13</ele>
      </trkpt>
      <trkpt lat="50.94725" lon="4.64364">
        <ele>13</ele>
      </trkpt>
      <trkpt lat="50.94694" lon="4.64539">
        <ele>14</ele>
      </trkpt>
      <trkpt lat="50.94657" lon="4.64733">
        <ele>14</ele>
      </trkpt>
      <trkpt lat="50.94536" lon="4.65376">
        <ele>13</ele>
      </trkpt>
      <trkpt lat="50.94483" lon="4.65667">
        <ele>14</ele>
      </trkpt>
      <trkpt lat="50.94457" lon="4.65821">
        <ele>14</ele>
      </trkpt>
      <trkpt lat="50.9445" lon="4.65853">
        <ele>14</ele>
      </trkpt>
      <trkpt lat="50.94444" lon="4.65867">
        <ele>14</ele>
      </trkpt>
      <trkpt lat="50.94428" lon="4.65898">
        <ele>14</ele>
      </trkpt>
      <trkpt lat="50.94419" lon="4.65914">
        <ele>14</ele>
      </trkpt>
      <trkpt lat="50.9443" lon="4.65921">
        <ele>14</ele>
      </trkpt>
      <trkpt lat="50.94384" lon="4.66313">
        <ele>14</ele>
      </trkpt>
      <trkpt lat="50.94385" lon="4.66358">
        <ele>14</ele>
      </trkpt>
      <trkpt lat="50.94394" lon="4.66401">
        <ele>14</ele>
      </trkpt>
      <trkpt lat="50.94407" lon="4.66433">
        <ele>14</ele>
      </trkpt>
      <trkpt lat="50.94487" lon="4.66614">
        <ele>12</ele>
      </trkpt>
      <trkpt lat="50.94516" lon="4.66696">
        <ele>12</ele>
      </trkpt>
      <trkpt lat="50.94607" lon="4.67044">
        <ele>13</ele>
      </trkpt>
      <trkpt lat="50.94612" lon="4.67134">
        <ele>12</ele>
      </trkpt>
      <trkpt lat="50.94611" lon="4.67156">
        <ele>13</ele>
      </trkpt>
      <trkpt lat="50.94607" lon="4.67167">
        <ele>13</ele>
      </trkpt>
      <trkpt lat="50.94601" lon="4.6717">
        <ele>13</ele>
      </trkpt>
      <trkpt lat="50.94567" lon="4.67163">
        <ele>13</ele>
      </trkpt>
      <trkpt lat="50.94552" lon="4.67168">
        <ele>13</ele>
      </trkpt>
      <trkpt lat="50.9454" lon="4.67178">
        <ele>13</ele>
      </trkpt>
      <trkpt lat="50.94436" lon="4.67282">
        <ele>12</ele>
      </trkpt>
      <trkpt lat="50.94427" lon="4.67295">
        <ele>12</ele>
      </trkpt>
      <trkpt lat="50.94404" lon="4.67375">
        <ele>13</ele>
      </trkpt>
      <trkpt lat="50.94402" lon="4.67389">
        <ele>13</ele>
      </trkpt>
      <trkpt lat="50.94404" lon="4.67405">
        <ele>13</ele>
      </trkpt>
      <trkpt lat="50.94441" lon="4.67501">
        <ele>12</ele>
      </trkpt>
      <trkpt lat="50.94447" lon="4.67541">
        <ele>12</ele>
      </trkpt>
      <trkpt lat="50.94448" lon="4.67562">
        <ele>12</ele>
      </trkpt>
      <trkpt lat="50.94447" lon="4.67584">
        <ele>12</ele>
      </trkpt>
      <trkpt lat="50.94432" lon="4.67741">
        <ele>11</ele>
      </trkpt>
      <trkpt lat="50.94432" lon="4.67764">
        <ele>11</ele>
      </trkpt>
      <trkpt lat="50.94435" lon="4.67783">
        <ele>12</ele>
      </trkpt>
      <trkpt lat="50.94438" lon="4.67803">
        <ele>12</ele>
      </trkpt>
      <trkpt lat="50.94449" lon="4.67848">
        <ele>12</ele>
      </trkpt>
      <trkpt lat="50.94451" lon="4.67865">
        <ele>12</ele>
      </trkpt>
      <trkpt lat="50.94451" lon="4.67892">
        <ele>12</ele>
      </trkpt>
      <trkpt lat="50.94447" lon="4.67905">
        <ele>12</ele>
      </trkpt>
      <trkpt lat="50.9444" lon="4.67917">
        <ele>12</ele>
      </trkpt>
      <trkpt lat="50.94427" lon="4.67934">
        <ele>12</ele>
      </trkpt>
      <trkpt lat="50.94419" lon="4.67956">
        <ele>12</ele>
      </trkpt>
      <trkpt lat="50.94417" lon="4.68003">
        <ele>13</ele>
      </trkpt>
      <trkpt lat="50.94425" lon="4.68074">
        <ele>13</ele>
      </trkpt>
      <trkpt lat="50.94452" lon="4.68168">
        <ele>12</ele>
      </trkpt>
      <trkpt lat="50.94455" lon="4.68192">
        <ele>12</ele>
      </trkpt>
      <trkpt lat="50.94487" lon="4.6818">
        <ele>12</ele>
      </trkpt>
      <trkpt lat="50.94514" lon="4.68163">
        <ele>12</ele>
      </trkpt>
      <trkpt lat="50.94613" lon="4.68085">
        <ele>13</ele>
      </trkpt>
      <trkpt lat="50.94665" lon="4.68048">
        <ele>14</ele>
      </trkpt>
      <trkpt lat="50.94719" lon="4.68012">
        <ele>13</ele>
      </trkpt>
      <trkpt lat="50.94808" lon="4.67944">
        <ele>13</ele>
      </trkpt>
      <trkpt lat="50.94932" lon="4.67871">
        <ele>13</ele>
      </trkpt>
      <trkpt lat="50.94952" lon="4.67856">
        <ele>13</ele>
      </trkpt>
      <trkpt lat="50.95061" lon="4.6777">
        <ele>12</ele>
      </trkpt>
      <trkpt lat="50.95198" lon="4.67647">
        <ele>11</ele>
      </trkpt>
      <trkpt lat="50.95393" lon="4.67476">
        <ele>11</ele>
      </trkpt>
      <trkpt lat="50.95442" lon="4.6744">
        <ele>11</ele>
      </trkpt>
      <trkpt lat="50.95538" lon="4.67385">
        <ele>10</ele>
      </trkpt>
      <trkpt lat="50.95568" lon="4.67376">
        <ele>10</ele>
      </trkpt>
      <trkpt lat="50.95587" lon="4.67375">
        <ele>10</ele>
      </trkpt>
      <trkpt lat="50.95604" lon="4.67378">
        <ele>11</ele>
      </trkpt>
      <trkpt lat="50.95668" lon="4.67399">
        <ele>11</ele>
      </trkpt>
      <trkpt lat="50.95681" lon="4.674">
        <ele>11</ele>
      </trkpt>
      <trkpt lat="50.95718" lon="4.67397">
        <ele>11</ele>
      </trkpt>
      <trkpt lat="50.95755" lon="4.67385">
        <ele>11</ele>
      </trkpt>
      <trkpt lat="50.95784" lon="4.67365">
        <ele>11</ele>
      </trkpt>
      <trkpt lat="50.95868" lon="4.67281">
        <ele>10</ele>
      </trkpt>
      <trkpt lat="50.95878" lon="4.67264">
        <ele>10</ele>
      </trkpt>
      <trkpt lat="50.95884" lon="4.67246">
        <ele>10</ele>
      </trkpt>
      <trkpt lat="50.95903" lon="4.67148">
        <ele>11</ele>
      </trkpt>
      <trkpt lat="50.95912" lon="4.67111">
        <ele>11</ele>
      </trkpt>
      <trkpt lat="50.95978" lon="4.66882">
        <ele>10</ele>
      </trkpt>
      <trkpt lat="50.95988" lon="4.66851">
        <ele>9</ele>
      </trkpt>
      <trkpt lat="50.96024" lon="4.66773">
        <ele>8</ele>
      </trkpt>
      <trkpt lat="50.96083" lon="4.66657">
        <ele>8</ele>
      </trkpt>
      <trkpt lat="50.96141" lon="4.66556">
        <ele>8</ele>
      </trkpt>
      <trkpt lat="50.96155" lon="4.66552">
        <ele>8</ele>
      </trkpt>
      <trkpt lat="50.96171" lon="4.66536">
        <ele>8</ele>
      </trkpt>
      <trkpt lat="50.96215" lon="4.66478">
        <ele>8</ele>
      </trkpt>
      <trkpt lat="50.96233" lon="4.66446">
        <ele>8</ele>
      </trkpt>
      <trkpt lat="50.96253" lon="4.66376">
        <ele>8</ele>
      </trkpt>
      <trkpt lat="50.96253" lon="4.66348">
        <ele>8</ele>
      </trkpt>
      <trkpt lat="50.96303" lon="4.66256">
        <ele>7</ele>
      </trkpt>
      <trkpt lat="50.96331" lon="4.66221">
        <ele>7</ele>
      </trkpt>
      <trkpt lat="50.96345" lon="4.66208">
        <ele>7</ele>
      </trkpt>
      <trkpt lat="50.96361" lon="4.662">
        <ele>7</ele>
      </trkpt>
      <trkpt lat="50.964" lon="4.66195">
        <ele>7</ele>
      </trkpt>
      <trkpt lat="50.96645" lon="4.66188">
        <ele>7</ele>
      </trkpt>
      <trkpt lat="50.96889" lon="4.66182">
        <ele>8</ele>
      </trkpt>
      <trkpt lat="50.96931" lon="4.66172">
        <ele>8</ele>
      </trkpt>
      <trkpt lat="50.96982" lon="4.66153">
        <ele>9</ele>
      </trkpt>
      <trkpt lat="50.97" lon="4.66143">
        <ele>9</ele>
      </trkpt>
      <trkpt lat="50.97154" lon="4.66046">
        <ele>8</ele>
      </trkpt>
      <trkpt lat="50.97167" lon="4.6604">
        <ele>8</ele>
      </trkpt>
      <trkpt lat="50.97184" lon="4.66038">
        <ele>8</ele>
      </trkpt>
      <trkpt lat="50.97211" lon="4.66039">
        <ele>8</ele>
      </trkpt>
      <trkpt lat="50.97215" lon="4.66047">
        <ele>8</ele>
      </trkpt>
      <trkpt lat="50.97219" lon="4.66048">
        <ele>8</ele>
      </trkpt>
      <trkpt lat="50.9723" lon="4.66059">
        <ele>8</ele>
      </trkpt>
      <trkpt lat="50.97243" lon="4.66068">
        <ele>7</ele>
      </trkpt>
      <trkpt lat="50.97245" lon="4.66076">
        <ele>7</ele>
      </trkpt>
      <trkpt lat="50.97245" lon="4.66081">
        <ele>8</ele>
      </trkpt>
      <trkpt lat="50.97261" lon="4.66086">
        <ele>7</ele>
      </trkpt>
      <trkpt lat="50.97264" lon="4.66079">
        <ele>7</ele>
      </trkpt>
      <trkpt lat="50.97288" lon="4.66064">
        <ele>7</ele>
      </trkpt>
      <trkpt lat="50.97463" lon="4.66032">
        <ele>8</ele>
      </trkpt>
      <trkpt lat="50.97489" lon="4.66023">
        <ele>8</ele>
      </trkpt>
      <trkpt lat="50.97517" lon="4.66011">
        <ele>8</ele>
      </trkpt>
      <trkpt lat="50.97585" lon="4.65976">
        <ele>8</ele>
      </trkpt>
      <trkpt lat="50.97601" lon="4.66042">
        <ele>8</ele>
      </trkpt>
      <trkpt lat="50.97635" lon="4.66174">
        <ele>7</ele>
      </trkpt>
      <trkpt lat="50.97639" lon="4.66202">
        <ele>7</ele>
      </trkpt>
      <trkpt lat="50.97636" lon="4.66422">
        <ele>6</ele>
      </trkpt>
      <trkpt lat="50.97631" lon="4.66459">
        <ele>6</ele>
      </trkpt>
      <trkpt lat="50.9762" lon="4.66501">
        <ele>6</ele>
      </trkpt>
      <trkpt lat="50.97619" lon="4.66517">
        <ele>6</ele>
      </trkpt>
      <trkpt lat="50.97624" lon="4.66559">
        <ele>7</ele>
      </trkpt>
      <trkpt lat="50.97624" lon="4.66583">
        <ele>8</ele>
      </trkpt>
      <trkpt lat="50.97618" lon="4.66605">
        <ele>8</ele>
      </trkpt>
      <trkpt lat="50.97587" lon="4.66696">
        <ele>8</ele>
      </trkpt>
      <trkpt lat="50.97579" lon="4.66708">
        <ele>8</ele>
      </trkpt>
      <trkpt lat="50.97572" lon="4.66714">
        <ele>8</ele>
      </trkpt>
      <trkpt lat="50.97547" lon="4.66725">
        <ele>8</ele>
      </trkpt>
      <trkpt lat="50.97539" lon="4.66731">
        <ele>8</ele>
      </trkpt>
      <trkpt lat="50.97533" lon="4.6674">
        <ele>8</ele>
      </trkpt>
      <trkpt lat="50.97528" lon="4.66751">
        <ele>9</ele>
      </trkpt>
      <trkpt lat="50.97524" lon="4.66767">
        <ele>9</ele>
      </trkpt>
      <trkpt lat="50.97515" lon="4.66863">
        <ele>8</ele>
      </trkpt>
      <trkpt lat="50.97496" lon="4.66979">
        <ele>8</ele>
      </trkpt>
      <trkpt lat="50.97493" lon="4.6702">
        <ele>8</ele>
      </trkpt>
      <trkpt lat="50.97493" lon="4.67081">
        <ele>7</ele>
      </trkpt>
      <trkpt lat="50.97499" lon="4.67126">
        <ele>7</ele>
      </trkpt>
      <trkpt lat="50.97504" lon="4.67143">
        <ele>7</ele>
      </trkpt>
      <trkpt lat="50.97528" lon="4.67197">
        <ele>6</ele>
      </trkpt>
      <trkpt lat="50.97536" lon="4.67218">
        <ele>6</ele>
      </trkpt>
      <trkpt lat="50.97539" lon="4.67232">
        <ele>6</ele>
      </trkpt>
      <trkpt lat="50.97551" lon="4.67332">
        <ele>7</ele>
      </trkpt>
      <trkpt lat="50.97562" lon="4.6741">
        <ele>7</ele>
      </trkpt>
      <trkpt lat="50.97573" lon="4.6747">
        <ele>8</ele>
      </trkpt>
      <trkpt lat="50.9758" lon="4.67505">
        <ele>8</ele>
      </trkpt>
      <trkpt lat="50.97596" lon="4.67561">
        <ele>8</ele>
      </trkpt>
      <trkpt lat="50.97629" lon="4.67664">
        <ele>7</ele>
      </trkpt>
      <trkpt lat="50.97657" lon="4.67741">
        <ele>7</ele>
      </trkpt>
      <trkpt lat="50.97659" lon="4.67746">
        <ele>7</ele>
      </trkpt>
      <trkpt lat="50.97661" lon="4.67755">
        <ele>7</ele>
      </trkpt>
      <trkpt lat="50.97661" lon="4.67763">
        <ele>7</ele>
      </trkpt>
      <trkpt lat="50.97658" lon="4.67773">
        <ele>7</ele>
      </trkpt>
      <trkpt lat="50.97617" lon="4.67849">
        <ele>8</ele>
      </trkpt>
      <trkpt lat="50.97614" lon="4.67859">
        <ele>8</ele>
      </trkpt>
      <trkpt lat="50.97612" lon="4.67873">
        <ele>8</ele>
      </trkpt>
      <trkpt lat="50.97613" lon="4.67886">
        <ele>8</ele>
      </trkpt>
      <trkpt lat="50.97634" lon="4.67983">
        <ele>8</ele>
      </trkpt>
      <trkpt lat="50.97651" lon="4.68043">
        <ele>8</ele>
      </trkpt>
      <trkpt lat="50.97667" lon="4.68094">
        <ele>8</ele>
      </trkpt>
      <trkpt lat="50.97697" lon="4.68178">
        <ele>9</ele>
      </trkpt>
      <trkpt lat="50.97701" lon="4.68197">
        <ele>9</ele>
      </trkpt>
      <trkpt lat="50.97703" lon="4.68243">
        <ele>9</ele>
      </trkpt>
      <trkpt lat="50.97708" lon="4.68305">
        <ele>9</ele>
      </trkpt>
      <trkpt lat="50.97712" lon="4.68346">
        <ele>9</ele>
      </trkpt>
      <trkpt lat="50.97723" lon="4.6838">
        <ele>9</ele>
      </trkpt>
      <trkpt lat="50.97735" lon="4.6843">
        <ele>8</ele>
      </trkpt>
      <trkpt lat="50.97735" lon="4.68438">
        <ele>8</ele>
      </trkpt>
      <trkpt lat="50.97731" lon="4.68448">
        <ele>8</ele>
      </trkpt>
      <trkpt lat="50.97693" lon="4.68493">
        <ele>8</ele>
      </trkpt>
      <trkpt lat="50.97677" lon="4.6851">
        <ele>8</ele>
      </trkpt>
      <trkpt lat="50.97606" lon="4.6861">
        <ele>8</ele>
      </trkpt>
      <trkpt lat="50.97599" lon="4.68615">
        <ele>8</ele>
      </trkpt>
      <trkpt lat="50.97579" lon="4.68619">
        <ele>8</ele>
      </trkpt>
      <trkpt lat="50.975" lon="4.68609">
        <ele>8</ele>
      </trkpt>
      <trkpt lat="50.9747" lon="4.68601">
        <ele>8</ele>
      </trkpt>
      <trkpt lat="50.97459" lon="4.68601">
        <ele>8</ele>
      </trkpt>
      <trkpt lat="50.97451" lon="4.68604">
        <ele>8</ele>
      </trkpt>
      <trkpt lat="50.97437" lon="4.68617">
        <ele>8</ele>
      </trkpt>
      <trkpt lat="50.97421" lon="4.68635">
        <ele>8</ele>
      </trkpt>
      <trkpt lat="50.97387" lon="4.68686">
        <ele>8</ele>
      </trkpt>
      <trkpt lat="50.97337" lon="4.68802">
        <ele>8</ele>
      </trkpt>
      <trkpt lat="50.97324" lon="4.68827">
        <ele>8</ele>
      </trkpt>
      <trkpt lat="50.97314" lon="4.68843">
        <ele>8</ele>
      </trkpt>
      <trkpt lat="50.97302" lon="4.68856">
        <ele>8</ele>
      </trkpt>
      <trkpt lat="50.97295" lon="4.68862">
        <ele>8</ele>
      </trkpt>
      <trkpt lat="50.97288" lon="4.68864">
        <ele>8</ele>
      </trkpt>
      <trkpt lat="50.97262" lon="4.68855">
        <ele>8</ele>
      </trkpt>
      <trkpt lat="50.97248" lon="4.68857">
        <ele>8</ele>
      </trkpt>
      <trkpt lat="50.97229" lon="4.6887">
        <ele>8</ele>
      </trkpt>
      <trkpt lat="50.97217" lon="4.68881">
        <ele>8</ele>
      </trkpt>
      <trkpt lat="50.97196" lon="4.68907">
        <ele>8</ele>
      </trkpt>
      <trkpt lat="50.97157" lon="4.68958">
        <ele>8</ele>
      </trkpt>
      <trkpt lat="50.97058" lon="4.69058">
        <ele>8</ele>
      </trkpt>
      <trkpt lat="50.97028" lon="4.69083">
        <ele>9</ele>
      </trkpt>
      <trkpt lat="50.96978" lon="4.69118">
        <ele>9</ele>
      </trkpt>
      <trkpt lat="50.96959" lon="4.69117">
        <ele>9</ele>
      </trkpt>
      <trkpt lat="50.96948" lon="4.69102">
        <ele>9</ele>
      </trkpt>
      <trkpt lat="50.96944" lon="4.69092">
        <ele>9</ele>
      </trkpt>
      <trkpt lat="50.9694" lon="4.6913">
        <ele>9</ele>
      </trkpt>
      <trkpt lat="50.96935" lon="4.6914">
        <ele>9</ele>
      </trkpt>
      <trkpt lat="50.96913" lon="4.69336">
        <ele>9</ele>
      </trkpt>
      <trkpt lat="50.96897" lon="4.69331">
        <ele>9</ele>
      </trkpt>
      <trkpt lat="50.96896" lon="4.69443">
        <ele>9</ele>
      </trkpt>
      <trkpt lat="50.969" lon="4.69499">
        <ele>10</ele>
      </trkpt>
      <trkpt lat="50.96904" lon="4.69543">
        <ele>10</ele>
      </trkpt>
      <trkpt lat="50.9691" lon="4.69558">
        <ele>10</ele>
      </trkpt>
      <trkpt lat="50.96919" lon="4.6968">
        <ele>10</ele>
      </trkpt>
      <trkpt lat="50.96954" lon="4.70175">
        <ele>11</ele>
      </trkpt>
      <trkpt lat="50.96957" lon="4.70201">
        <ele>11</ele>
      </trkpt>
      <trkpt lat="50.96962" lon="4.70226">
        <ele>11</ele>
      </trkpt>
      <trkpt lat="50.96975" lon="4.70265">
        <ele>12</ele>
      </trkpt>
      <trkpt lat="50.96984" lon="4.70285">
        <ele>12</ele>
      </trkpt>
      <trkpt lat="50.96999" lon="4.70313">
        <ele>12</ele>
      </trkpt>
      <trkpt lat="50.97029" lon="4.70345">
        <ele>12</ele>
      </trkpt>
      <trkpt lat="50.97045" lon="4.70357">
        <ele>12</ele>
      </trkpt>
      <trkpt lat="50.97066" lon="4.70366">
        <ele>12</ele>
      </trkpt>
      <trkpt lat="50.97078" lon="4.7037">
        <ele>12</ele>
      </trkpt>
      <trkpt lat="50.9711" lon="4.70373">
        <ele>11</ele>
      </trkpt>
      <trkpt lat="50.97132" lon="4.70365">
        <ele>11</ele>
      </trkpt>
      <trkpt lat="50.97289" lon="4.70267">
        <ele>10</ele>
      </trkpt>
      <trkpt lat="50.9729" lon="4.70273">
        <ele>10</ele>
      </trkpt>
      <trkpt lat="50.97297" lon="4.7027">
        <ele>10</ele>
      </trkpt>
      <trkpt lat="50.97311" lon="4.70265">
        <ele>10</ele>
      </trkpt>
      <trkpt lat="50.97334" lon="4.70265">
        <ele>11</ele>
      </trkpt>
      <trkpt lat="50.97338" lon="4.70273">
        <ele>11</ele>
      </trkpt>
      <trkpt lat="50.9735" lon="4.70279">
        <ele>10</ele>
      </trkpt>
      <trkpt lat="50.97357" lon="4.70278">
        <ele>10</ele>
      </trkpt>
      <trkpt lat="50.97359" lon="4.70275">
        <ele>10</ele>
      </trkpt>
      <trkpt lat="50.97361" lon="4.70267">
        <ele>10</ele>
      </trkpt>
      <trkpt lat="50.9737" lon="4.70262">
        <ele>10</ele>
      </trkpt>
      <trkpt lat="50.97396" lon="4.70265">
        <ele>10</ele>
      </trkpt>
      <trkpt lat="50.97405" lon="4.70276">
        <ele>10</ele>
      </trkpt>
      <trkpt lat="50.97433" lon="4.70278">
        <ele>10</ele>
      </trkpt>
      <trkpt lat="50.97443" lon="4.70269">
        <ele>10</ele>
      </trkpt>
      <trkpt lat="50.97497" lon="4.70269">
        <ele>9</ele>
      </trkpt>
      <trkpt lat="50.97546" lon="4.70258">
        <ele>9</ele>
      </trkpt>
      <trkpt lat="50.97609" lon="4.70234">
        <ele>8</ele>
      </trkpt>
      <trkpt lat="50.97927" lon="4.70094">
        <ele>9</ele>
      </trkpt>
      <trkpt lat="50.97957" lon="4.70083">
        <ele>10</ele>
      </trkpt>
      <trkpt lat="50.98012" lon="4.70071">
        <ele>9</ele>
      </trkpt>
      <trkpt lat="50.98137" lon="4.70055">
        <ele>11</ele>
      </trkpt>
      <trkpt lat="50.9818" lon="4.70061">
        <ele>12</ele>
      </trkpt>
      <trkpt lat="50.98201" lon="4.70067">
        <ele>13</ele>
      </trkpt>
      <trkpt lat="50.98235" lon="4.70082">
        <ele>12</ele>
      </trkpt>
      <trkpt lat="50.98386" lon="4.70159">
        <ele>10</ele>
      </trkpt>
      <trkpt lat="50.98437" lon="4.70176">
        <ele>10</ele>
      </trkpt>
      <trkpt lat="50.9844" lon="4.70191">
        <ele>9</ele>
      </trkpt>
      <trkpt lat="50.98449" lon="4.70203">
        <ele>9</ele>
      </trkpt>
      <trkpt lat="50.98501" lon="4.70259">
        <ele>9</ele>
      </trkpt>
      <trkpt lat="50.98533" lon="4.70296">
        <ele>9</ele>
      </trkpt>
      <trkpt lat="50.98565" lon="4.70343">
        <ele>8</ele>
      </trkpt>
      <trkpt lat="50.9862" lon="4.70437">
        <ele>8</ele>
      </trkpt>
      <trkpt lat="50.98638" lon="4.7046">
        <ele>7</ele>
      </trkpt>
      <trkpt lat="50.98654" lon="4.70477">
        <ele>7</ele>
      </trkpt>
      <trkpt lat="50.98675" lon="4.70493">
        <ele>8</ele>
      </trkpt>
      <trkpt lat="50.98696" lon="4.70507">
        <ele>7</ele>
      </trkpt>
      <trkpt lat="50.98739" lon="4.70525">
        <ele>7</ele>
      </trkpt>
      <trkpt lat="50.9876" lon="4.70533">
        <ele>7</ele>
      </trkpt>
      <trkpt lat="50.9881" lon="4.70542">
        <ele>7</ele>
      </trkpt>
      <trkpt lat="50.98848" lon="4.70553">
        <ele>8</ele>
      </trkpt>
      <trkpt lat="50.98888" lon="4.70576">
        <ele>9</ele>
      </trkpt>
      <trkpt lat="50.98918" lon="4.70602">
        <ele>10</ele>
      </trkpt>
      <trkpt lat="50.9894" lon="4.70625">
        <ele>10</ele>
      </trkpt>
      <trkpt lat="50.98948" lon="4.70631">
        <ele>10</ele>
      </trkpt>
      <trkpt lat="50.98957" lon="4.70633">
        <ele>10</ele>
      </trkpt>
      <trkpt lat="50.98953" lon="4.70692">
        <ele>10</ele>
      </trkpt>
      <trkpt lat="50.98946" lon="4.7073">
        <ele>10</ele>
      </trkpt>
      <trkpt lat="50.98931" lon="4.70776">
        <ele>10</ele>
      </trkpt>
      <trkpt lat="50.98886" lon="4.70897">
        <ele>10</ele>
      </trkpt>
      <trkpt lat="50.9883" lon="4.71056">
        <ele>9</ele>
      </trkpt>
      <trkpt lat="50.98814" lon="4.71092">
        <ele>10</ele>
      </trkpt>
      <trkpt lat="50.98796" lon="4.7114">
        <ele>10</ele>
      </trkpt>
      <trkpt lat="50.98764" lon="4.71246">
        <ele>11</ele>
      </trkpt>
      <trkpt lat="50.98705" lon="4.71403">
        <ele>11</ele>
      </trkpt>
      <trkpt lat="50.98702" lon="4.71421">
        <ele>11</ele>
      </trkpt>
      <trkpt lat="50.98702" lon="4.71432">
        <ele>11</ele>
      </trkpt>
      <trkpt lat="50.98705" lon="4.71455">
        <ele>11</ele>
      </trkpt>
      <trkpt lat="50.98714" lon="4.71475">
        <ele>11</ele>
      </trkpt>
      <trkpt lat="50.98763" lon="4.71543">
        <ele>11</ele>
      </trkpt>
      <trkpt lat="50.9877" lon="4.71556">
        <ele>12</ele>
      </trkpt>
      <trkpt lat="50.98774" lon="4.71571">
        <ele>12</ele>
      </trkpt>
      <trkpt lat="50.98817" lon="4.71744">
        <ele>10</ele>
      </trkpt>
      <trkpt lat="50.98846" lon="4.71847">
        <ele>12</ele>
      </trkpt>
      <trkpt lat="50.98881" lon="4.72022">
        <ele>11</ele>
      </trkpt>
      <trkpt lat="50.98881" lon="4.72051">
        <ele>11</ele>
      </trkpt>
      <trkpt lat="50.98863" lon="4.7212">
        <ele>11</ele>
      </trkpt>
      <trkpt lat="50.98859" lon="4.7214">
        <ele>11</ele>
      </trkpt>
      <trkpt lat="50.98857" lon="4.72181">
        <ele>11</ele>
      </trkpt>
      <trkpt lat="50.98868" lon="4.72474">
        <ele>11</ele>
      </trkpt>
      <trkpt lat="50.98867" lon="4.72529">
        <ele>11</ele>
      </trkpt>
      <trkpt lat="50.98846" lon="4.72742">
        <ele>11</ele>
      </trkpt>
      <trkpt lat="50.98838" lon="4.72781">
        <ele>12</ele>
      </trkpt>
      <trkpt lat="50.98824" lon="4.72828">
        <ele>12</ele>
      </trkpt>
      <trkpt lat="50.98816" lon="4.72866">
        <ele>13</ele>
      </trkpt>
      <trkpt lat="50.98803" lon="4.72962">
        <ele>13</ele>
      </trkpt>
      <trkpt lat="50.98801" lon="4.72987">
        <ele>12</ele>
      </trkpt>
      <trkpt lat="50.98803" lon="4.73019">
        <ele>12</ele>
      </trkpt>
      <trkpt lat="50.98818" lon="4.7312">
        <ele>12</ele>
      </trkpt>
      <trkpt lat="50.9882" lon="4.73142">
        <ele>12</ele>
      </trkpt>
      <trkpt lat="50.9882" lon="4.73172">
        <ele>11</ele>
      </trkpt>
      <trkpt lat="50.98801" lon="4.73645">
        <ele>10</ele>
      </trkpt>
      <trkpt lat="50.98798" lon="4.7395">
        <ele>11</ele>
      </trkpt>
      <trkpt lat="50.98797" lon="4.74168">
        <ele>11</ele>
      </trkpt>
      <trkpt lat="50.98806" lon="4.74736">
        <ele>16</ele>
      </trkpt>
      <trkpt lat="50.98822" lon="4.75026">
        <ele>13</ele>
      </trkpt>
      <trkpt lat="50.98828" lon="4.75295">
        <ele>13</ele>
      </trkpt>
      <trkpt lat="50.98838" lon="4.75412">
        <ele>12</ele>
      </trkpt>
      <trkpt lat="50.98848" lon="4.75415">
        <ele>11</ele>
      </trkpt>
      <trkpt lat="50.99216" lon="4.75449">
        <ele>14</ele>
      </trkpt>
      <trkpt lat="50.99385" lon="4.75463">
        <ele>15</ele>
      </trkpt>
      <trkpt lat="50.99415" lon="4.75465">
        <ele>15</ele>
      </trkpt>
      <trkpt lat="50.99431" lon="4.75464">
        <ele>15</ele>
      </trkpt>
      <trkpt lat="50.99465" lon="4.75449">
        <ele>15</ele>
      </trkpt>
      <trkpt lat="50.99489" lon="4.75418">
        <ele>15</ele>
      </trkpt>
      <trkpt lat="50.99553" lon="4.75304">
        <ele>13</ele>
      </trkpt>
      <trkpt lat="50.99562" lon="4.75292">
        <ele>13</ele>
      </trkpt>
      <trkpt lat="50.99652" lon="4.75609">
        <ele>14</ele>
      </trkpt>
      <trkpt lat="50.99676" lon="4.75655">
        <ele>15</ele>
      </trkpt>
      <trkpt lat="50.99683" lon="4.75672">
        <ele>15</ele>
      </trkpt>
      <trkpt lat="50.99689" lon="4.7569">
        <ele>15</ele>
      </trkpt>
      <trkpt lat="50.99692" lon="4.75714">
        <ele>15</ele>
      </trkpt>
      <trkpt lat="50.99697" lon="4.758">
        <ele>15</ele>
      </trkpt>
      <trkpt lat="50.99699" lon="4.75816">
        <ele>15</ele>
      </trkpt>
      <trkpt lat="50.99702" lon="4.75828">
        <ele>15</ele>
      </trkpt>
      <trkpt lat="50.99727" lon="4.75877">
        <ele>16</ele>
      </trkpt>
      <trkpt lat="50.99757" lon="4.75924">
        <ele>16</ele>
      </trkpt>
      <trkpt lat="50.99792" lon="4.75971">
        <ele>17</ele>
      </trkpt>
      <trkpt lat="50.99812" lon="4.76005">
        <ele>18</ele>
      </trkpt>
      <trkpt lat="50.99827" lon="4.76035">
        <ele>18</ele>
      </trkpt>
      <trkpt lat="50.99837" lon="4.76059">
        <ele>18</ele>
      </trkpt>
      <trkpt lat="50.99849" lon="4.76095">
        <ele>19</ele>
      </trkpt>
      <trkpt lat="50.99903" lon="4.763">
        <ele>26</ele>
      </trkpt>
      <trkpt lat="50.99924" lon="4.76402">
        <ele>26</ele>
      </trkpt>
      <trkpt lat="50.99948" lon="4.76475">
        <ele>29</ele>
      </trkpt>
      <trkpt lat="51.00026" lon="4.76606">
        <ele>27</ele>
      </trkpt>
      <trkpt lat="51.0006" lon="4.76677">
        <ele>25</ele>
      </trkpt>
      <trkpt lat="51.00084" lon="4.76755">
        <ele>24</ele>
      </trkpt>
      <trkpt lat="51.00097" lon="4.76813">
        <ele>24</ele>
      </trkpt>
      <trkpt lat="51.00104" lon="4.76858">
        <ele>26</ele>
      </trkpt>
      <trkpt lat="51.0011" lon="4.76916">
        <ele>24</ele>
      </trkpt>
      <trkpt lat="51.00123" lon="4.77066">
        <ele>21</ele>
      </trkpt>
      <trkpt lat="51.00136" lon="4.77214">
        <ele>17</ele>
      </trkpt>
      <trkpt lat="51.00137" lon="4.77291">
        <ele>16</ele>
      </trkpt>
      <trkpt lat="51.00119" lon="4.77679">
        <ele>16</ele>
      </trkpt>
      <trkpt lat="51.00118" lon="4.77731">
        <ele>16</ele>
      </trkpt>
      <trkpt lat="51.00125" lon="4.77788">
        <ele>16</ele>
      </trkpt>
      <trkpt lat="51.0013" lon="4.77814">
        <ele>16</ele>
      </trkpt>
      <trkpt lat="51.00147" lon="4.77872">
        <ele>16</ele>
      </trkpt>
      <trkpt lat="51.00151" lon="4.7789">
        <ele>16</ele>
      </trkpt>
      <trkpt lat="51.00162" lon="4.77892">
        <ele>16</ele>
      </trkpt>
      <trkpt lat="51.00193" lon="4.7789">
        <ele>16</ele>
      </trkpt>
      <trkpt lat="51.00301" lon="4.77864">
        <ele>16</ele>
      </trkpt>
      <trkpt lat="51.00339" lon="4.77855">
        <ele>16</ele>
      </trkpt>
      <trkpt lat="51.00408" lon="4.77851">
        <ele>16</ele>
      </trkpt>
      <trkpt lat="51.00431" lon="4.77892">
        <ele>16</ele>
      </trkpt>
      <trkpt lat="51.00496" lon="4.78019">
        <ele>14</ele>
      </trkpt>
      <trkpt lat="51.00502" lon="4.78033">
        <ele>14</ele>
      </trkpt>
      <trkpt lat="51.00511" lon="4.78064">
        <ele>14</ele>
      </trkpt>
      <trkpt lat="51.00515" lon="4.78093">
        <ele>14</ele>
      </trkpt>
      <trkpt lat="51.00526" lon="4.78094">
        <ele>14</ele>
      </trkpt>
      <trkpt lat="51.00592" lon="4.78132">
        <ele>13</ele>
      </trkpt>
      <trkpt lat="51.00661" lon="4.78182">
        <ele>13</ele>
      </trkpt>
      <trkpt lat="51.00672" lon="4.78187">
        <ele>13</ele>
      </trkpt>
      <trkpt lat="51.00685" lon="4.78188">
        <ele>13</ele>
      </trkpt>
      <trkpt lat="51.00704" lon="4.78183">
        <ele>12</ele>
      </trkpt>
      <trkpt lat="51.0072" lon="4.7817">
        <ele>12</ele>
      </trkpt>
      <trkpt lat="51.00765" lon="4.78111">
        <ele>12</ele>
      </trkpt>
      <trkpt lat="51.00782" lon="4.78083">
        <ele>12</ele>
      </trkpt>
      <trkpt lat="51.00816" lon="4.78013">
        <ele>13</ele>
      </trkpt>
      <trkpt lat="51.00834" lon="4.77981">
        <ele>13</ele>
      </trkpt>
      <trkpt lat="51.00882" lon="4.77908">
        <ele>13</ele>
      </trkpt>
      <trkpt lat="51.01011" lon="4.77764">
        <ele>12</ele>
      </trkpt>
      <trkpt lat="51.01037" lon="4.7774">
        <ele>12</ele>
      </trkpt>
      <trkpt lat="51.01146" lon="4.7767">
        <ele>12</ele>
      </trkpt>
      <trkpt lat="51.01194" lon="4.77637">
        <ele>12</ele>
      </trkpt>
      <trkpt lat="51.01318" lon="4.77539">
        <ele>12</ele>
      </trkpt>
      <trkpt lat="51.01395" lon="4.775">
        <ele>12</ele>
      </trkpt>
      <trkpt lat="51.01415" lon="4.77487">
        <ele>12</ele>
      </trkpt>
      <trkpt lat="51.01494" lon="4.77428">
        <ele>12</ele>
      </trkpt>
      <trkpt lat="51.01538" lon="4.77421">
        <ele>12</ele>
      </trkpt>
      <trkpt lat="51.01608" lon="4.77365">
        <ele>12</ele>
      </trkpt>
      <trkpt lat="51.01618" lon="4.77351">
        <ele>12</ele>
      </trkpt>
      <trkpt lat="51.01728" lon="4.77128">
        <ele>12</ele>
      </trkpt>
      <trkpt lat="51.01759" lon="4.77063">
        <ele>11</ele>
      </trkpt>
      <trkpt lat="51.01767" lon="4.77032">
        <ele>11</ele>
      </trkpt>
      <trkpt lat="51.01774" lon="4.7698">
        <ele>11</ele>
      </trkpt>
      <trkpt lat="51.01778" lon="4.76964">
        <ele>11</ele>
      </trkpt>
      <trkpt lat="51.01786" lon="4.76942">
        <ele>11</ele>
      </trkpt>
      <trkpt lat="51.01794" lon="4.76928">
        <ele>11</ele>
      </trkpt>
      <trkpt lat="51.01809" lon="4.76909">
        <ele>11</ele>
      </trkpt>
      <trkpt lat="51.01893" lon="4.76836">
        <ele>12</ele>
      </trkpt>
      <trkpt lat="51.01886" lon="4.76842">
        <ele>12</ele>
      </trkpt>
      <trkpt lat="51.01927" lon="4.76804">
        <ele>12</ele>
      </trkpt>
      <trkpt lat="51.01943" lon="4.76782">
        <ele>12</ele>
      </trkpt>
      <trkpt lat="51.01955" lon="4.76752">
        <ele>12</ele>
      </trkpt>
      <trkpt lat="51.0196" lon="4.76719">
        <ele>12</ele>
      </trkpt>
      <trkpt lat="51.01959" lon="4.7656">
        <ele>12</ele>
      </trkpt>
      <trkpt lat="51.01961" lon="4.76521">
        <ele>12</ele>
      </trkpt>
      <trkpt lat="51.01977" lon="4.76416">
        <ele>13</ele>
      </trkpt>
      <trkpt lat="51.01979" lon="4.76376">
        <ele>13</ele>
      </trkpt>
      <trkpt lat="51.01969" lon="4.76264">
        <ele>12</ele>
      </trkpt>
      <trkpt lat="51.01967" lon="4.76092">
        <ele>11</ele>
      </trkpt>
      <trkpt lat="51.0205" lon="4.76035">
        <ele>12</ele>
      </trkpt>
      <trkpt lat="51.02134" lon="4.75973">
        <ele>13</ele>
      </trkpt>
      <trkpt lat="51.02268" lon="4.75858">
        <ele>13</ele>
      </trkpt>
      <trkpt lat="51.02292" lon="4.75842">
        <ele>12</ele>
      </trkpt>
      <trkpt lat="51.02306" lon="4.75832">
        <ele>12</ele>
      </trkpt>
      <trkpt lat="51.0232" lon="4.75828">
        <ele>12</ele>
      </trkpt>
      <trkpt lat="51.02329" lon="4.75829">
        <ele>12</ele>
      </trkpt>
      <trkpt lat="51.02342" lon="4.75836">
        <ele>12</ele>
      </trkpt>
      <trkpt lat="51.02378" lon="4.75865">
        <ele>11</ele>
      </trkpt>
      <trkpt lat="51.02417" lon="4.75925">
        <ele>11</ele>
      </trkpt>
      <trkpt lat="51.02438" lon="4.75942">
        <ele>11</ele>
      </trkpt>
      <trkpt lat="51.02431" lon="4.75951">
        <ele>11</ele>
      </trkpt>
      <trkpt lat="51.02414" lon="4.7603">
        <ele>12</ele>
      </trkpt>
      <trkpt lat="51.02408" lon="4.76071">
        <ele>12</ele>
      </trkpt>
      <trkpt lat="51.02406" lon="4.76107">
        <ele>12</ele>
      </trkpt>
      <trkpt lat="51.0242" lon="4.76365">
        <ele>13</ele>
      </trkpt>
      <trkpt lat="51.02421" lon="4.76503">
        <ele>13</ele>
      </trkpt>
      <trkpt lat="51.0242" lon="4.76586">
        <ele>13</ele>
      </trkpt>
      <trkpt lat="51.02424" lon="4.76669">
        <ele>12</ele>
      </trkpt>
      <trkpt lat="51.02431" lon="4.76734">
        <ele>12</ele>
      </trkpt>
      <trkpt lat="51.02461" lon="4.76921">
        <ele>13</ele>
      </trkpt>
      <trkpt lat="51.02496" lon="4.7714">
        <ele>13</ele>
      </trkpt>
      <trkpt lat="51.02507" lon="4.77193">
        <ele>12</ele>
      </trkpt>
      <trkpt lat="51.02514" lon="4.7722">
        <ele>12</ele>
      </trkpt>
      <trkpt lat="51.02515" lon="4.77227">
        <ele>12</ele>
      </trkpt>
      <trkpt lat="51.02515" lon="4.77234">
        <ele>12</ele>
      </trkpt>
      <trkpt lat="51.02511" lon="4.77241">
        <ele>13</ele>
      </trkpt>
      <trkpt lat="51.02468" lon="4.7731">
        <ele>14</ele>
      </trkpt>
      <trkpt lat="51.02457" lon="4.77324">
        <ele>14</ele>
      </trkpt>
      <trkpt lat="51.02432" lon="4.77362">
        <ele>16</ele>
      </trkpt>
      <trkpt lat="51.02336" lon="4.77507">
        <ele>17</ele>
      </trkpt>
      <trkpt lat="51.02315" lon="4.77539">
        <ele>16</ele>
      </trkpt>
      <trkpt lat="51.02201" lon="4.77706">
        <ele>16</ele>
      </trkpt>
      <trkpt lat="51.02196" lon="4.77717">
        <ele>16</ele>
      </trkpt>
      <trkpt lat="51.02196" lon="4.77726">
        <ele>16</ele>
      </trkpt>
      <trkpt lat="51.02173" lon="4.77767">
        <ele>13</ele>
      </trkpt>
      <trkpt lat="51.02152" lon="4.77806">
        <ele>13</ele>
      </trkpt>
      <trkpt lat="51.02085" lon="4.77959">
        <ele>11</ele>
      </trkpt>
      <trkpt lat="51.02071" lon="4.77986">
        <ele>11</ele>
      </trkpt>
      <trkpt lat="51.01997" lon="4.78106">
        <ele>12</ele>
      </trkpt>
      <trkpt lat="51.01904" lon="4.78233">
        <ele>12</ele>
      </trkpt>
      <trkpt lat="51.01891" lon="4.7825">
        <ele>12</ele>
      </trkpt>
      <trkpt lat="51.01881" lon="4.78259">
        <ele>12</ele>
      </trkpt>
      <trkpt lat="51.01873" lon="4.78257">
        <ele>12</ele>
      </trkpt>
      <trkpt lat="51.01873" lon="4.78268">
        <ele>12</ele>
      </trkpt>
      <trkpt lat="51.01869" lon="4.78276">
        <ele>12</ele>
      </trkpt>
      <trkpt lat="51.01777" lon="4.78375">
        <ele>13</ele>
      </trkpt>
      <trkpt lat="51.01772" lon="4.78389">
        <ele>13</ele>
      </trkpt>
      <trkpt lat="51.01773" lon="4.78397">
        <ele>13</ele>
      </trkpt>
      <trkpt lat="51.01817" lon="4.78519">
        <ele>13</ele>
      </trkpt>
      <trkpt lat="51.01805" lon="4.78529">
        <ele>13</ele>
      </trkpt>
      <trkpt lat="51.01802" lon="4.78533">
        <ele>13</ele>
      </trkpt>
      <trkpt lat="51.01801" lon="4.7854">
        <ele>13</ele>
      </trkpt>
      <trkpt lat="51.01811" lon="4.78598">
        <ele>13</ele>
      </trkpt>
      <trkpt lat="51.01822" lon="4.78729">
        <ele>12</ele>
      </trkpt>
      <trkpt lat="51.01824" lon="4.78772">
        <ele>13</ele>
      </trkpt>
      <trkpt lat="51.01823" lon="4.78786">
        <ele>13</ele>
      </trkpt>
      <trkpt lat="51.0182" lon="4.78795">
        <ele>13</ele>
      </trkpt>
      <trkpt lat="51.01812" lon="4.78805">
        <ele>13</ele>
      </trkpt>
      <trkpt lat="51.01802" lon="4.78824">
        <ele>13</ele>
      </trkpt>
      <trkpt lat="51.01744" lon="4.78983">
        <ele>13</ele>
      </trkpt>
      <trkpt lat="51.0174" lon="4.78999">
        <ele>13</ele>
      </trkpt>
      <trkpt lat="51.01741" lon="4.79011">
        <ele>13</ele>
      </trkpt>
      <trkpt lat="51.01745" lon="4.79021">
        <ele>13</ele>
      </trkpt>
      <trkpt lat="51.0187" lon="4.7919">
        <ele>12</ele>
      </trkpt>
      <trkpt lat="51.01893" lon="4.7923">
        <ele>12</ele>
      </trkpt>
      <trkpt lat="51.01917" lon="4.79277">
        <ele>12</ele>
      </trkpt>
      <trkpt lat="51.01923" lon="4.79284">
        <ele>12</ele>
      </trkpt>
      <trkpt lat="51.01902" lon="4.79393">
        <ele>12</ele>
      </trkpt>
      <trkpt lat="51.01897" lon="4.79409">
        <ele>12</ele>
      </trkpt>
      <trkpt lat="51.01891" lon="4.79423">
        <ele>12</ele>
      </trkpt>
      <trkpt lat="51.01827" lon="4.79533">
        <ele>13</ele>
      </trkpt>
      <trkpt lat="51.01722" lon="4.79679">
        <ele>13</ele>
      </trkpt>
      <trkpt lat="51.01685" lon="4.79727">
        <ele>12</ele>
      </trkpt>
      <trkpt lat="51.01647" lon="4.79771">
        <ele>12</ele>
      </trkpt>
      <trkpt lat="51.01476" lon="4.79958">
        <ele>11</ele>
      </trkpt>
      <trkpt lat="51.01461" lon="4.79977">
        <ele>11</ele>
      </trkpt>
      <trkpt lat="51.01434" lon="4.80023">
        <ele>11</ele>
      </trkpt>
      <trkpt lat="51.01395" lon="4.80089">
        <ele>12</ele>
      </trkpt>
      <trkpt lat="51.01376" lon="4.8013">
        <ele>12</ele>
      </trkpt>
      <trkpt lat="51.01371" lon="4.8015">
        <ele>12</ele>
      </trkpt>
      <trkpt lat="51.01366" lon="4.80195">
        <ele>13</ele>
      </trkpt>
      <trkpt lat="51.01364" lon="4.80254">
        <ele>13</ele>
      </trkpt>
      <trkpt lat="51.01364" lon="4.80361">
        <ele>13</ele>
      </trkpt>
      <trkpt lat="51.01227" lon="4.80381">
        <ele>12</ele>
      </trkpt>
      <trkpt lat="51.01205" lon="4.80382">
        <ele>12</ele>
      </trkpt>
      <trkpt lat="51.01186" lon="4.8038">
        <ele>12</ele>
      </trkpt>
      <trkpt lat="51.01077" lon="4.80324">
        <ele>13</ele>
      </trkpt>
      <trkpt lat="51.01012" lon="4.80291">
        <ele>13</ele>
      </trkpt>
      <trkpt lat="51.00983" lon="4.80282">
        <ele>13</ele>
      </trkpt>
      <trkpt lat="51.00826" lon="4.80244">
        <ele>12</ele>
      </trkpt>
      <trkpt lat="51.00824" lon="4.80222">
        <ele>12</ele>
      </trkpt>
      <trkpt lat="51.00796" lon="4.80114">
        <ele>12</ele>
      </trkpt>
      <trkpt lat="51.00754" lon="4.79961">
        <ele>12</ele>
      </trkpt>
      <trkpt lat="51.00722" lon="4.79826">
        <ele>12</ele>
      </trkpt>
      <trkpt lat="51.00707" lon="4.79755">
        <ele>12</ele>
      </trkpt>
      <trkpt lat="51.00686" lon="4.79654">
        <ele>12</ele>
      </trkpt>
      <trkpt lat="51.00678" lon="4.79591">
        <ele>12</ele>
      </trkpt>
      <trkpt lat="51.00675" lon="4.79545">
        <ele>12</ele>
      </trkpt>
      <trkpt lat="51.00679" lon="4.79436">
        <ele>13</ele>
      </trkpt>
      <trkpt lat="51.00636" lon="4.79427">
        <ele>13</ele>
      </trkpt>
      <trkpt lat="51.00589" lon="4.79439">
        <ele>14</ele>
      </trkpt>
      <trkpt lat="51.00511" lon="4.79423">
        <ele>15</ele>
      </trkpt>
      <trkpt lat="51.00415" lon="4.7941">
        <ele>17</ele>
      </trkpt>
      <trkpt lat="51.00243" lon="4.79401">
        <ele>19</ele>
      </trkpt>
      <trkpt lat="51.00192" lon="4.79395">
        <ele>19</ele>
      </trkpt>
      <trkpt lat="51.00176" lon="4.79393">
        <ele>19</ele>
      </trkpt>
      <trkpt lat="51.00029" lon="4.79395">
        <ele>18</ele>
      </trkpt>
      <trkpt lat="50.99962" lon="4.79388">
        <ele>19</ele>
      </trkpt>
      <trkpt lat="50.99811" lon="4.79381">
        <ele>21</ele>
      </trkpt>
      <trkpt lat="50.99654" lon="4.79386">
        <ele>23</ele>
      </trkpt>
      <trkpt lat="50.99629" lon="4.79385">
        <ele>23</ele>
      </trkpt>
      <trkpt lat="50.99546" lon="4.79375">
        <ele>24</ele>
      </trkpt>
      <trkpt lat="50.99482" lon="4.79363">
        <ele>24</ele>
      </trkpt>
      <trkpt lat="50.99457" lon="4.79362">
        <ele>24</ele>
      </trkpt>
      <trkpt lat="50.9942" lon="4.79364">
        <ele>23</ele>
      </trkpt>
      <trkpt lat="50.993" lon="4.79386">
        <ele>22</ele>
      </trkpt>
      <trkpt lat="50.99233" lon="4.79392">
        <ele>20</ele>
      </trkpt>
      <trkpt lat="50.99144" lon="4.79436">
        <ele>20</ele>
      </trkpt>
      <trkpt lat="50.99051" lon="4.79472">
        <ele>18</ele>
      </trkpt>
      <trkpt lat="50.98921" lon="4.79531">
        <ele>16</ele>
      </trkpt>
      <trkpt lat="50.98911" lon="4.79538">
        <ele>16</ele>
      </trkpt>
      <trkpt lat="50.98877" lon="4.79456">
        <ele>16</ele>
      </trkpt>
      <trkpt lat="50.98868" lon="4.79415">
        <ele>16</ele>
      </trkpt>
      <trkpt lat="50.98826" lon="4.79191">
        <ele>19</ele>
      </trkpt>
      <trkpt lat="50.9881" lon="4.7913">
        <ele>21</ele>
      </trkpt>
      <trkpt lat="50.98757" lon="4.78951">
        <ele>21</ele>
      </trkpt>
      <trkpt lat="50.98706" lon="4.78766">
        <ele>21</ele>
      </trkpt>
      <trkpt lat="50.987" lon="4.78733">
        <ele>20</ele>
      </trkpt>
      <trkpt lat="50.98666" lon="4.78267">
        <ele>20</ele>
      </trkpt>
      <trkpt lat="50.98672" lon="4.78249">
        <ele>20</ele>
      </trkpt>
      <trkpt lat="50.98669" lon="4.78214">
        <ele>20</ele>
      </trkpt>
      <trkpt lat="50.98661" lon="4.78199">
        <ele>19</ele>
      </trkpt>
      <trkpt lat="50.98659" lon="4.78182">
        <ele>19</ele>
      </trkpt>
      <trkpt lat="50.98661" lon="4.7818">
        <ele>20</ele>
      </trkpt>
      <trkpt lat="50.98663" lon="4.78172">
        <ele>20</ele>
      </trkpt>
      <trkpt lat="50.98661" lon="4.78165">
        <ele>20</ele>
      </trkpt>
      <trkpt lat="50.98657" lon="4.78163">
        <ele>19</ele>
      </trkpt>
      <trkpt lat="50.9865" lon="4.78062">
        <ele>19</ele>
      </trkpt>
      <trkpt lat="50.98642" lon="4.77972">
        <ele>18</ele>
      </trkpt>
      <trkpt lat="50.98632" lon="4.77908">
        <ele>17</ele>
      </trkpt>
      <trkpt lat="50.98603" lon="4.77752">
        <ele>15</ele>
      </trkpt>
      <trkpt lat="50.98601" lon="4.77734">
        <ele>15</ele>
      </trkpt>
      <trkpt lat="50.98593" lon="4.77737">
        <ele>13</ele>
      </trkpt>
      <trkpt lat="50.98587" lon="4.77744">
        <ele>13</ele>
      </trkpt>
      <trkpt lat="50.98558" lon="4.77798">
        <ele>14</ele>
      </trkpt>
      <trkpt lat="50.98536" lon="4.77828">
        <ele>14</ele>
      </trkpt>
      <trkpt lat="50.98513" lon="4.77848">
        <ele>13</ele>
      </trkpt>
      <trkpt lat="50.98475" lon="4.77869">
        <ele>13</ele>
      </trkpt>
      <trkpt lat="50.98462" lon="4.7788">
        <ele>13</ele>
      </trkpt>
      <trkpt lat="50.98454" lon="4.77888">
        <ele>13</ele>
      </trkpt>
      <trkpt lat="50.98443" lon="4.77905">
        <ele>13</ele>
      </trkpt>
      <trkpt lat="50.98437" lon="4.77926">
        <ele>14</ele>
      </trkpt>
      <trkpt lat="50.98428" lon="4.78058">
        <ele>14</ele>
      </trkpt>
      <trkpt lat="50.98428" lon="4.78075">
        <ele>14</ele>
      </trkpt>
      <trkpt lat="50.98437" lon="4.78148">
        <ele>17</ele>
      </trkpt>
      <trkpt lat="50.98438" lon="4.78159">
        <ele>17</ele>
      </trkpt>
      <trkpt lat="50.98436" lon="4.78169">
        <ele>17</ele>
      </trkpt>
      <trkpt lat="50.9843" lon="4.78176">
        <ele>15</ele>
      </trkpt>
      <trkpt lat="50.98321" lon="4.78193">
        <ele>12</ele>
      </trkpt>
      <trkpt lat="50.98304" lon="4.78194">
        <ele>12</ele>
      </trkpt>
      <trkpt lat="50.98273" lon="4.7819">
        <ele>12</ele>
      </trkpt>
      <trkpt lat="50.98172" lon="4.7815">
        <ele>10</ele>
      </trkpt>
      <trkpt lat="50.98124" lon="4.78142">
        <ele>9</ele>
      </trkpt>
      <trkpt lat="50.98101" lon="4.78142">
        <ele>9</ele>
      </trkpt>
      <trkpt lat="50.97939" lon="4.78164">
        <ele>10</ele>
      </trkpt>
      <trkpt lat="50.9788" lon="4.7817">
        <ele>12</ele>
      </trkpt>
      <trkpt lat="50.97848" lon="4.78169">
        <ele>13</ele>
      </trkpt>
      <trkpt lat="50.97726" lon="4.78153">
        <ele>13</ele>
      </trkpt>
      <trkpt lat="50.9764" lon="4.78135">
        <ele>11</ele>
      </trkpt>
      <trkpt lat="50.97169" lon="4.78006">
        <ele>14</ele>
      </trkpt>
      <trkpt lat="50.97154" lon="4.78002">
        <ele>14</ele>
      </trkpt>
      <trkpt lat="50.97154" lon="4.77992">
        <ele>14</ele>
      </trkpt>
      <trkpt lat="50.97151" lon="4.77984">
        <ele>14</ele>
      </trkpt>
      <trkpt lat="50.97425" lon="4.77489">
        <ele>14</ele>
      </trkpt>
      <trkpt lat="50.9744" lon="4.77452">
        <ele>12</ele>
      </trkpt>
      <trkpt lat="50.97447" lon="4.7743">
        <ele>12</ele>
      </trkpt>
      <trkpt lat="50.97457" lon="4.77381">
        <ele>11</ele>
      </trkpt>
      <trkpt lat="50.97462" lon="4.77332">
        <ele>11</ele>
      </trkpt>
      <trkpt lat="50.9746" lon="4.77281">
        <ele>11</ele>
      </trkpt>
      <trkpt lat="50.97455" lon="4.77243">
        <ele>11</ele>
      </trkpt>
      <trkpt lat="50.97421" lon="4.77073">
        <ele>12</ele>
      </trkpt>
      <trkpt lat="50.97349" lon="4.76709">
        <ele>13</ele>
      </trkpt>
      <trkpt lat="50.97041" lon="4.75162">
        <ele>13</ele>
      </trkpt>
      <trkpt lat="50.9696" lon="4.74758">
        <ele>12</ele>
      </trkpt>
      <trkpt lat="50.96922" lon="4.74616">
        <ele>13</ele>
      </trkpt>
      <trkpt lat="50.96856" lon="4.74398">
        <ele>17</ele>
      </trkpt>
      <trkpt lat="50.96842" lon="4.74358">
        <ele>20</ele>
      </trkpt>
      <trkpt lat="50.96823" lon="4.74317">
        <ele>19</ele>
      </trkpt>
      <trkpt lat="50.96597" lon="4.73931">
        <ele>14</ele>
      </trkpt>
      <trkpt lat="50.96592" lon="4.73935">
        <ele>14</ele>
      </trkpt>
      <trkpt lat="50.96585" lon="4.73937">
        <ele>15</ele>
      </trkpt>
      <trkpt lat="50.96489" lon="4.73917">
        <ele>15</ele>
      </trkpt>
      <trkpt lat="50.9636" lon="4.73858">
        <ele>14</ele>
      </trkpt>
      <trkpt lat="50.96188" lon="4.73807">
        <ele>14</ele>
      </trkpt>
      <trkpt lat="50.96172" lon="4.73804">
        <ele>14</ele>
      </trkpt>
      <trkpt lat="50.95952" lon="4.73813">
        <ele>14</ele>
      </trkpt>
      <trkpt lat="50.95895" lon="4.73819">
        <ele>13</ele>
      </trkpt>
      <trkpt lat="50.95883" lon="4.73791">
        <ele>12</ele>
      </trkpt>
      <trkpt lat="50.9587" lon="4.73767">
        <ele>13</ele>
      </trkpt>
      <trkpt lat="50.95771" lon="4.73596">
        <ele>11</ele>
      </trkpt>
      <trkpt lat="50.95752" lon="4.73556">
        <ele>11</ele>
      </trkpt>
      <trkpt lat="50.95652" lon="4.73231">
        <ele>12</ele>
      </trkpt>
      <trkpt lat="50.95635" lon="4.73154">
        <ele>13</ele>
      </trkpt>
      <trkpt lat="50.95629" lon="4.73102">
        <ele>13</ele>
      </trkpt>
      <trkpt lat="50.95628" lon="4.73062">
        <ele>14</ele>
      </trkpt>
      <trkpt lat="50.95633" lon="4.72863">
        <ele>13</ele>
      </trkpt>
      <trkpt lat="50.95634" lon="4.72818">
        <ele>12</ele>
      </trkpt>
      <trkpt lat="50.95633" lon="4.72784">
        <ele>12</ele>
      </trkpt>
      <trkpt lat="50.95625" lon="4.72732">
        <ele>12</ele>
      </trkpt>
      <trkpt lat="50.95552" lon="4.72426">
        <ele>12</ele>
      </trkpt>
      <trkpt lat="50.95522" lon="4.72262">
        <ele>11</ele>
      </trkpt>
      <trkpt lat="50.95503" lon="4.72162">
        <ele>11</ele>
      </trkpt>
      <trkpt lat="50.9545" lon="4.71869">
        <ele>11</ele>
      </trkpt>
      <trkpt lat="50.95429" lon="4.71785">
        <ele>12</ele>
      </trkpt>
      <trkpt lat="50.95401" lon="4.71685">
        <ele>12</ele>
      </trkpt>
      <trkpt lat="50.95394" lon="4.71663">
        <ele>12</ele>
      </trkpt>
      <trkpt lat="50.95381" lon="4.71632">
        <ele>12</ele>
      </trkpt>
      <trkpt lat="50.95347" lon="4.7157">
        <ele>12</ele>
      </trkpt>
      <trkpt lat="50.95324" lon="4.7154">
        <ele>12</ele>
      </trkpt>
      <trkpt lat="50.95282" lon="4.71493">
        <ele>12</ele>
      </trkpt>
      <trkpt lat="50.95193" lon="4.71386">
        <ele>13</ele>
      </trkpt>
      <trkpt lat="50.9513" lon="4.71303">
        <ele>14</ele>
      </trkpt>
      <trkpt lat="50.95059" lon="4.71199">
        <ele>14</ele>
      </trkpt>
      <trkpt lat="50.95036" lon="4.71171">
        <ele>14</ele>
      </trkpt>
      <trkpt lat="50.95022" lon="4.71154">
        <ele>14</ele>
      </trkpt>
      <trkpt lat="50.95014" lon="4.71146">
        <ele>14</ele>
      </trkpt>
      <trkpt lat="50.94937" lon="4.71002">
        <ele>13</ele>
      </trkpt>
      <trkpt lat="50.9492" lon="4.70968">
        <ele>12</ele>
      </trkpt>
      <trkpt lat="50.94906" lon="4.70931">
        <ele>12</ele>
      </trkpt>
      <trkpt lat="50.949" lon="4.70912">
        <ele>12</ele>
      </trkpt>
      <trkpt lat="50.9481" lon="4.70485">
        <ele>10</ele>
      </trkpt>
      <trkpt lat="50.94775" lon="4.70295">
        <ele>10</ele>
      </trkpt>
      <trkpt lat="50.94765" lon="4.70249">
        <ele>11</ele>
      </trkpt>
      <trkpt lat="50.94753" lon="4.70206">
        <ele>10</ele>
      </trkpt>
      <trkpt lat="50.94747" lon="4.70193">
        <ele>10</ele>
      </trkpt>
      <trkpt lat="50.94327" lon="4.69431">
        <ele>13</ele>
      </trkpt>
      <trkpt lat="50.943" lon="4.69399">
        <ele>13</ele>
      </trkpt>
      <trkpt lat="50.94277" lon="4.69377">
        <ele>13</ele>
      </trkpt>
      <trkpt lat="50.94244" lon="4.69356">
        <ele>13</ele>
      </trkpt>
      <trkpt lat="50.94175" lon="4.69318">
        <ele>13</ele>
      </trkpt>
      <trkpt lat="50.94158" lon="4.69318">
        <ele>13</ele>
      </trkpt>
      <trkpt lat="50.94135" lon="4.69322">
        <ele>13</ele>
      </trkpt>
      <trkpt lat="50.94095" lon="4.6933">
        <ele>13</ele>
      </trkpt>
      <trkpt lat="50.94067" lon="4.69346">
        <ele>12</ele>
      </trkpt>
      <trkpt lat="50.93921" lon="4.6943">
        <ele>12</ele>
      </trkpt>
      <trkpt lat="50.93799" lon="4.69491">
        <ele>13</ele>
      </trkpt>
      <trkpt lat="50.93772" lon="4.69514">
        <ele>13</ele>
      </trkpt>
      <trkpt lat="50.93712" lon="4.69577">
        <ele>13</ele>
      </trkpt>
      <trkpt lat="50.93591" lon="4.69697">
        <ele>15</ele>
      </trkpt>
      <trkpt lat="50.93583" lon="4.69703">
        <ele>15</ele>
      </trkpt>
      <trkpt lat="50.93508" lon="4.69735">
        <ele>15</ele>
      </trkpt>
      <trkpt lat="50.93479" lon="4.69745">
        <ele>14</ele>
      </trkpt>
      <trkpt lat="50.93381" lon="4.69758">
        <ele>15</ele>
      </trkpt>
      <trkpt lat="50.93367" lon="4.69753">
        <ele>15</ele>
      </trkpt>
      <trkpt lat="50.93336" lon="4.69737">
        <ele>15</ele>
      </trkpt>
      <trkpt lat="50.93297" lon="4.69736">
        <ele>15</ele>
      </trkpt>
      <trkpt lat="50.93056" lon="4.69709">
        <ele>16</ele>
      </trkpt>
      <trkpt lat="50.93046" lon="4.69708">
        <ele>16</ele>
      </trkpt>
      <trkpt lat="50.93046" lon="4.69701">
        <ele>16</ele>
      </trkpt>
      <trkpt lat="50.92975" lon="4.69684">
        <ele>16</ele>
      </trkpt>
      <trkpt lat="50.92964" lon="4.69682">
        <ele>16</ele>
      </trkpt>
      <trkpt lat="50.92959" lon="4.69684">
        <ele>16</ele>
      </trkpt>
      <trkpt lat="50.92953" lon="4.69681">
        <ele>16</ele>
      </trkpt>
      <trkpt lat="50.92942" lon="4.69675">
        <ele>16</ele>
      </trkpt>
      <trkpt lat="50.92932" lon="4.69676">
        <ele>16</ele>
      </trkpt>
      <trkpt lat="50.929" lon="4.69658">
        <ele>16</ele>
      </trkpt>
      <trkpt lat="50.92813" lon="4.69593">
        <ele>17</ele>
      </trkpt>
      <trkpt lat="50.92676" lon="4.69467">
        <ele>18</ele>
      </trkpt>
      <trkpt lat="50.92619" lon="4.6941">
        <ele>17</ele>
      </trkpt>
      <trkpt lat="50.92592" lon="4.69379">
        <ele>17</ele>
      </trkpt>
      <trkpt lat="50.92507" lon="4.69247">
        <ele>17</ele>
      </trkpt>
      <trkpt lat="50.92486" lon="4.69239">
        <ele>17</ele>
      </trkpt>
      <trkpt lat="50.92452" lon="4.69235">
        <ele>17</ele>
      </trkpt>
      <trkpt lat="50.92427" lon="4.69255">
        <ele>18</ele>
      </trkpt>
      <trkpt lat="50.92415" lon="4.69244">
        <ele>18</ele>
      </trkpt>
      <trkpt lat="50.92411" lon="4.69239">
        <ele>18</ele>
      </trkpt>
      <trkpt lat="50.92411" lon="4.69231">
        <ele>18</ele>
      </trkpt>
      <trkpt lat="50.92391" lon="4.69222">
        <ele>18</ele>
      </trkpt>
      <trkpt lat="50.92382" lon="4.69222">
        <ele>18</ele>
      </trkpt>
      <trkpt lat="50.92376" lon="4.69231">
        <ele>18</ele>
      </trkpt>
      <trkpt lat="50.9237" lon="4.6923">
        <ele>18</ele>
      </trkpt>
      <trkpt lat="50.92244" lon="4.69196">
        <ele>20</ele>
      </trkpt>
      <trkpt lat="50.92237" lon="4.69192">
        <ele>20</ele>
      </trkpt>
      <trkpt lat="50.9223" lon="4.69183">
        <ele>20</ele>
      </trkpt>
      <trkpt lat="50.92225" lon="4.69172">
        <ele>20</ele>
      </trkpt>
      <trkpt lat="50.92222" lon="4.6916">
        <ele>20</ele>
      </trkpt>
      <trkpt lat="50.92216" lon="4.6914">
        <ele>20</ele>
      </trkpt>
      <trkpt lat="50.92218" lon="4.69135">
        <ele>20</ele>
      </trkpt>
      <trkpt lat="50.92191" lon="4.69024">
        <ele>20</ele>
      </trkpt>
      <trkpt lat="50.92186" lon="4.69013">
        <ele>20</ele>
      </trkpt>
      <trkpt lat="50.92179" lon="4.69005">
        <ele>20</ele>
      </trkpt>
      <trkpt lat="50.92076" lon="4.68885">
        <ele>20</ele>
      </trkpt>
      <trkpt lat="50.91939" lon="4.68785">
        <ele>20</ele>
      </trkpt>
      <trkpt lat="50.91772" lon="4.68619">
        <ele>20</ele>
      </trkpt>
      <trkpt lat="50.91702" lon="4.68547">
        <ele>20</ele>
      </trkpt>
      <trkpt lat="50.91685" lon="4.68523">
        <ele>20</ele>
      </trkpt>
      <trkpt lat="50.91687" lon="4.68515">
        <ele>20</ele>
      </trkpt>
      <trkpt lat="50.91687" lon="4.68505">
        <ele>20</ele>
      </trkpt>
      <trkpt lat="50.91683" lon="4.68497">
        <ele>20</ele>
      </trkpt>
      <trkpt lat="50.91677" lon="4.68494">
        <ele>20</ele>
      </trkpt>
      <trkpt lat="50.91673" lon="4.68495">
        <ele>20</ele>
      </trkpt>
      <trkpt lat="50.91668" lon="4.68502">
        <ele>20</ele>
      </trkpt>
      <trkpt lat="50.91518" lon="4.68323">
        <ele>20</ele>
      </trkpt>
      <trkpt lat="50.91456" lon="4.6824">
        <ele>21</ele>
      </trkpt>
      <trkpt lat="50.91372" lon="4.68116">
        <ele>20</ele>
      </trkpt>
      <trkpt lat="50.91342" lon="4.68062">
        <ele>20</ele>
      </trkpt>
      <trkpt lat="50.91322" lon="4.68022">
        <ele>20</ele>
      </trkpt>
      <trkpt lat="50.91307" lon="4.6798">
        <ele>20</ele>
      </trkpt>
      <trkpt lat="50.91283" lon="4.67893">
        <ele>20</ele>
      </trkpt>
      <trkpt lat="50.91274" lon="4.67869">
        <ele>20</ele>
      </trkpt>
      <trkpt lat="50.91214" lon="4.67745">
        <ele>21</ele>
      </trkpt>
      <trkpt lat="50.91198" lon="4.67732">
        <ele>20</ele>
      </trkpt>
      <trkpt lat="50.90987" lon="4.67686">
        <ele>23</ele>
      </trkpt>
      <trkpt lat="50.90986" lon="4.67693">
        <ele>23</ele>
      </trkpt>
      <trkpt lat="50.90974" lon="4.67695">
        <ele>23</ele>
      </trkpt>
      <trkpt lat="50.90986" lon="4.67693">
        <ele>23</ele>
      </trkpt>
      <trkpt lat="50.90987" lon="4.67686">
        <ele>23</ele>
      </trkpt>
      <trkpt lat="50.9099" lon="4.67667">
        <ele>24</ele>
      </trkpt>
      <trkpt lat="50.90988" lon="4.67663">
        <ele>24</ele>
      </trkpt>
      <trkpt lat="50.90976" lon="4.67658">
        <ele>24</ele>
      </trkpt>
      <trkpt lat="50.90973" lon="4.67653">
        <ele>24</ele>
      </trkpt>
      <trkpt lat="50.90958" lon="4.67675">
        <ele>24</ele>
      </trkpt>
      <trkpt lat="50.90951" lon="4.67678">
        <ele>24</ele>
      </trkpt>
      <trkpt lat="50.90918" lon="4.6768">
        <ele>24</ele>
      </trkpt>
      <trkpt lat="50.90909" lon="4.67677">
        <ele>24</ele>
      </trkpt>
      <trkpt lat="50.90907" lon="4.6768">
        <ele>24</ele>
      </trkpt>
      <trkpt lat="50.90887" lon="4.67661">
        <ele>25</ele>
      </trkpt>
      <trkpt lat="50.9088" lon="4.67651">
        <ele>25</ele>
      </trkpt>
      <trkpt lat="50.90836" lon="4.67537">
        <ele>26</ele>
      </trkpt>
      <trkpt lat="50.90832" lon="4.67523">
        <ele>26</ele>
      </trkpt>
      <trkpt lat="50.90737" lon="4.67456">
        <ele>29</ele>
      </trkpt>
      <trkpt lat="50.90712" lon="4.67448">
        <ele>29</ele>
      </trkpt>
      <trkpt lat="50.90698" lon="4.67432">
        <ele>29</ele>
      </trkpt>
      <trkpt lat="50.90676" lon="4.67389">
        <ele>30</ele>
      </trkpt>
      <trkpt lat="50.90666" lon="4.6738">
        <ele>30</ele>
      </trkpt>
      <trkpt lat="50.90618" lon="4.67386">
        <ele>30</ele>
      </trkpt>
      <trkpt lat="50.90607" lon="4.67389">
        <ele>30</ele>
      </trkpt>
      <trkpt lat="50.90613" lon="4.67351">
        <ele>30</ele>
      </trkpt>
      <trkpt lat="50.90648" lon="4.67209">
        <ele>30</ele>
      </trkpt>
      <trkpt lat="50.90654" lon="4.6718">
        <ele>29</ele>
      </trkpt>
      <trkpt lat="50.90658" lon="4.67129">
        <ele>30</ele>
      </trkpt>
      <trkpt lat="50.9066" lon="4.67071">
        <ele>30</ele>
      </trkpt>
      <trkpt lat="50.9065" lon="4.66982">
        <ele>30</ele>
      </trkpt>
      <trkpt lat="50.9065" lon="4.6696">
        <ele>30</ele>
      </trkpt>
      <trkpt lat="50.90652" lon="4.6695">
        <ele>30</ele>
      </trkpt>
      <trkpt lat="50.90647" lon="4.66944">
        <ele>30</ele>
      </trkpt>
      <trkpt lat="50.90644" lon="4.66934">
        <ele>30</ele>
      </trkpt>
      <trkpt lat="50.90636" lon="4.66888">
        <ele>30</ele>
      </trkpt>
      <trkpt lat="50.90613" lon="4.66658">
        <ele>31</ele>
      </trkpt>
      <trkpt lat="50.906" lon="4.66552">
        <ele>32</ele>
      </trkpt>
      <trkpt lat="50.90575" lon="4.66444">
        <ele>34</ele>
      </trkpt>
      <trkpt lat="50.9056" lon="4.66387">
        <ele>34</ele>
      </trkpt>
      <trkpt lat="50.90481" lon="4.66134">
        <ele>32</ele>
      </trkpt>
      <trkpt lat="50.90465" lon="4.66076">
        <ele>31</ele>
      </trkpt>
      <trkpt lat="50.90435" lon="4.65933">
        <ele>30</ele>
      </trkpt>
      <trkpt lat="50.9041" lon="4.65804">
        <ele>30</ele>
      </trkpt>
      <trkpt lat="50.90413" lon="4.65667">
        <ele>29</ele>
      </trkpt>
      <trkpt lat="50.90416" lon="4.65546">
        <ele>28</ele>
      </trkpt>
      <trkpt lat="50.90414" lon="4.65481">
        <ele>29</ele>
      </trkpt>
      <trkpt lat="50.90407" lon="4.65432">
        <ele>29</ele>
      </trkpt>
      <trkpt lat="50.90376" lon="4.6527">
        <ele>29</ele>
      </trkpt>
      <trkpt lat="50.90375" lon="4.65184">
        <ele>29</ele>
      </trkpt>
      <trkpt lat="50.90376" lon="4.65121">
        <ele>29</ele>
      </trkpt>
      <trkpt lat="50.90374" lon="4.651">
        <ele>29</ele>
      </trkpt>
      <trkpt lat="50.9031" lon="4.64862">
        <ele>31</ele>
      </trkpt>
      <trkpt lat="50.90305" lon="4.64834">
        <ele>30</ele>
      </trkpt>
      <trkpt lat="50.90303" lon="4.64793">
        <ele>30</ele>
      </trkpt>
      <trkpt lat="50.90308" lon="4.64608">
        <ele>30</ele>
      </trkpt>
      <trkpt lat="50.90311" lon="4.64604">
        <ele>30</ele>
      </trkpt>
      <trkpt lat="50.90313" lon="4.64594">
        <ele>30</ele>
      </trkpt>
      <trkpt lat="50.90312" lon="4.64589">
        <ele>30</ele>
      </trkpt>
      <trkpt lat="50.90308" lon="4.64582">
        <ele>30</ele>
      </trkpt>
      <trkpt lat="50.90309" lon="4.64567">
        <ele>31</ele>
      </trkpt>
      <trkpt lat="50.90306" lon="4.64515">
        <ele>31</ele>
      </trkpt>
      <trkpt lat="50.90302" lon="4.64459">
        <ele>31</ele>
      </trkpt>
      <trkpt lat="50.90295" lon="4.64414">
        <ele>31</ele>
      </trkpt>
      <trkpt lat="50.90287" lon="4.64388">
        <ele>31</ele>
      </trkpt>
      <trkpt lat="50.9026" lon="4.64315">
        <ele>30</ele>
      </trkpt>
      <trkpt lat="50.9023" lon="4.64209">
        <ele>30</ele>
      </trkpt>
      <trkpt lat="50.90222" lon="4.64174">
        <ele>30</ele>
      </trkpt>
      <trkpt lat="50.90215" lon="4.64136">
        <ele>30</ele>
      </trkpt>
      <trkpt lat="50.90205" lon="4.63963">
        <ele>30</ele>
      </trkpt>
      <trkpt lat="50.90199" lon="4.63897">
        <ele>29</ele>
      </trkpt>
      <trkpt lat="50.90188" lon="4.63835">
        <ele>29</ele>
      </trkpt>
      <trkpt lat="50.90089" lon="4.63506">
        <ele>30</ele>
      </trkpt>
      <trkpt lat="50.90084" lon="4.63485">
        <ele>30</ele>
      </trkpt>
      <trkpt lat="50.90078" lon="4.63456">
        <ele>30</ele>
      </trkpt>
      <trkpt lat="50.90073" lon="4.63424">
        <ele>30</ele>
      </trkpt>
      <trkpt lat="50.90057" lon="4.6321">
        <ele>32</ele>
      </trkpt>
      <trkpt lat="50.90161" lon="4.62718">
        <ele>30</ele>
      </trkpt>
      <trkpt lat="50.90171" lon="4.6266">
        <ele>30</ele>
      </trkpt>
      <trkpt lat="50.90171" lon="4.62646">
        <ele>31</ele>
      </trkpt>
      <trkpt lat="50.90169" lon="4.62634">
        <ele>31</ele>
      </trkpt>
      <trkpt lat="50.90172" lon="4.62619">
        <ele>31</ele>
      </trkpt>
      <trkpt lat="50.90166" lon="4.62542">
        <ele>31</ele>
      </trkpt>
      <trkpt lat="50.90163" lon="4.62533">
        <ele>31</ele>
      </trkpt>
      <trkpt lat="50.90152" lon="4.62418">
        <ele>30</ele>
      </trkpt>
      <trkpt lat="50.90152" lon="4.62407">
        <ele>30</ele>
      </trkpt>
      <trkpt lat="50.90146" lon="4.62381">
        <ele>30</ele>
      </trkpt>
      <trkpt lat="50.90141" lon="4.62375">
        <ele>31</ele>
      </trkpt>
      <trkpt lat="50.90137" lon="4.62356">
        <ele>30</ele>
      </trkpt>
      <trkpt lat="50.90134" lon="4.62334">
        <ele>30</ele>
      </trkpt>
      <trkpt lat="50.90123" lon="4.62295">
        <ele>30</ele>
      </trkpt>
      <trkpt lat="50.90122" lon="4.62287">
        <ele>30</ele>
      </trkpt>
      <trkpt lat="50.90126" lon="4.62264">
        <ele>30</ele>
      </trkpt>
      <trkpt lat="50.90119" lon="4.62249">
        <ele>30</ele>
      </trkpt>
      <trkpt lat="50.90116" lon="4.62233">
        <ele>30</ele>
      </trkpt>
      <trkpt lat="50.90083" lon="4.6201">
        <ele>30</ele>
      </trkpt>
      <trkpt lat="50.90061" lon="4.61899">
        <ele>30</ele>
      </trkpt>
      <trkpt lat="50.90038" lon="4.618">
        <ele>30</ele>
      </trkpt>
      <trkpt lat="50.90039" lon="4.61782">
        <ele>30</ele>
      </trkpt>
      <trkpt lat="50.90033" lon="4.61753">
        <ele>30</ele>
      </trkpt>
      <trkpt lat="50.90022" lon="4.61728">
        <ele>31</ele>
      </trkpt>
      <trkpt lat="50.90006" lon="4.61701">
        <ele>31</ele>
      </trkpt>
      <trkpt lat="50.90005" lon="4.61695">
        <ele>31</ele>
      </trkpt>
      <trkpt lat="50.90008" lon="4.61673">
        <ele>31</ele>
      </trkpt>
      <trkpt lat="50.90004" lon="4.61671">
        <ele>31</ele>
      </trkpt>
      <trkpt lat="50.9" lon="4.61668">
        <ele>31</ele>
      </trkpt>
      <trkpt lat="50.89998" lon="4.61678">
        <ele>31</ele>
      </trkpt>
      <trkpt lat="50.89995" lon="4.61686">
        <ele>31</ele>
      </trkpt>
      <trkpt lat="50.89989" lon="4.61689">
        <ele>31</ele>
      </trkpt>
      <trkpt lat="50.89984" lon="4.61687">
        <ele>31</ele>
      </trkpt>
      <trkpt lat="50.89898" lon="4.61651">
        <ele>31</ele>
      </trkpt>
      <trkpt lat="50.89873" lon="4.61635">
        <ele>31</ele>
      </trkpt>
      <trkpt lat="50.89871" lon="4.6164">
        <ele>31</ele>
      </trkpt>
      <trkpt lat="50.89862" lon="4.6163">
        <ele>31</ele>
      </trkpt>
      <trkpt lat="50.89853" lon="4.61616">
        <ele>31</ele>
      </trkpt>
      <trkpt lat="50.89845" lon="4.61597">
        <ele>32</ele>
      </trkpt>
      <trkpt lat="50.89744" lon="4.61323">
        <ele>32</ele>
      </trkpt>
      <trkpt lat="50.89649" lon="4.61116">
        <ele>33</ele>
      </trkpt>
      <trkpt lat="50.89602" lon="4.61049">
        <ele>33</ele>
      </trkpt>
      <trkpt lat="50.89556" lon="4.60997">
        <ele>34</ele>
      </trkpt>
      <trkpt lat="50.8911" lon="4.60475">
        <ele>35</ele>
      </trkpt>
      <trkpt lat="50.89097" lon="4.60458">
        <ele>36</ele>
      </trkpt>
      <trkpt lat="50.88998" lon="4.60338">
        <ele>36</ele>
      </trkpt>
      <trkpt lat="50.88606" lon="4.59804">
        <ele>39</ele>
      </trkpt>
      <trkpt lat="50.88586" lon="4.59767">
        <ele>39</ele>
      </trkpt>
      <trkpt lat="50.88564" lon="4.59719">
        <ele>39</ele>
      </trkpt>
      <trkpt lat="50.88548" lon="4.59699">
        <ele>39</ele>
      </trkpt>
      <trkpt lat="50.88528" lon="4.59687">
        <ele>39</ele>
      </trkpt>
      <trkpt lat="50.88511" lon="4.59672">
        <ele>39</ele>
      </trkpt>
      <trkpt lat="50.88413" lon="4.59503">
        <ele>38</ele>
      </trkpt>
      <trkpt lat="50.88298" lon="4.59299">
        <ele>37</ele>
      </trkpt>
      <trkpt lat="50.8829" lon="4.5928">
        <ele>37</ele>
      </trkpt>
      <trkpt lat="50.88276" lon="4.59233">
        <ele>38</ele>
      </trkpt>
      <trkpt lat="50.88271" lon="4.59193">
        <ele>38</ele>
      </trkpt>
      <trkpt lat="50.88267" lon="4.59131">
        <ele>38</ele>
      </trkpt>
      <trkpt lat="50.8826" lon="4.5908">
        <ele>39</ele>
      </trkpt>
      <trkpt lat="50.88254" lon="4.59057">
        <ele>40</ele>
      </trkpt>
      <trkpt lat="50.88237" lon="4.59015">
        <ele>40</ele>
      </trkpt>
      <trkpt lat="50.88142" lon="4.58848">
        <ele>44</ele>
      </trkpt>
      <trkpt lat="50.88022" lon="4.58613">
        <ele>43</ele>
      </trkpt>
      <trkpt lat="50.88133" lon="4.58482">
        <ele>40</ele>
      </trkpt>
      <trkpt lat="50.88178" lon="4.58421">
        <ele>39</ele>
      </trkpt>
      <trkpt lat="50.88212" lon="4.58367">
        <ele>38</ele>
      </trkpt>
      <trkpt lat="50.88309" lon="4.58195">
        <ele>40</ele>
      </trkpt>
      <trkpt lat="50.8826" lon="4.58019">
        <ele>37</ele>
      </trkpt>
      <trkpt lat="50.88194" lon="4.57805">
        <ele>37</ele>
      </trkpt>
      <trkpt lat="50.88125" lon="4.57644">
        <ele>40</ele>
      </trkpt>
      <trkpt lat="50.8809" lon="4.5758">
        <ele>41</ele>
      </trkpt>
      <trkpt lat="50.88015" lon="4.57443">
        <ele>42</ele>
      </trkpt>
      <trkpt lat="50.8799" lon="4.57392">
        <ele>44</ele>
      </trkpt>
      <trkpt lat="50.87931" lon="4.57211">
        <ele>47</ele>
      </trkpt>
      <trkpt lat="50.87903" lon="4.5716">
        <ele>48</ele>
      </trkpt>
      <trkpt lat="50.87882" lon="4.57121">
        <ele>48</ele>
      </trkpt>
      <trkpt lat="50.87899" lon="4.57089">
        <ele>49</ele>
      </trkpt>
      <trkpt lat="50.8792" lon="4.57054">
        <ele>49</ele>
      </trkpt>
      <trkpt lat="50.87911" lon="4.56987">
        <ele>48</ele>
      </trkpt>
      <trkpt lat="50.87914" lon="4.56977">
        <ele>48</ele>
      </trkpt>
      <trkpt lat="50.87954" lon="4.56903">
        <ele>46</ele>
      </trkpt>
      <trkpt lat="50.88014" lon="4.56811">
        <ele>46</ele>
      </trkpt>
      <trkpt lat="50.8802" lon="4.56788">
        <ele>46</ele>
      </trkpt>
      <trkpt lat="50.88017" lon="4.56744">
        <ele>46</ele>
      </trkpt>
      <trkpt lat="50.88012" lon="4.56689">
        <ele>46</ele>
      </trkpt>
      <trkpt lat="50.88013" lon="4.5667">
        <ele>46</ele>
      </trkpt>
      <trkpt lat="50.88012" lon="4.56647">
        <ele>46</ele>
      </trkpt>
      <trkpt lat="50.88018" lon="4.56641">
        <ele>48</ele>
      </trkpt>
      <trkpt lat="50.8802" lon="4.56633">
        <ele>48</ele>
      </trkpt>
      <trkpt lat="50.88016" lon="4.56621">
        <ele>48</ele>
      </trkpt>
      <trkpt lat="50.88009" lon="4.56619">
        <ele>46</ele>
      </trkpt>
      <trkpt lat="50.88005" lon="4.56437">
        <ele>49</ele>
      </trkpt>
      <trkpt lat="50.88007" lon="4.56408">
        <ele>51</ele>
      </trkpt>
      <trkpt lat="50.88048" lon="4.56195">
        <ele>59</ele>
      </trkpt>
      <trkpt lat="50.88051" lon="4.56137">
        <ele>59</ele>
      </trkpt>
      <trkpt lat="50.88046" lon="4.5608">
        <ele>59</ele>
      </trkpt>
      <trkpt lat="50.87985" lon="4.55718">
        <ele>55</ele>
      </trkpt>
      <trkpt lat="50.87936" lon="4.5553">
        <ele>54</ele>
      </trkpt>
      <trkpt lat="50.87926" lon="4.5547">
        <ele>51</ele>
      </trkpt>
      <trkpt lat="50.8788" lon="4.55086">
        <ele>55</ele>
      </trkpt>
      <trkpt lat="50.87873" lon="4.55045">
        <ele>57</ele>
      </trkpt>
    </trkseg>
  </trk>
</gpx>
