<?xml version="1.0" encoding="UTF-8"?>
<gpx xmlns="http://www.topografix.com/GPX/1/1" creator="RouteYou" version="1.1" xmlns:xsi="http://www.w3.org/2001/XMLSchema-instance" xsi:schemaLocation="http://www.topografix.com/GPX/1/1 http://www.topografix.com/GPX/1/1/gpx.xsd">
  <trk>
    <name>Genval 2025</name>
    <desc></desc>
    <trkseg>
      <trkpt lat="50.87889" lon="4.55141">
        <ele>54</ele>
      </trkpt>
      <trkpt lat="50.87886" lon="4.55141">
        <ele>54</ele>
      </trkpt>
      <trkpt lat="50.87926" lon="4.5547">
        <ele>51</ele>
      </trkpt>
      <trkpt lat="50.87933" lon="4.55516">
        <ele>54</ele>
      </trkpt>
      <trkpt lat="50.87985" lon="4.55718">
        <ele>55</ele>
      </trkpt>
      <trkpt lat="50.88046" lon="4.5608">
        <ele>59</ele>
      </trkpt>
      <trkpt lat="50.88051" lon="4.56157">
        <ele>59</ele>
      </trkpt>
      <trkpt lat="50.88048" lon="4.56195">
        <ele>59</ele>
      </trkpt>
      <trkpt lat="50.88009" lon="4.56401">
        <ele>51</ele>
      </trkpt>
      <trkpt lat="50.88006" lon="4.56426">
        <ele>50</ele>
      </trkpt>
      <trkpt lat="50.88008" lon="4.56566">
        <ele>47</ele>
      </trkpt>
      <trkpt lat="50.88009" lon="4.56619">
        <ele>46</ele>
      </trkpt>
      <trkpt lat="50.88004" lon="4.56625">
        <ele>46</ele>
      </trkpt>
      <trkpt lat="50.88002" lon="4.56636">
        <ele>46</ele>
      </trkpt>
      <trkpt lat="50.87886" lon="4.567">
        <ele>46</ele>
      </trkpt>
      <trkpt lat="50.87784" lon="4.56786">
        <ele>50</ele>
      </trkpt>
      <trkpt lat="50.87767" lon="4.56795">
        <ele>51</ele>
      </trkpt>
      <trkpt lat="50.87739" lon="4.5681">
        <ele>53</ele>
      </trkpt>
      <trkpt lat="50.87734" lon="4.56801">
        <ele>53</ele>
      </trkpt>
      <trkpt lat="50.8773" lon="4.568">
        <ele>53</ele>
      </trkpt>
      <trkpt lat="50.87725" lon="4.56802">
        <ele>53</ele>
      </trkpt>
      <trkpt lat="50.8772" lon="4.56811">
        <ele>53</ele>
      </trkpt>
      <trkpt lat="50.87719" lon="4.56816">
        <ele>53</ele>
      </trkpt>
      <trkpt lat="50.87706" lon="4.56815">
        <ele>54</ele>
      </trkpt>
      <trkpt lat="50.87662" lon="4.56822">
        <ele>55</ele>
      </trkpt>
      <trkpt lat="50.87598" lon="4.5685">
        <ele>56</ele>
      </trkpt>
      <trkpt lat="50.87515" lon="4.56865">
        <ele>57</ele>
      </trkpt>
      <trkpt lat="50.87479" lon="4.56875">
        <ele>57</ele>
      </trkpt>
      <trkpt lat="50.87461" lon="4.56871">
        <ele>57</ele>
      </trkpt>
      <trkpt lat="50.87387" lon="4.56838">
        <ele>57</ele>
      </trkpt>
      <trkpt lat="50.87369" lon="4.56827">
        <ele>57</ele>
      </trkpt>
      <trkpt lat="50.87352" lon="4.56811">
        <ele>58</ele>
      </trkpt>
      <trkpt lat="50.87336" lon="4.56785">
        <ele>59</ele>
      </trkpt>
      <trkpt lat="50.87327" lon="4.56763">
        <ele>59</ele>
      </trkpt>
      <trkpt lat="50.87317" lon="4.56718">
        <ele>59</ele>
      </trkpt>
      <trkpt lat="50.87299" lon="4.56596">
        <ele>59</ele>
      </trkpt>
      <trkpt lat="50.87288" lon="4.56564">
        <ele>59</ele>
      </trkpt>
      <trkpt lat="50.87279" lon="4.56547">
        <ele>59</ele>
      </trkpt>
      <trkpt lat="50.87265" lon="4.56538">
        <ele>59</ele>
      </trkpt>
      <trkpt lat="50.87118" lon="4.56472">
        <ele>65</ele>
      </trkpt>
      <trkpt lat="50.871" lon="4.56461">
        <ele>65</ele>
      </trkpt>
      <trkpt lat="50.87067" lon="4.56437">
        <ele>64</ele>
      </trkpt>
      <trkpt lat="50.87054" lon="4.56424">
        <ele>64</ele>
      </trkpt>
      <trkpt lat="50.86981" lon="4.56337">
        <ele>66</ele>
      </trkpt>
      <trkpt lat="50.86932" lon="4.56278">
        <ele>68</ele>
      </trkpt>
      <trkpt lat="50.86896" lon="4.5624">
        <ele>69</ele>
      </trkpt>
      <trkpt lat="50.86653" lon="4.5604">
        <ele>80</ele>
      </trkpt>
      <trkpt lat="50.86631" lon="4.56017">
        <ele>81</ele>
      </trkpt>
      <trkpt lat="50.8657" lon="4.55939">
        <ele>92</ele>
      </trkpt>
      <trkpt lat="50.86544" lon="4.5591">
        <ele>93</ele>
      </trkpt>
      <trkpt lat="50.86369" lon="4.55744">
        <ele>99</ele>
      </trkpt>
      <trkpt lat="50.86341" lon="4.55723">
        <ele>101</ele>
      </trkpt>
      <trkpt lat="50.86323" lon="4.55715">
        <ele>101</ele>
      </trkpt>
      <trkpt lat="50.86105" lon="4.5569">
        <ele>98</ele>
      </trkpt>
      <trkpt lat="50.86087" lon="4.55684">
        <ele>98</ele>
      </trkpt>
      <trkpt lat="50.86076" lon="4.55677">
        <ele>98</ele>
      </trkpt>
      <trkpt lat="50.86066" lon="4.55665">
        <ele>98</ele>
      </trkpt>
      <trkpt lat="50.86043" lon="4.55629">
        <ele>99</ele>
      </trkpt>
      <trkpt lat="50.85952" lon="4.55451">
        <ele>97</ele>
      </trkpt>
      <trkpt lat="50.85924" lon="4.55405">
        <ele>98</ele>
      </trkpt>
      <trkpt lat="50.85846" lon="4.55298">
        <ele>99</ele>
      </trkpt>
      <trkpt lat="50.85811" lon="4.55256">
        <ele>100</ele>
      </trkpt>
      <trkpt lat="50.8578" lon="4.55233">
        <ele>100</ele>
      </trkpt>
      <trkpt lat="50.85765" lon="4.55227">
        <ele>100</ele>
      </trkpt>
      <trkpt lat="50.85733" lon="4.55221">
        <ele>100</ele>
      </trkpt>
      <trkpt lat="50.85589" lon="4.55223">
        <ele>97</ele>
      </trkpt>
      <trkpt lat="50.85589" lon="4.55179">
        <ele>97</ele>
      </trkpt>
      <trkpt lat="50.85585" lon="4.55157">
        <ele>97</ele>
      </trkpt>
      <trkpt lat="50.8558" lon="4.55132">
        <ele>97</ele>
      </trkpt>
      <trkpt lat="50.85579" lon="4.5511">
        <ele>97</ele>
      </trkpt>
      <trkpt lat="50.8558" lon="4.551">
        <ele>97</ele>
      </trkpt>
      <trkpt lat="50.85613" lon="4.5502">
        <ele>97</ele>
      </trkpt>
      <trkpt lat="50.85615" lon="4.55011">
        <ele>97</ele>
      </trkpt>
      <trkpt lat="50.85616" lon="4.54999">
        <ele>97</ele>
      </trkpt>
      <trkpt lat="50.85614" lon="4.54986">
        <ele>96</ele>
      </trkpt>
      <trkpt lat="50.85498" lon="4.54695">
        <ele>97</ele>
      </trkpt>
      <trkpt lat="50.85478" lon="4.54641">
        <ele>97</ele>
      </trkpt>
      <trkpt lat="50.85239" lon="4.54067">
        <ele>95</ele>
      </trkpt>
      <trkpt lat="50.85206" lon="4.5399">
        <ele>93</ele>
      </trkpt>
      <trkpt lat="50.85155" lon="4.53991">
        <ele>95</ele>
      </trkpt>
      <trkpt lat="50.84982" lon="4.53978">
        <ele>95</ele>
      </trkpt>
      <trkpt lat="50.84971" lon="4.53972">
        <ele>95</ele>
      </trkpt>
      <trkpt lat="50.84823" lon="4.53841">
        <ele>94</ele>
      </trkpt>
      <trkpt lat="50.84785" lon="4.53819">
        <ele>93</ele>
      </trkpt>
      <trkpt lat="50.84768" lon="4.53814">
        <ele>93</ele>
      </trkpt>
      <trkpt lat="50.84724" lon="4.53812">
        <ele>92</ele>
      </trkpt>
      <trkpt lat="50.84681" lon="4.53802">
        <ele>91</ele>
      </trkpt>
      <trkpt lat="50.84651" lon="4.53792">
        <ele>89</ele>
      </trkpt>
      <trkpt lat="50.84598" lon="4.53765">
        <ele>89</ele>
      </trkpt>
      <trkpt lat="50.84559" lon="4.53737">
        <ele>87</ele>
      </trkpt>
      <trkpt lat="50.84444" lon="4.53639">
        <ele>83</ele>
      </trkpt>
      <trkpt lat="50.84412" lon="4.53616">
        <ele>83</ele>
      </trkpt>
      <trkpt lat="50.84348" lon="4.5358">
        <ele>83</ele>
      </trkpt>
      <trkpt lat="50.8433" lon="4.53573">
        <ele>82</ele>
      </trkpt>
      <trkpt lat="50.84314" lon="4.53572">
        <ele>82</ele>
      </trkpt>
      <trkpt lat="50.84298" lon="4.53575">
        <ele>82</ele>
      </trkpt>
      <trkpt lat="50.84276" lon="4.53587">
        <ele>84</ele>
      </trkpt>
      <trkpt lat="50.83963" lon="4.5387">
        <ele>73</ele>
      </trkpt>
      <trkpt lat="50.83892" lon="4.53932">
        <ele>73</ele>
      </trkpt>
      <trkpt lat="50.83827" lon="4.5397">
        <ele>73</ele>
      </trkpt>
      <trkpt lat="50.8363" lon="4.54045">
        <ele>77</ele>
      </trkpt>
      <trkpt lat="50.83631" lon="4.54052">
        <ele>77</ele>
      </trkpt>
      <trkpt lat="50.83683" lon="4.54349">
        <ele>84</ele>
      </trkpt>
      <trkpt lat="50.83686" lon="4.54377">
        <ele>84</ele>
      </trkpt>
      <trkpt lat="50.83686" lon="4.54407">
        <ele>84</ele>
      </trkpt>
      <trkpt lat="50.83684" lon="4.54428">
        <ele>84</ele>
      </trkpt>
      <trkpt lat="50.83681" lon="4.54452">
        <ele>84</ele>
      </trkpt>
      <trkpt lat="50.83675" lon="4.54476">
        <ele>85</ele>
      </trkpt>
      <trkpt lat="50.83666" lon="4.54502">
        <ele>84</ele>
      </trkpt>
      <trkpt lat="50.83658" lon="4.54518">
        <ele>84</ele>
      </trkpt>
      <trkpt lat="50.83655" lon="4.54534">
        <ele>84</ele>
      </trkpt>
      <trkpt lat="50.83655" lon="4.54545">
        <ele>84</ele>
      </trkpt>
      <trkpt lat="50.83658" lon="4.54569">
        <ele>83</ele>
      </trkpt>
      <trkpt lat="50.83663" lon="4.54601">
        <ele>82</ele>
      </trkpt>
      <trkpt lat="50.83667" lon="4.54616">
        <ele>82</ele>
      </trkpt>
      <trkpt lat="50.83674" lon="4.5462">
        <ele>82</ele>
      </trkpt>
      <trkpt lat="50.83666" lon="4.54699">
        <ele>80</ele>
      </trkpt>
      <trkpt lat="50.83656" lon="4.54966">
        <ele>75</ele>
      </trkpt>
      <trkpt lat="50.83592" lon="4.55291">
        <ele>72</ele>
      </trkpt>
      <trkpt lat="50.83542" lon="4.55586">
        <ele>64</ele>
      </trkpt>
      <trkpt lat="50.8353" lon="4.55617">
        <ele>64</ele>
      </trkpt>
      <trkpt lat="50.83524" lon="4.55629">
        <ele>64</ele>
      </trkpt>
      <trkpt lat="50.83458" lon="4.55726">
        <ele>61</ele>
      </trkpt>
      <trkpt lat="50.83447" lon="4.55734">
        <ele>61</ele>
      </trkpt>
      <trkpt lat="50.83314" lon="4.55787">
        <ele>55</ele>
      </trkpt>
      <trkpt lat="50.83284" lon="4.55807">
        <ele>56</ele>
      </trkpt>
      <trkpt lat="50.83243" lon="4.55853">
        <ele>59</ele>
      </trkpt>
      <trkpt lat="50.83238" lon="4.55849">
        <ele>59</ele>
      </trkpt>
      <trkpt lat="50.83233" lon="4.5585">
        <ele>59</ele>
      </trkpt>
      <trkpt lat="50.8323" lon="4.55856">
        <ele>59</ele>
      </trkpt>
      <trkpt lat="50.83217" lon="4.55848">
        <ele>59</ele>
      </trkpt>
      <trkpt lat="50.83208" lon="4.55832">
        <ele>59</ele>
      </trkpt>
      <trkpt lat="50.83201" lon="4.55809">
        <ele>59</ele>
      </trkpt>
      <trkpt lat="50.83191" lon="4.55767">
        <ele>59</ele>
      </trkpt>
      <trkpt lat="50.83164" lon="4.55627">
        <ele>59</ele>
      </trkpt>
      <trkpt lat="50.83155" lon="4.55604">
        <ele>59</ele>
      </trkpt>
      <trkpt lat="50.83146" lon="4.55593">
        <ele>59</ele>
      </trkpt>
      <trkpt lat="50.83137" lon="4.55589">
        <ele>59</ele>
      </trkpt>
      <trkpt lat="50.83078" lon="4.55606">
        <ele>63</ele>
      </trkpt>
      <trkpt lat="50.83049" lon="4.5561">
        <ele>64</ele>
      </trkpt>
      <trkpt lat="50.82992" lon="4.5561">
        <ele>67</ele>
      </trkpt>
      <trkpt lat="50.82963" lon="4.55608">
        <ele>67</ele>
      </trkpt>
      <trkpt lat="50.82909" lon="4.55598">
        <ele>67</ele>
      </trkpt>
      <trkpt lat="50.82814" lon="4.55564">
        <ele>63</ele>
      </trkpt>
      <trkpt lat="50.82794" lon="4.5556">
        <ele>63</ele>
      </trkpt>
      <trkpt lat="50.82659" lon="4.55559">
        <ele>65</ele>
      </trkpt>
      <trkpt lat="50.82563" lon="4.55547">
        <ele>68</ele>
      </trkpt>
      <trkpt lat="50.82466" lon="4.55546">
        <ele>71</ele>
      </trkpt>
      <trkpt lat="50.8236" lon="4.55538">
        <ele>73</ele>
      </trkpt>
      <trkpt lat="50.82244" lon="4.55532">
        <ele>80</ele>
      </trkpt>
      <trkpt lat="50.82058" lon="4.55527">
        <ele>95</ele>
      </trkpt>
      <trkpt lat="50.81954" lon="4.55483">
        <ele>94</ele>
      </trkpt>
      <trkpt lat="50.81886" lon="4.55466">
        <ele>97</ele>
      </trkpt>
      <trkpt lat="50.81867" lon="4.55454">
        <ele>97</ele>
      </trkpt>
      <trkpt lat="50.81852" lon="4.55438">
        <ele>97</ele>
      </trkpt>
      <trkpt lat="50.81819" lon="4.55351">
        <ele>98</ele>
      </trkpt>
      <trkpt lat="50.81785" lon="4.55281">
        <ele>95</ele>
      </trkpt>
      <trkpt lat="50.81779" lon="4.55278">
        <ele>95</ele>
      </trkpt>
      <trkpt lat="50.81754" lon="4.55303">
        <ele>97</ele>
      </trkpt>
      <trkpt lat="50.81708" lon="4.55349">
        <ele>99</ele>
      </trkpt>
      <trkpt lat="50.81695" lon="4.55326">
        <ele>99</ele>
      </trkpt>
      <trkpt lat="50.81676" lon="4.55299">
        <ele>97</ele>
      </trkpt>
      <trkpt lat="50.81642" lon="4.55254">
        <ele>97</ele>
      </trkpt>
      <trkpt lat="50.81609" lon="4.55187">
        <ele>94</ele>
      </trkpt>
      <trkpt lat="50.81577" lon="4.55192">
        <ele>95</ele>
      </trkpt>
      <trkpt lat="50.81392" lon="4.55221">
        <ele>95</ele>
      </trkpt>
      <trkpt lat="50.81365" lon="4.55222">
        <ele>95</ele>
      </trkpt>
      <trkpt lat="50.81193" lon="4.55144">
        <ele>97</ele>
      </trkpt>
      <trkpt lat="50.81067" lon="4.55108">
        <ele>100</ele>
      </trkpt>
      <trkpt lat="50.80847" lon="4.55049">
        <ele>93</ele>
      </trkpt>
      <trkpt lat="50.80797" lon="4.55041">
        <ele>90</ele>
      </trkpt>
      <trkpt lat="50.80772" lon="4.55043">
        <ele>90</ele>
      </trkpt>
      <trkpt lat="50.80748" lon="4.5505">
        <ele>88</ele>
      </trkpt>
      <trkpt lat="50.80713" lon="4.55065">
        <ele>87</ele>
      </trkpt>
      <trkpt lat="50.80634" lon="4.5513">
        <ele>84</ele>
      </trkpt>
      <trkpt lat="50.80593" lon="4.5517">
        <ele>82</ele>
      </trkpt>
      <trkpt lat="50.80569" lon="4.55188">
        <ele>82</ele>
      </trkpt>
      <trkpt lat="50.80536" lon="4.55208">
        <ele>81</ele>
      </trkpt>
      <trkpt lat="50.80494" lon="4.55228">
        <ele>80</ele>
      </trkpt>
      <trkpt lat="50.80462" lon="4.55238">
        <ele>80</ele>
      </trkpt>
      <trkpt lat="50.80335" lon="4.55268">
        <ele>78</ele>
      </trkpt>
      <trkpt lat="50.80302" lon="4.55269">
        <ele>78</ele>
      </trkpt>
      <trkpt lat="50.8027" lon="4.55264">
        <ele>77</ele>
      </trkpt>
      <trkpt lat="50.80246" lon="4.55255">
        <ele>76</ele>
      </trkpt>
      <trkpt lat="50.80211" lon="4.55231">
        <ele>75</ele>
      </trkpt>
      <trkpt lat="50.80192" lon="4.55208">
        <ele>75</ele>
      </trkpt>
      <trkpt lat="50.80121" lon="4.55134">
        <ele>73</ele>
      </trkpt>
      <trkpt lat="50.80085" lon="4.55093">
        <ele>74</ele>
      </trkpt>
      <trkpt lat="50.80043" lon="4.55053">
        <ele>74</ele>
      </trkpt>
      <trkpt lat="50.79964" lon="4.5502">
        <ele>73</ele>
      </trkpt>
      <trkpt lat="50.79945" lon="4.55">
        <ele>73</ele>
      </trkpt>
      <trkpt lat="50.79836" lon="4.54907">
        <ele>70</ele>
      </trkpt>
      <trkpt lat="50.79804" lon="4.54879">
        <ele>69</ele>
      </trkpt>
      <trkpt lat="50.79778" lon="4.5486">
        <ele>69</ele>
      </trkpt>
      <trkpt lat="50.79761" lon="4.54844">
        <ele>69</ele>
      </trkpt>
      <trkpt lat="50.79687" lon="4.54744">
        <ele>69</ele>
      </trkpt>
      <trkpt lat="50.79674" lon="4.54737">
        <ele>71</ele>
      </trkpt>
      <trkpt lat="50.79639" lon="4.54733">
        <ele>71</ele>
      </trkpt>
      <trkpt lat="50.79629" lon="4.54728">
        <ele>72</ele>
      </trkpt>
      <trkpt lat="50.79621" lon="4.54721">
        <ele>72</ele>
      </trkpt>
      <trkpt lat="50.79601" lon="4.54694">
        <ele>72</ele>
      </trkpt>
      <trkpt lat="50.79535" lon="4.5457">
        <ele>76</ele>
      </trkpt>
      <trkpt lat="50.79503" lon="4.54519">
        <ele>78</ele>
      </trkpt>
      <trkpt lat="50.7932" lon="4.54235">
        <ele>89</ele>
      </trkpt>
      <trkpt lat="50.79282" lon="4.54189">
        <ele>89</ele>
      </trkpt>
      <trkpt lat="50.79257" lon="4.54167">
        <ele>92</ele>
      </trkpt>
      <trkpt lat="50.79216" lon="4.54143">
        <ele>93</ele>
      </trkpt>
      <trkpt lat="50.79031" lon="4.54075">
        <ele>99</ele>
      </trkpt>
      <trkpt lat="50.79011" lon="4.54063">
        <ele>101</ele>
      </trkpt>
      <trkpt lat="50.78993" lon="4.54048">
        <ele>101</ele>
      </trkpt>
      <trkpt lat="50.78971" lon="4.54024">
        <ele>101</ele>
      </trkpt>
      <trkpt lat="50.78925" lon="4.53955">
        <ele>103</ele>
      </trkpt>
      <trkpt lat="50.78832" lon="4.53807">
        <ele>105</ele>
      </trkpt>
      <trkpt lat="50.7881" lon="4.53776">
        <ele>105</ele>
      </trkpt>
      <trkpt lat="50.78788" lon="4.53754">
        <ele>105</ele>
      </trkpt>
      <trkpt lat="50.78749" lon="4.53724">
        <ele>107</ele>
      </trkpt>
      <trkpt lat="50.78721" lon="4.53695">
        <ele>107</ele>
      </trkpt>
      <trkpt lat="50.78715" lon="4.53687">
        <ele>107</ele>
      </trkpt>
      <trkpt lat="50.78697" lon="4.5366">
        <ele>107</ele>
      </trkpt>
      <trkpt lat="50.78685" lon="4.53638">
        <ele>107</ele>
      </trkpt>
      <trkpt lat="50.78623" lon="4.53505">
        <ele>108</ele>
      </trkpt>
      <trkpt lat="50.78601" lon="4.53468">
        <ele>107</ele>
      </trkpt>
      <trkpt lat="50.78419" lon="4.53208">
        <ele>110</ele>
      </trkpt>
      <trkpt lat="50.78324" lon="4.53069">
        <ele>110</ele>
      </trkpt>
      <trkpt lat="50.78298" lon="4.53021">
        <ele>110</ele>
      </trkpt>
      <trkpt lat="50.7828" lon="4.52969">
        <ele>110</ele>
      </trkpt>
      <trkpt lat="50.78267" lon="4.52921">
        <ele>109</ele>
      </trkpt>
      <trkpt lat="50.78257" lon="4.52868">
        <ele>109</ele>
      </trkpt>
      <trkpt lat="50.78249" lon="4.52804">
        <ele>110</ele>
      </trkpt>
      <trkpt lat="50.78228" lon="4.526">
        <ele>111</ele>
      </trkpt>
      <trkpt lat="50.78217" lon="4.5254">
        <ele>111</ele>
      </trkpt>
      <trkpt lat="50.78203" lon="4.52488">
        <ele>110</ele>
      </trkpt>
      <trkpt lat="50.78184" lon="4.52433">
        <ele>110</ele>
      </trkpt>
      <trkpt lat="50.78162" lon="4.52382">
        <ele>111</ele>
      </trkpt>
      <trkpt lat="50.78075" lon="4.52206">
        <ele>110</ele>
      </trkpt>
      <trkpt lat="50.78054" lon="4.52176">
        <ele>110</ele>
      </trkpt>
      <trkpt lat="50.7802" lon="4.52143">
        <ele>109</ele>
      </trkpt>
      <trkpt lat="50.78" lon="4.52131">
        <ele>108</ele>
      </trkpt>
      <trkpt lat="50.77978" lon="4.52126">
        <ele>107</ele>
      </trkpt>
      <trkpt lat="50.77895" lon="4.52121">
        <ele>106</ele>
      </trkpt>
      <trkpt lat="50.77867" lon="4.5212">
        <ele>106</ele>
      </trkpt>
      <trkpt lat="50.77828" lon="4.5212">
        <ele>107</ele>
      </trkpt>
      <trkpt lat="50.77807" lon="4.52112">
        <ele>107</ele>
      </trkpt>
      <trkpt lat="50.77789" lon="4.52091">
        <ele>107</ele>
      </trkpt>
      <trkpt lat="50.77624" lon="4.51818">
        <ele>105</ele>
      </trkpt>
      <trkpt lat="50.77584" lon="4.51748">
        <ele>105</ele>
      </trkpt>
      <trkpt lat="50.77551" lon="4.51699">
        <ele>105</ele>
      </trkpt>
      <trkpt lat="50.77521" lon="4.51665">
        <ele>104</ele>
      </trkpt>
      <trkpt lat="50.77509" lon="4.51661">
        <ele>104</ele>
      </trkpt>
      <trkpt lat="50.77503" lon="4.51663">
        <ele>104</ele>
      </trkpt>
      <trkpt lat="50.77503" lon="4.51655">
        <ele>103</ele>
      </trkpt>
      <trkpt lat="50.77499" lon="4.51642">
        <ele>103</ele>
      </trkpt>
      <trkpt lat="50.77386" lon="4.51459">
        <ele>101</ele>
      </trkpt>
      <trkpt lat="50.77381" lon="4.51454">
        <ele>101</ele>
      </trkpt>
      <trkpt lat="50.77371" lon="4.51448">
        <ele>101</ele>
      </trkpt>
      <trkpt lat="50.77324" lon="4.51426">
        <ele>99</ele>
      </trkpt>
      <trkpt lat="50.7731" lon="4.51423">
        <ele>99</ele>
      </trkpt>
      <trkpt lat="50.7721" lon="4.51378">
        <ele>99</ele>
      </trkpt>
      <trkpt lat="50.77204" lon="4.51371">
        <ele>99</ele>
      </trkpt>
      <trkpt lat="50.77122" lon="4.51332">
        <ele>97</ele>
      </trkpt>
      <trkpt lat="50.77115" lon="4.5133">
        <ele>96</ele>
      </trkpt>
      <trkpt lat="50.77102" lon="4.51336">
        <ele>96</ele>
      </trkpt>
      <trkpt lat="50.77099" lon="4.51339">
        <ele>96</ele>
      </trkpt>
      <trkpt lat="50.77096" lon="4.51344">
        <ele>91</ele>
      </trkpt>
      <trkpt lat="50.77086" lon="4.5137">
        <ele>91</ele>
      </trkpt>
      <trkpt lat="50.7707" lon="4.51423">
        <ele>85</ele>
      </trkpt>
      <trkpt lat="50.77054" lon="4.51484">
        <ele>82</ele>
      </trkpt>
      <trkpt lat="50.7704" lon="4.51545">
        <ele>78</ele>
      </trkpt>
      <trkpt lat="50.7703" lon="4.51597">
        <ele>75</ele>
      </trkpt>
      <trkpt lat="50.77024" lon="4.51637">
        <ele>75</ele>
      </trkpt>
      <trkpt lat="50.7702" lon="4.51644">
        <ele>75</ele>
      </trkpt>
      <trkpt lat="50.77002" lon="4.51648">
        <ele>70</ele>
      </trkpt>
      <trkpt lat="50.76986" lon="4.5143">
        <ele>75</ele>
      </trkpt>
      <trkpt lat="50.76981" lon="4.51385">
        <ele>78</ele>
      </trkpt>
      <trkpt lat="50.76973" lon="4.51349">
        <ele>78</ele>
      </trkpt>
      <trkpt lat="50.76925" lon="4.51196">
        <ele>74</ele>
      </trkpt>
      <trkpt lat="50.76903" lon="4.51112">
        <ele>71</ele>
      </trkpt>
      <trkpt lat="50.76897" lon="4.51075">
        <ele>71</ele>
      </trkpt>
      <trkpt lat="50.76896" lon="4.5104">
        <ele>69</ele>
      </trkpt>
      <trkpt lat="50.76899" lon="4.50998">
        <ele>71</ele>
      </trkpt>
      <trkpt lat="50.76927" lon="4.50808">
        <ele>67</ele>
      </trkpt>
      <trkpt lat="50.76997" lon="4.50441">
        <ele>68</ele>
      </trkpt>
      <trkpt lat="50.77" lon="4.50408">
        <ele>69</ele>
      </trkpt>
      <trkpt lat="50.77001" lon="4.50375">
        <ele>69</ele>
      </trkpt>
      <trkpt lat="50.76994" lon="4.50227">
        <ele>71</ele>
      </trkpt>
      <trkpt lat="50.76994" lon="4.5022">
        <ele>71</ele>
      </trkpt>
      <trkpt lat="50.76978" lon="4.50221">
        <ele>70</ele>
      </trkpt>
      <trkpt lat="50.76846" lon="4.5029">
        <ele>69</ele>
      </trkpt>
      <trkpt lat="50.76793" lon="4.50321">
        <ele>69</ele>
      </trkpt>
      <trkpt lat="50.76732" lon="4.50367">
        <ele>72</ele>
      </trkpt>
      <trkpt lat="50.7661" lon="4.50469">
        <ele>74</ele>
      </trkpt>
      <trkpt lat="50.76574" lon="4.50502">
        <ele>76</ele>
      </trkpt>
      <trkpt lat="50.7655" lon="4.5052">
        <ele>77</ele>
      </trkpt>
      <trkpt lat="50.76527" lon="4.50526">
        <ele>77</ele>
      </trkpt>
      <trkpt lat="50.76507" lon="4.50523">
        <ele>82</ele>
      </trkpt>
      <trkpt lat="50.76373" lon="4.50457">
        <ele>90</ele>
      </trkpt>
      <trkpt lat="50.76224" lon="4.50362">
        <ele>99</ele>
      </trkpt>
      <trkpt lat="50.76086" lon="4.50264">
        <ele>102</ele>
      </trkpt>
      <trkpt lat="50.76031" lon="4.50229">
        <ele>102</ele>
      </trkpt>
      <trkpt lat="50.75964" lon="4.50195">
        <ele>103</ele>
      </trkpt>
      <trkpt lat="50.75897" lon="4.50129">
        <ele>104</ele>
      </trkpt>
      <trkpt lat="50.75852" lon="4.50084">
        <ele>104</ele>
      </trkpt>
      <trkpt lat="50.75833" lon="4.50053">
        <ele>105</ele>
      </trkpt>
      <trkpt lat="50.75821" lon="4.50017">
        <ele>105</ele>
      </trkpt>
      <trkpt lat="50.75817" lon="4.49995">
        <ele>105</ele>
      </trkpt>
      <trkpt lat="50.75797" lon="4.49822">
        <ele>105</ele>
      </trkpt>
      <trkpt lat="50.75797" lon="4.49634">
        <ele>106</ele>
      </trkpt>
      <trkpt lat="50.75794" lon="4.49594">
        <ele>105</ele>
      </trkpt>
      <trkpt lat="50.7579" lon="4.49563">
        <ele>105</ele>
      </trkpt>
      <trkpt lat="50.75778" lon="4.49514">
        <ele>105</ele>
      </trkpt>
      <trkpt lat="50.75747" lon="4.49426">
        <ele>104</ele>
      </trkpt>
      <trkpt lat="50.75738" lon="4.49406">
        <ele>103</ele>
      </trkpt>
      <trkpt lat="50.75726" lon="4.49386">
        <ele>103</ele>
      </trkpt>
      <trkpt lat="50.75725" lon="4.49389">
        <ele>103</ele>
      </trkpt>
      <trkpt lat="50.75706" lon="4.49421">
        <ele>103</ele>
      </trkpt>
      <trkpt lat="50.75679" lon="4.49456">
        <ele>103</ele>
      </trkpt>
      <trkpt lat="50.75615" lon="4.49546">
        <ele>104</ele>
      </trkpt>
      <trkpt lat="50.75605" lon="4.49564">
        <ele>104</ele>
      </trkpt>
      <trkpt lat="50.75586" lon="4.49609">
        <ele>104</ele>
      </trkpt>
      <trkpt lat="50.75558" lon="4.49685">
        <ele>105</ele>
      </trkpt>
      <trkpt lat="50.75543" lon="4.49713">
        <ele>105</ele>
      </trkpt>
      <trkpt lat="50.7549" lon="4.49795">
        <ele>104</ele>
      </trkpt>
      <trkpt lat="50.75476" lon="4.49821">
        <ele>104</ele>
      </trkpt>
      <trkpt lat="50.75441" lon="4.49929">
        <ele>102</ele>
      </trkpt>
      <trkpt lat="50.75382" lon="4.50144">
        <ele>100</ele>
      </trkpt>
      <trkpt lat="50.75336" lon="4.50326">
        <ele>97</ele>
      </trkpt>
      <trkpt lat="50.75283" lon="4.50551">
        <ele>97</ele>
      </trkpt>
      <trkpt lat="50.75275" lon="4.50595">
        <ele>98</ele>
      </trkpt>
      <trkpt lat="50.75268" lon="4.50651">
        <ele>97</ele>
      </trkpt>
      <trkpt lat="50.75265" lon="4.50698">
        <ele>98</ele>
      </trkpt>
      <trkpt lat="50.75259" lon="4.50725">
        <ele>97</ele>
      </trkpt>
      <trkpt lat="50.75201" lon="4.50895">
        <ele>96</ele>
      </trkpt>
      <trkpt lat="50.75178" lon="4.50947">
        <ele>96</ele>
      </trkpt>
      <trkpt lat="50.75088" lon="4.51101">
        <ele>100</ele>
      </trkpt>
      <trkpt lat="50.75057" lon="4.51161">
        <ele>101</ele>
      </trkpt>
      <trkpt lat="50.75032" lon="4.51222">
        <ele>102</ele>
      </trkpt>
      <trkpt lat="50.75015" lon="4.51276">
        <ele>102</ele>
      </trkpt>
      <trkpt lat="50.75012" lon="4.51293">
        <ele>103</ele>
      </trkpt>
      <trkpt lat="50.74999" lon="4.51453">
        <ele>104</ele>
      </trkpt>
      <trkpt lat="50.74975" lon="4.51644">
        <ele>103</ele>
      </trkpt>
      <trkpt lat="50.74965" lon="4.51761">
        <ele>103</ele>
      </trkpt>
      <trkpt lat="50.74959" lon="4.51797">
        <ele>103</ele>
      </trkpt>
      <trkpt lat="50.74953" lon="4.51816">
        <ele>103</ele>
      </trkpt>
      <trkpt lat="50.74934" lon="4.5185">
        <ele>103</ele>
      </trkpt>
      <trkpt lat="50.74868" lon="4.51942">
        <ele>104</ele>
      </trkpt>
      <trkpt lat="50.74704" lon="4.52179">
        <ele>103</ele>
      </trkpt>
      <trkpt lat="50.74663" lon="4.52264">
        <ele>100</ele>
      </trkpt>
      <trkpt lat="50.74625" lon="4.52376">
        <ele>99</ele>
      </trkpt>
      <trkpt lat="50.74613" lon="4.52399">
        <ele>99</ele>
      </trkpt>
      <trkpt lat="50.74595" lon="4.52422">
        <ele>98</ele>
      </trkpt>
      <trkpt lat="50.74593" lon="4.52431">
        <ele>98</ele>
      </trkpt>
      <trkpt lat="50.74559" lon="4.52437">
        <ele>97</ele>
      </trkpt>
      <trkpt lat="50.74497" lon="4.52454">
        <ele>98</ele>
      </trkpt>
      <trkpt lat="50.74485" lon="4.52458">
        <ele>98</ele>
      </trkpt>
      <trkpt lat="50.7447" lon="4.52468">
        <ele>98</ele>
      </trkpt>
      <trkpt lat="50.74459" lon="4.52479">
        <ele>98</ele>
      </trkpt>
      <trkpt lat="50.74326" lon="4.52656">
        <ele>101</ele>
      </trkpt>
      <trkpt lat="50.74299" lon="4.5269">
        <ele>102</ele>
      </trkpt>
      <trkpt lat="50.7418" lon="4.52816">
        <ele>100</ele>
      </trkpt>
      <trkpt lat="50.74157" lon="4.52854">
        <ele>98</ele>
      </trkpt>
      <trkpt lat="50.74138" lon="4.52889">
        <ele>97</ele>
      </trkpt>
      <trkpt lat="50.73987" lon="4.53176">
        <ele>98</ele>
      </trkpt>
      <trkpt lat="50.73967" lon="4.53211">
        <ele>98</ele>
      </trkpt>
      <trkpt lat="50.73956" lon="4.53224">
        <ele>98</ele>
      </trkpt>
      <trkpt lat="50.73931" lon="4.53245">
        <ele>97</ele>
      </trkpt>
      <trkpt lat="50.7387" lon="4.53279">
        <ele>98</ele>
      </trkpt>
      <trkpt lat="50.73686" lon="4.53483">
        <ele>100</ele>
      </trkpt>
      <trkpt lat="50.73659" lon="4.53511">
        <ele>97</ele>
      </trkpt>
      <trkpt lat="50.73634" lon="4.53523">
        <ele>97</ele>
      </trkpt>
      <trkpt lat="50.73611" lon="4.53524">
        <ele>97</ele>
      </trkpt>
      <trkpt lat="50.73575" lon="4.53508">
        <ele>97</ele>
      </trkpt>
      <trkpt lat="50.73533" lon="4.53486">
        <ele>97</ele>
      </trkpt>
      <trkpt lat="50.73505" lon="4.53479">
        <ele>96</ele>
      </trkpt>
      <trkpt lat="50.73502" lon="4.53472">
        <ele>96</ele>
      </trkpt>
      <trkpt lat="50.73494" lon="4.5347">
        <ele>96</ele>
      </trkpt>
      <trkpt lat="50.73485" lon="4.53463">
        <ele>96</ele>
      </trkpt>
      <trkpt lat="50.73426" lon="4.53428">
        <ele>96</ele>
      </trkpt>
      <trkpt lat="50.73407" lon="4.53412">
        <ele>96</ele>
      </trkpt>
      <trkpt lat="50.73373" lon="4.5339">
        <ele>94</ele>
      </trkpt>
      <trkpt lat="50.73268" lon="4.53356">
        <ele>94</ele>
      </trkpt>
      <trkpt lat="50.73251" lon="4.53348">
        <ele>95</ele>
      </trkpt>
      <trkpt lat="50.73233" lon="4.53335">
        <ele>95</ele>
      </trkpt>
      <trkpt lat="50.73215" lon="4.53317">
        <ele>94</ele>
      </trkpt>
      <trkpt lat="50.73156" lon="4.53231">
        <ele>94</ele>
      </trkpt>
      <trkpt lat="50.73143" lon="4.53207">
        <ele>94</ele>
      </trkpt>
      <trkpt lat="50.73128" lon="4.53174">
        <ele>94</ele>
      </trkpt>
      <trkpt lat="50.73111" lon="4.53126">
        <ele>93</ele>
      </trkpt>
      <trkpt lat="50.73084" lon="4.53061">
        <ele>91</ele>
      </trkpt>
      <trkpt lat="50.73057" lon="4.53011">
        <ele>90</ele>
      </trkpt>
      <trkpt lat="50.7289" lon="4.52726">
        <ele>63</ele>
      </trkpt>
      <trkpt lat="50.72882" lon="4.5272">
        <ele>62</ele>
      </trkpt>
      <trkpt lat="50.72877" lon="4.5272">
        <ele>62</ele>
      </trkpt>
      <trkpt lat="50.72862" lon="4.52739">
        <ele>62</ele>
      </trkpt>
      <trkpt lat="50.72861" lon="4.52745">
        <ele>65</ele>
      </trkpt>
      <trkpt lat="50.72852" lon="4.52772">
        <ele>65</ele>
      </trkpt>
      <trkpt lat="50.72828" lon="4.52858">
        <ele>63</ele>
      </trkpt>
      <trkpt lat="50.72792" lon="4.52971">
        <ele>66</ele>
      </trkpt>
      <trkpt lat="50.72772" lon="4.53028">
        <ele>70</ele>
      </trkpt>
      <trkpt lat="50.7274" lon="4.53139">
        <ele>67</ele>
      </trkpt>
      <trkpt lat="50.72736" lon="4.53155">
        <ele>67</ele>
      </trkpt>
      <trkpt lat="50.72736" lon="4.53163">
        <ele>70</ele>
      </trkpt>
      <trkpt lat="50.72731" lon="4.53172">
        <ele>70</ele>
      </trkpt>
      <trkpt lat="50.72725" lon="4.53187">
        <ele>71</ele>
      </trkpt>
      <trkpt lat="50.72707" lon="4.53254">
        <ele>73</ele>
      </trkpt>
      <trkpt lat="50.72698" lon="4.5331">
        <ele>73</ele>
      </trkpt>
      <trkpt lat="50.72693" lon="4.53362">
        <ele>74</ele>
      </trkpt>
      <trkpt lat="50.72691" lon="4.53415">
        <ele>74</ele>
      </trkpt>
      <trkpt lat="50.727" lon="4.53537">
        <ele>71</ele>
      </trkpt>
      <trkpt lat="50.72708" lon="4.53595">
        <ele>67</ele>
      </trkpt>
      <trkpt lat="50.72719" lon="4.53644">
        <ele>66</ele>
      </trkpt>
      <trkpt lat="50.72751" lon="4.53758">
        <ele>62</ele>
      </trkpt>
      <trkpt lat="50.72771" lon="4.53837">
        <ele>70</ele>
      </trkpt>
      <trkpt lat="50.72818" lon="4.54048">
        <ele>72</ele>
      </trkpt>
      <trkpt lat="50.72828" lon="4.54086">
        <ele>73</ele>
      </trkpt>
      <trkpt lat="50.72847" lon="4.54132">
        <ele>80</ele>
      </trkpt>
      <trkpt lat="50.72889" lon="4.54231">
        <ele>81</ele>
      </trkpt>
      <trkpt lat="50.72911" lon="4.54268">
        <ele>80</ele>
      </trkpt>
      <trkpt lat="50.72921" lon="4.54282">
        <ele>80</ele>
      </trkpt>
      <trkpt lat="50.72958" lon="4.54326">
        <ele>84</ele>
      </trkpt>
      <trkpt lat="50.7297" lon="4.54345">
        <ele>84</ele>
      </trkpt>
      <trkpt lat="50.7305" lon="4.54519">
        <ele>83</ele>
      </trkpt>
      <trkpt lat="50.73064" lon="4.54545">
        <ele>83</ele>
      </trkpt>
      <trkpt lat="50.73074" lon="4.54555">
        <ele>83</ele>
      </trkpt>
      <trkpt lat="50.73075" lon="4.54566">
        <ele>82</ele>
      </trkpt>
      <trkpt lat="50.7308" lon="4.54571">
        <ele>82</ele>
      </trkpt>
      <trkpt lat="50.73084" lon="4.54571">
        <ele>82</ele>
      </trkpt>
      <trkpt lat="50.73095" lon="4.54648">
        <ele>81</ele>
      </trkpt>
      <trkpt lat="50.73103" lon="4.54682">
        <ele>80</ele>
      </trkpt>
      <trkpt lat="50.73107" lon="4.54698">
        <ele>79</ele>
      </trkpt>
      <trkpt lat="50.73169" lon="4.54887">
        <ele>72</ele>
      </trkpt>
      <trkpt lat="50.73223" lon="4.54993">
        <ele>65</ele>
      </trkpt>
      <trkpt lat="50.73318" lon="4.55198">
        <ele>54</ele>
      </trkpt>
      <trkpt lat="50.73353" lon="4.55259">
        <ele>52</ele>
      </trkpt>
      <trkpt lat="50.73362" lon="4.55279">
        <ele>51</ele>
      </trkpt>
      <trkpt lat="50.73433" lon="4.55417">
        <ele>49</ele>
      </trkpt>
      <trkpt lat="50.73472" lon="4.55502">
        <ele>48</ele>
      </trkpt>
      <trkpt lat="50.73502" lon="4.5547">
        <ele>50</ele>
      </trkpt>
      <trkpt lat="50.73551" lon="4.55408">
        <ele>52</ele>
      </trkpt>
      <trkpt lat="50.73672" lon="4.55254">
        <ele>57</ele>
      </trkpt>
      <trkpt lat="50.73726" lon="4.55273">
        <ele>57</ele>
      </trkpt>
      <trkpt lat="50.73786" lon="4.55305">
        <ele>55</ele>
      </trkpt>
      <trkpt lat="50.73793" lon="4.55311">
        <ele>55</ele>
      </trkpt>
      <trkpt lat="50.73965" lon="4.55535">
        <ele>50</ele>
      </trkpt>
      <trkpt lat="50.73978" lon="4.55559">
        <ele>51</ele>
      </trkpt>
      <trkpt lat="50.74004" lon="4.55623">
        <ele>50</ele>
      </trkpt>
      <trkpt lat="50.74028" lon="4.55665">
        <ele>53</ele>
      </trkpt>
      <trkpt lat="50.74043" lon="4.55685">
        <ele>53</ele>
      </trkpt>
      <trkpt lat="50.7407" lon="4.55712">
        <ele>53</ele>
      </trkpt>
      <trkpt lat="50.74081" lon="4.55716">
        <ele>54</ele>
      </trkpt>
      <trkpt lat="50.74091" lon="4.55714">
        <ele>54</ele>
      </trkpt>
      <trkpt lat="50.74114" lon="4.55697">
        <ele>60</ele>
      </trkpt>
      <trkpt lat="50.74122" lon="4.55694">
        <ele>60</ele>
      </trkpt>
      <trkpt lat="50.74131" lon="4.55695">
        <ele>60</ele>
      </trkpt>
      <trkpt lat="50.74209" lon="4.55747">
        <ele>58</ele>
      </trkpt>
      <trkpt lat="50.74254" lon="4.55769">
        <ele>57</ele>
      </trkpt>
      <trkpt lat="50.74307" lon="4.55801">
        <ele>56</ele>
      </trkpt>
      <trkpt lat="50.7436" lon="4.55819">
        <ele>58</ele>
      </trkpt>
      <trkpt lat="50.74372" lon="4.55826">
        <ele>54</ele>
      </trkpt>
      <trkpt lat="50.74471" lon="4.55912">
        <ele>55</ele>
      </trkpt>
      <trkpt lat="50.74493" lon="4.55921">
        <ele>56</ele>
      </trkpt>
      <trkpt lat="50.74526" lon="4.55913">
        <ele>65</ele>
      </trkpt>
      <trkpt lat="50.7457" lon="4.55917">
        <ele>67</ele>
      </trkpt>
      <trkpt lat="50.74581" lon="4.55918">
        <ele>67</ele>
      </trkpt>
      <trkpt lat="50.74604" lon="4.55931">
        <ele>73</ele>
      </trkpt>
      <trkpt lat="50.74676" lon="4.55983">
        <ele>73</ele>
      </trkpt>
      <trkpt lat="50.74817" lon="4.56136">
        <ele>62</ele>
      </trkpt>
      <trkpt lat="50.74831" lon="4.56163">
        <ele>56</ele>
      </trkpt>
      <trkpt lat="50.74847" lon="4.56225">
        <ele>59</ele>
      </trkpt>
      <trkpt lat="50.74853" lon="4.56241">
        <ele>59</ele>
      </trkpt>
      <trkpt lat="50.74862" lon="4.56255">
        <ele>55</ele>
      </trkpt>
      <trkpt lat="50.74953" lon="4.56366">
        <ele>55</ele>
      </trkpt>
      <trkpt lat="50.74963" lon="4.56381">
        <ele>55</ele>
      </trkpt>
      <trkpt lat="50.74972" lon="4.56401">
        <ele>55</ele>
      </trkpt>
      <trkpt lat="50.75" lon="4.56482">
        <ele>49</ele>
      </trkpt>
      <trkpt lat="50.75006" lon="4.56502">
        <ele>46</ele>
      </trkpt>
      <trkpt lat="50.75013" lon="4.5656">
        <ele>47</ele>
      </trkpt>
      <trkpt lat="50.75018" lon="4.56576">
        <ele>47</ele>
      </trkpt>
      <trkpt lat="50.75025" lon="4.56591">
        <ele>45</ele>
      </trkpt>
      <trkpt lat="50.75042" lon="4.56615">
        <ele>45</ele>
      </trkpt>
      <trkpt lat="50.75105" lon="4.56685">
        <ele>44</ele>
      </trkpt>
      <trkpt lat="50.75127" lon="4.56707">
        <ele>44</ele>
      </trkpt>
      <trkpt lat="50.75165" lon="4.56732">
        <ele>44</ele>
      </trkpt>
      <trkpt lat="50.75262" lon="4.5679">
        <ele>43</ele>
      </trkpt>
      <trkpt lat="50.75322" lon="4.56812">
        <ele>43</ele>
      </trkpt>
      <trkpt lat="50.75352" lon="4.56825">
        <ele>45</ele>
      </trkpt>
      <trkpt lat="50.75356" lon="4.56805">
        <ele>46</ele>
      </trkpt>
      <trkpt lat="50.75362" lon="4.56801">
        <ele>46</ele>
      </trkpt>
      <trkpt lat="50.75379" lon="4.56782">
        <ele>45</ele>
      </trkpt>
      <trkpt lat="50.75396" lon="4.56766">
        <ele>46</ele>
      </trkpt>
      <trkpt lat="50.7543" lon="4.56749">
        <ele>54</ele>
      </trkpt>
      <trkpt lat="50.75454" lon="4.56748">
        <ele>56</ele>
      </trkpt>
      <trkpt lat="50.75481" lon="4.56758">
        <ele>57</ele>
      </trkpt>
      <trkpt lat="50.75499" lon="4.56758">
        <ele>58</ele>
      </trkpt>
      <trkpt lat="50.755" lon="4.56781">
        <ele>58</ele>
      </trkpt>
      <trkpt lat="50.75501" lon="4.56786">
        <ele>58</ele>
      </trkpt>
      <trkpt lat="50.75515" lon="4.56815">
        <ele>65</ele>
      </trkpt>
      <trkpt lat="50.75572" lon="4.56885">
        <ele>66</ele>
      </trkpt>
      <trkpt lat="50.75599" lon="4.56923">
        <ele>72</ele>
      </trkpt>
      <trkpt lat="50.75606" lon="4.56946">
        <ele>73</ele>
      </trkpt>
      <trkpt lat="50.75611" lon="4.56986">
        <ele>72</ele>
      </trkpt>
      <trkpt lat="50.75648" lon="4.56964">
        <ele>74</ele>
      </trkpt>
      <trkpt lat="50.75689" lon="4.57133">
        <ele>75</ele>
      </trkpt>
      <trkpt lat="50.75693" lon="4.57155">
        <ele>75</ele>
      </trkpt>
      <trkpt lat="50.75694" lon="4.57183">
        <ele>73</ele>
      </trkpt>
      <trkpt lat="50.75693" lon="4.57244">
        <ele>70</ele>
      </trkpt>
      <trkpt lat="50.75694" lon="4.57263">
        <ele>69</ele>
      </trkpt>
      <trkpt lat="50.75698" lon="4.57285">
        <ele>69</ele>
      </trkpt>
      <trkpt lat="50.75704" lon="4.57306">
        <ele>69</ele>
      </trkpt>
      <trkpt lat="50.75777" lon="4.57519">
        <ele>67</ele>
      </trkpt>
      <trkpt lat="50.758" lon="4.57566">
        <ele>67</ele>
      </trkpt>
      <trkpt lat="50.75898" lon="4.57716">
        <ele>60</ele>
      </trkpt>
      <trkpt lat="50.75912" lon="4.57749">
        <ele>54</ele>
      </trkpt>
      <trkpt lat="50.75913" lon="4.57757">
        <ele>54</ele>
      </trkpt>
      <trkpt lat="50.75917" lon="4.57777">
        <ele>53</ele>
      </trkpt>
      <trkpt lat="50.75962" lon="4.58095">
        <ele>48</ele>
      </trkpt>
      <trkpt lat="50.75969" lon="4.58129">
        <ele>47</ele>
      </trkpt>
      <trkpt lat="50.76016" lon="4.58285">
        <ele>50</ele>
      </trkpt>
      <trkpt lat="50.76033" lon="4.58318">
        <ele>50</ele>
      </trkpt>
      <trkpt lat="50.76125" lon="4.58452">
        <ele>53</ele>
      </trkpt>
      <trkpt lat="50.76163" lon="4.58524">
        <ele>52</ele>
      </trkpt>
      <trkpt lat="50.76191" lon="4.58558">
        <ele>62</ele>
      </trkpt>
      <trkpt lat="50.76232" lon="4.58598">
        <ele>62</ele>
      </trkpt>
      <trkpt lat="50.76243" lon="4.58613">
        <ele>63</ele>
      </trkpt>
      <trkpt lat="50.76252" lon="4.58629">
        <ele>63</ele>
      </trkpt>
      <trkpt lat="50.76262" lon="4.58651">
        <ele>64</ele>
      </trkpt>
      <trkpt lat="50.76269" lon="4.58679">
        <ele>69</ele>
      </trkpt>
      <trkpt lat="50.76373" lon="4.59267">
        <ele>49</ele>
      </trkpt>
      <trkpt lat="50.7638" lon="4.59295">
        <ele>48</ele>
      </trkpt>
      <trkpt lat="50.76388" lon="4.59317">
        <ele>49</ele>
      </trkpt>
      <trkpt lat="50.7668" lon="4.59934">
        <ele>42</ele>
      </trkpt>
      <trkpt lat="50.76706" lon="4.59973">
        <ele>42</ele>
      </trkpt>
      <trkpt lat="50.76771" lon="4.60053">
        <ele>43</ele>
      </trkpt>
      <trkpt lat="50.76793" lon="4.60084">
        <ele>41</ele>
      </trkpt>
      <trkpt lat="50.76836" lon="4.60184">
        <ele>40</ele>
      </trkpt>
      <trkpt lat="50.76831" lon="4.60201">
        <ele>40</ele>
      </trkpt>
      <trkpt lat="50.76811" lon="4.60248">
        <ele>39</ele>
      </trkpt>
      <trkpt lat="50.76806" lon="4.60263">
        <ele>39</ele>
      </trkpt>
      <trkpt lat="50.76798" lon="4.60316">
        <ele>38</ele>
      </trkpt>
      <trkpt lat="50.76795" lon="4.60349">
        <ele>38</ele>
      </trkpt>
      <trkpt lat="50.76795" lon="4.60366">
        <ele>37</ele>
      </trkpt>
      <trkpt lat="50.76778" lon="4.60375">
        <ele>37</ele>
      </trkpt>
      <trkpt lat="50.7677" lon="4.6037">
        <ele>38</ele>
      </trkpt>
      <trkpt lat="50.76732" lon="4.60359">
        <ele>38</ele>
      </trkpt>
      <trkpt lat="50.76731" lon="4.60371">
        <ele>38</ele>
      </trkpt>
      <trkpt lat="50.7669" lon="4.60361">
        <ele>38</ele>
      </trkpt>
      <trkpt lat="50.76566" lon="4.60378">
        <ele>39</ele>
      </trkpt>
      <trkpt lat="50.76538" lon="4.60379">
        <ele>38</ele>
      </trkpt>
      <trkpt lat="50.76533" lon="4.60377">
        <ele>38</ele>
      </trkpt>
      <trkpt lat="50.76466" lon="4.60252">
        <ele>38</ele>
      </trkpt>
      <trkpt lat="50.76453" lon="4.60224">
        <ele>38</ele>
      </trkpt>
      <trkpt lat="50.76436" lon="4.60213">
        <ele>39</ele>
      </trkpt>
      <trkpt lat="50.76428" lon="4.602">
        <ele>40</ele>
      </trkpt>
      <trkpt lat="50.76417" lon="4.6019">
        <ele>40</ele>
      </trkpt>
      <trkpt lat="50.76409" lon="4.60192">
        <ele>40</ele>
      </trkpt>
      <trkpt lat="50.76326" lon="4.60255">
        <ele>42</ele>
      </trkpt>
      <trkpt lat="50.76324" lon="4.6027">
        <ele>42</ele>
      </trkpt>
      <trkpt lat="50.76285" lon="4.60315">
        <ele>43</ele>
      </trkpt>
      <trkpt lat="50.76246" lon="4.60371">
        <ele>47</ele>
      </trkpt>
      <trkpt lat="50.76216" lon="4.60347">
        <ele>47</ele>
      </trkpt>
      <trkpt lat="50.76168" lon="4.60315">
        <ele>51</ele>
      </trkpt>
      <trkpt lat="50.76075" lon="4.60271">
        <ele>55</ele>
      </trkpt>
      <trkpt lat="50.76065" lon="4.60263">
        <ele>55</ele>
      </trkpt>
      <trkpt lat="50.76028" lon="4.60217">
        <ele>56</ele>
      </trkpt>
      <trkpt lat="50.76021" lon="4.6021">
        <ele>56</ele>
      </trkpt>
      <trkpt lat="50.75938" lon="4.60156">
        <ele>56</ele>
      </trkpt>
      <trkpt lat="50.75898" lon="4.60146">
        <ele>59</ele>
      </trkpt>
      <trkpt lat="50.75774" lon="4.60151">
        <ele>63</ele>
      </trkpt>
      <trkpt lat="50.75735" lon="4.60159">
        <ele>63</ele>
      </trkpt>
      <trkpt lat="50.75707" lon="4.6017">
        <ele>67</ele>
      </trkpt>
      <trkpt lat="50.75507" lon="4.603">
        <ele>73</ele>
      </trkpt>
      <trkpt lat="50.75465" lon="4.60319">
        <ele>73</ele>
      </trkpt>
      <trkpt lat="50.75426" lon="4.6033">
        <ele>75</ele>
      </trkpt>
      <trkpt lat="50.7538" lon="4.6035">
        <ele>77</ele>
      </trkpt>
      <trkpt lat="50.75345" lon="4.60371">
        <ele>77</ele>
      </trkpt>
      <trkpt lat="50.75305" lon="4.60402">
        <ele>78</ele>
      </trkpt>
      <trkpt lat="50.7516" lon="4.60533">
        <ele>83</ele>
      </trkpt>
      <trkpt lat="50.75113" lon="4.60568">
        <ele>83</ele>
      </trkpt>
      <trkpt lat="50.75106" lon="4.60576">
        <ele>83</ele>
      </trkpt>
      <trkpt lat="50.75104" lon="4.60583">
        <ele>84</ele>
      </trkpt>
      <trkpt lat="50.75103" lon="4.60597">
        <ele>84</ele>
      </trkpt>
      <trkpt lat="50.75111" lon="4.60625">
        <ele>84</ele>
      </trkpt>
      <trkpt lat="50.7515" lon="4.6073">
        <ele>83</ele>
      </trkpt>
      <trkpt lat="50.75222" lon="4.6096">
        <ele>75</ele>
      </trkpt>
      <trkpt lat="50.75232" lon="4.60985">
        <ele>75</ele>
      </trkpt>
      <trkpt lat="50.75253" lon="4.61022">
        <ele>77</ele>
      </trkpt>
      <trkpt lat="50.75259" lon="4.61038">
        <ele>77</ele>
      </trkpt>
      <trkpt lat="50.75263" lon="4.61049">
        <ele>78</ele>
      </trkpt>
      <trkpt lat="50.75264" lon="4.61062">
        <ele>78</ele>
      </trkpt>
      <trkpt lat="50.7526" lon="4.61317">
        <ele>86</ele>
      </trkpt>
      <trkpt lat="50.75261" lon="4.61334">
        <ele>88</ele>
      </trkpt>
      <trkpt lat="50.75264" lon="4.61343">
        <ele>88</ele>
      </trkpt>
      <trkpt lat="50.75279" lon="4.61373">
        <ele>88</ele>
      </trkpt>
      <trkpt lat="50.75287" lon="4.61397">
        <ele>89</ele>
      </trkpt>
      <trkpt lat="50.75289" lon="4.61421">
        <ele>90</ele>
      </trkpt>
      <trkpt lat="50.75291" lon="4.61487">
        <ele>90</ele>
      </trkpt>
      <trkpt lat="50.75289" lon="4.61504">
        <ele>91</ele>
      </trkpt>
      <trkpt lat="50.75262" lon="4.6161">
        <ele>93</ele>
      </trkpt>
      <trkpt lat="50.75236" lon="4.61724">
        <ele>94</ele>
      </trkpt>
      <trkpt lat="50.75231" lon="4.6175">
        <ele>94</ele>
      </trkpt>
      <trkpt lat="50.75231" lon="4.61756">
        <ele>94</ele>
      </trkpt>
      <trkpt lat="50.75237" lon="4.61763">
        <ele>94</ele>
      </trkpt>
      <trkpt lat="50.75271" lon="4.6178">
        <ele>93</ele>
      </trkpt>
      <trkpt lat="50.75289" lon="4.61793">
        <ele>93</ele>
      </trkpt>
      <trkpt lat="50.75343" lon="4.61837">
        <ele>93</ele>
      </trkpt>
      <trkpt lat="50.75349" lon="4.61847">
        <ele>92</ele>
      </trkpt>
      <trkpt lat="50.75353" lon="4.61859">
        <ele>92</ele>
      </trkpt>
      <trkpt lat="50.75355" lon="4.61871">
        <ele>92</ele>
      </trkpt>
      <trkpt lat="50.75355" lon="4.61885">
        <ele>92</ele>
      </trkpt>
      <trkpt lat="50.75349" lon="4.61931">
        <ele>90</ele>
      </trkpt>
      <trkpt lat="50.75334" lon="4.61983">
        <ele>91</ele>
      </trkpt>
      <trkpt lat="50.75332" lon="4.61994">
        <ele>88</ele>
      </trkpt>
      <trkpt lat="50.75335" lon="4.62012">
        <ele>88</ele>
      </trkpt>
      <trkpt lat="50.75356" lon="4.62063">
        <ele>84</ele>
      </trkpt>
      <trkpt lat="50.75364" lon="4.62091">
        <ele>79</ele>
      </trkpt>
      <trkpt lat="50.75373" lon="4.62159">
        <ele>77</ele>
      </trkpt>
      <trkpt lat="50.75376" lon="4.62171">
        <ele>74</ele>
      </trkpt>
      <trkpt lat="50.75383" lon="4.62187">
        <ele>72</ele>
      </trkpt>
      <trkpt lat="50.75435" lon="4.62271">
        <ele>71</ele>
      </trkpt>
      <trkpt lat="50.75446" lon="4.62285">
        <ele>70</ele>
      </trkpt>
      <trkpt lat="50.75454" lon="4.62293">
        <ele>70</ele>
      </trkpt>
      <trkpt lat="50.75483" lon="4.62309">
        <ele>71</ele>
      </trkpt>
      <trkpt lat="50.75492" lon="4.62317">
        <ele>71</ele>
      </trkpt>
      <trkpt lat="50.75498" lon="4.62326">
        <ele>72</ele>
      </trkpt>
      <trkpt lat="50.75508" lon="4.62352">
        <ele>72</ele>
      </trkpt>
      <trkpt lat="50.75527" lon="4.62491">
        <ele>72</ele>
      </trkpt>
      <trkpt lat="50.75536" lon="4.62534">
        <ele>69</ele>
      </trkpt>
      <trkpt lat="50.75565" lon="4.62617">
        <ele>65</ele>
      </trkpt>
      <trkpt lat="50.75588" lon="4.6267">
        <ele>62</ele>
      </trkpt>
      <trkpt lat="50.75606" lon="4.62702">
        <ele>62</ele>
      </trkpt>
      <trkpt lat="50.75627" lon="4.6273">
        <ele>62</ele>
      </trkpt>
      <trkpt lat="50.75713" lon="4.62823">
        <ele>59</ele>
      </trkpt>
      <trkpt lat="50.75726" lon="4.62841">
        <ele>56</ele>
      </trkpt>
      <trkpt lat="50.75739" lon="4.62865">
        <ele>56</ele>
      </trkpt>
      <trkpt lat="50.75752" lon="4.62893">
        <ele>56</ele>
      </trkpt>
      <trkpt lat="50.75849" lon="4.63153">
        <ele>63</ele>
      </trkpt>
      <trkpt lat="50.75853" lon="4.63167">
        <ele>62</ele>
      </trkpt>
      <trkpt lat="50.75854" lon="4.63181">
        <ele>62</ele>
      </trkpt>
      <trkpt lat="50.75854" lon="4.63284">
        <ele>59</ele>
      </trkpt>
      <trkpt lat="50.7586" lon="4.63448">
        <ele>51</ele>
      </trkpt>
      <trkpt lat="50.75862" lon="4.63474">
        <ele>51</ele>
      </trkpt>
      <trkpt lat="50.75868" lon="4.63494">
        <ele>49</ele>
      </trkpt>
      <trkpt lat="50.75891" lon="4.63556">
        <ele>48</ele>
      </trkpt>
      <trkpt lat="50.75896" lon="4.63579">
        <ele>47</ele>
      </trkpt>
      <trkpt lat="50.75903" lon="4.63635">
        <ele>47</ele>
      </trkpt>
      <trkpt lat="50.75908" lon="4.63721">
        <ele>46</ele>
      </trkpt>
      <trkpt lat="50.75912" lon="4.63866">
        <ele>41</ele>
      </trkpt>
      <trkpt lat="50.75918" lon="4.63951">
        <ele>40</ele>
      </trkpt>
      <trkpt lat="50.75922" lon="4.63974">
        <ele>39</ele>
      </trkpt>
      <trkpt lat="50.75926" lon="4.63974">
        <ele>39</ele>
      </trkpt>
      <trkpt lat="50.75953" lon="4.6397">
        <ele>38</ele>
      </trkpt>
      <trkpt lat="50.76012" lon="4.63955">
        <ele>38</ele>
      </trkpt>
      <trkpt lat="50.76052" lon="4.63934">
        <ele>37</ele>
      </trkpt>
      <trkpt lat="50.76096" lon="4.63924">
        <ele>37</ele>
      </trkpt>
      <trkpt lat="50.76114" lon="4.63927">
        <ele>36</ele>
      </trkpt>
      <trkpt lat="50.76259" lon="4.64005">
        <ele>36</ele>
      </trkpt>
      <trkpt lat="50.76271" lon="4.6401">
        <ele>35</ele>
      </trkpt>
      <trkpt lat="50.76288" lon="4.64012">
        <ele>35</ele>
      </trkpt>
      <trkpt lat="50.76302" lon="4.6401">
        <ele>35</ele>
      </trkpt>
      <trkpt lat="50.76318" lon="4.64002">
        <ele>35</ele>
      </trkpt>
      <trkpt lat="50.76356" lon="4.63971">
        <ele>35</ele>
      </trkpt>
      <trkpt lat="50.76392" lon="4.63936">
        <ele>35</ele>
      </trkpt>
      <trkpt lat="50.76439" lon="4.63886">
        <ele>35</ele>
      </trkpt>
      <trkpt lat="50.76471" lon="4.63839">
        <ele>35</ele>
      </trkpt>
      <trkpt lat="50.765" lon="4.6381">
        <ele>36</ele>
      </trkpt>
      <trkpt lat="50.76529" lon="4.63788">
        <ele>36</ele>
      </trkpt>
      <trkpt lat="50.7663" lon="4.63728">
        <ele>36</ele>
      </trkpt>
      <trkpt lat="50.76664" lon="4.63706">
        <ele>36</ele>
      </trkpt>
      <trkpt lat="50.76701" lon="4.63674">
        <ele>36</ele>
      </trkpt>
      <trkpt lat="50.76743" lon="4.63632">
        <ele>38</ele>
      </trkpt>
      <trkpt lat="50.76813" lon="4.63567">
        <ele>41</ele>
      </trkpt>
      <trkpt lat="50.76861" lon="4.63532">
        <ele>43</ele>
      </trkpt>
      <trkpt lat="50.76895" lon="4.63511">
        <ele>44</ele>
      </trkpt>
      <trkpt lat="50.7693" lon="4.63499">
        <ele>46</ele>
      </trkpt>
      <trkpt lat="50.76953" lon="4.63497">
        <ele>47</ele>
      </trkpt>
      <trkpt lat="50.76976" lon="4.63499">
        <ele>47</ele>
      </trkpt>
      <trkpt lat="50.77116" lon="4.63545">
        <ele>41</ele>
      </trkpt>
      <trkpt lat="50.77163" lon="4.63552">
        <ele>40</ele>
      </trkpt>
      <trkpt lat="50.77203" lon="4.63549">
        <ele>37</ele>
      </trkpt>
      <trkpt lat="50.77242" lon="4.63539">
        <ele>36</ele>
      </trkpt>
      <trkpt lat="50.77288" lon="4.63535">
        <ele>35</ele>
      </trkpt>
      <trkpt lat="50.77364" lon="4.63542">
        <ele>35</ele>
      </trkpt>
      <trkpt lat="50.77409" lon="4.63543">
        <ele>34</ele>
      </trkpt>
      <trkpt lat="50.77434" lon="4.63538">
        <ele>34</ele>
      </trkpt>
      <trkpt lat="50.77452" lon="4.63532">
        <ele>34</ele>
      </trkpt>
      <trkpt lat="50.77539" lon="4.6349">
        <ele>34</ele>
      </trkpt>
      <trkpt lat="50.77614" lon="4.63463">
        <ele>33</ele>
      </trkpt>
      <trkpt lat="50.77807" lon="4.63384">
        <ele>34</ele>
      </trkpt>
      <trkpt lat="50.77822" lon="4.63375">
        <ele>34</ele>
      </trkpt>
      <trkpt lat="50.77832" lon="4.63366">
        <ele>34</ele>
      </trkpt>
      <trkpt lat="50.7784" lon="4.63355">
        <ele>34</ele>
      </trkpt>
      <trkpt lat="50.77848" lon="4.63338">
        <ele>33</ele>
      </trkpt>
      <trkpt lat="50.77855" lon="4.63312">
        <ele>34</ele>
      </trkpt>
      <trkpt lat="50.77859" lon="4.63294">
        <ele>34</ele>
      </trkpt>
      <trkpt lat="50.77889" lon="4.63298">
        <ele>34</ele>
      </trkpt>
      <trkpt lat="50.77994" lon="4.63305">
        <ele>33</ele>
      </trkpt>
      <trkpt lat="50.78175" lon="4.63351">
        <ele>33</ele>
      </trkpt>
      <trkpt lat="50.78202" lon="4.63355">
        <ele>34</ele>
      </trkpt>
      <trkpt lat="50.78255" lon="4.63357">
        <ele>34</ele>
      </trkpt>
      <trkpt lat="50.78375" lon="4.63402">
        <ele>39</ele>
      </trkpt>
      <trkpt lat="50.78386" lon="4.63409">
        <ele>39</ele>
      </trkpt>
      <trkpt lat="50.78398" lon="4.63411">
        <ele>37</ele>
      </trkpt>
      <trkpt lat="50.78417" lon="4.63413">
        <ele>36</ele>
      </trkpt>
      <trkpt lat="50.78429" lon="4.63411">
        <ele>37</ele>
      </trkpt>
      <trkpt lat="50.78481" lon="4.63416">
        <ele>37</ele>
      </trkpt>
      <trkpt lat="50.78529" lon="4.63417">
        <ele>37</ele>
      </trkpt>
      <trkpt lat="50.78618" lon="4.63393">
        <ele>38</ele>
      </trkpt>
      <trkpt lat="50.7865" lon="4.63387">
        <ele>38</ele>
      </trkpt>
      <trkpt lat="50.78658" lon="4.63388">
        <ele>38</ele>
      </trkpt>
      <trkpt lat="50.78681" lon="4.63398">
        <ele>35</ele>
      </trkpt>
      <trkpt lat="50.78703" lon="4.63421">
        <ele>33</ele>
      </trkpt>
      <trkpt lat="50.78718" lon="4.6344">
        <ele>33</ele>
      </trkpt>
      <trkpt lat="50.78744" lon="4.63491">
        <ele>32</ele>
      </trkpt>
      <trkpt lat="50.78766" lon="4.63545">
        <ele>28</ele>
      </trkpt>
      <trkpt lat="50.78786" lon="4.63578">
        <ele>27</ele>
      </trkpt>
      <trkpt lat="50.78948" lon="4.63759">
        <ele>29</ele>
      </trkpt>
      <trkpt lat="50.78974" lon="4.63778">
        <ele>29</ele>
      </trkpt>
      <trkpt lat="50.79006" lon="4.63793">
        <ele>29</ele>
      </trkpt>
      <trkpt lat="50.79189" lon="4.6383">
        <ele>32</ele>
      </trkpt>
      <trkpt lat="50.79266" lon="4.63848">
        <ele>32</ele>
      </trkpt>
      <trkpt lat="50.793" lon="4.63868">
        <ele>32</ele>
      </trkpt>
      <trkpt lat="50.79338" lon="4.63893">
        <ele>31</ele>
      </trkpt>
      <trkpt lat="50.79383" lon="4.63939">
        <ele>29</ele>
      </trkpt>
      <trkpt lat="50.79476" lon="4.64059">
        <ele>29</ele>
      </trkpt>
      <trkpt lat="50.79524" lon="4.64115">
        <ele>30</ele>
      </trkpt>
      <trkpt lat="50.79686" lon="4.64262">
        <ele>31</ele>
      </trkpt>
      <trkpt lat="50.79736" lon="4.64301">
        <ele>31</ele>
      </trkpt>
      <trkpt lat="50.7976" lon="4.64323">
        <ele>31</ele>
      </trkpt>
      <trkpt lat="50.79772" lon="4.6434">
        <ele>30</ele>
      </trkpt>
      <trkpt lat="50.79781" lon="4.64354">
        <ele>30</ele>
      </trkpt>
      <trkpt lat="50.79815" lon="4.64449">
        <ele>29</ele>
      </trkpt>
      <trkpt lat="50.79818" lon="4.64464">
        <ele>29</ele>
      </trkpt>
      <trkpt lat="50.79817" lon="4.64487">
        <ele>29</ele>
      </trkpt>
      <trkpt lat="50.79809" lon="4.64553">
        <ele>29</ele>
      </trkpt>
      <trkpt lat="50.7981" lon="4.64616">
        <ele>30</ele>
      </trkpt>
      <trkpt lat="50.79808" lon="4.64673">
        <ele>31</ele>
      </trkpt>
      <trkpt lat="50.79779" lon="4.64909">
        <ele>30</ele>
      </trkpt>
      <trkpt lat="50.79781" lon="4.6492">
        <ele>31</ele>
      </trkpt>
      <trkpt lat="50.79784" lon="4.64933">
        <ele>31</ele>
      </trkpt>
      <trkpt lat="50.80049" lon="4.64705">
        <ele>27</ele>
      </trkpt>
      <trkpt lat="50.80106" lon="4.64669">
        <ele>28</ele>
      </trkpt>
      <trkpt lat="50.80249" lon="4.64583">
        <ele>27</ele>
      </trkpt>
      <trkpt lat="50.80257" lon="4.64583">
        <ele>27</ele>
      </trkpt>
      <trkpt lat="50.80259" lon="4.64537">
        <ele>27</ele>
      </trkpt>
      <trkpt lat="50.80278" lon="4.6437">
        <ele>28</ele>
      </trkpt>
      <trkpt lat="50.80288" lon="4.64218">
        <ele>28</ele>
      </trkpt>
      <trkpt lat="50.80288" lon="4.64179">
        <ele>28</ele>
      </trkpt>
      <trkpt lat="50.80282" lon="4.64142">
        <ele>28</ele>
      </trkpt>
      <trkpt lat="50.80225" lon="4.63924">
        <ele>27</ele>
      </trkpt>
      <trkpt lat="50.80173" lon="4.63724">
        <ele>28</ele>
      </trkpt>
      <trkpt lat="50.80134" lon="4.63566">
        <ele>30</ele>
      </trkpt>
      <trkpt lat="50.80064" lon="4.63252">
        <ele>29</ele>
      </trkpt>
      <trkpt lat="50.80064" lon="4.63236">
        <ele>30</ele>
      </trkpt>
      <trkpt lat="50.80073" lon="4.63123">
        <ele>31</ele>
      </trkpt>
      <trkpt lat="50.80081" lon="4.63068">
        <ele>32</ele>
      </trkpt>
      <trkpt lat="50.80103" lon="4.62968">
        <ele>35</ele>
      </trkpt>
      <trkpt lat="50.8013" lon="4.62977">
        <ele>35</ele>
      </trkpt>
      <trkpt lat="50.80146" lon="4.62978">
        <ele>35</ele>
      </trkpt>
      <trkpt lat="50.80157" lon="4.62978">
        <ele>35</ele>
      </trkpt>
      <trkpt lat="50.80173" lon="4.62973">
        <ele>35</ele>
      </trkpt>
      <trkpt lat="50.8019" lon="4.62965">
        <ele>34</ele>
      </trkpt>
      <trkpt lat="50.80308" lon="4.62874">
        <ele>37</ele>
      </trkpt>
      <trkpt lat="50.80329" lon="4.62864">
        <ele>38</ele>
      </trkpt>
      <trkpt lat="50.80384" lon="4.62849">
        <ele>38</ele>
      </trkpt>
      <trkpt lat="50.80407" lon="4.62849">
        <ele>38</ele>
      </trkpt>
      <trkpt lat="50.80503" lon="4.62878">
        <ele>39</ele>
      </trkpt>
      <trkpt lat="50.80525" lon="4.62879">
        <ele>40</ele>
      </trkpt>
      <trkpt lat="50.80535" lon="4.62877">
        <ele>40</ele>
      </trkpt>
      <trkpt lat="50.80586" lon="4.62857">
        <ele>41</ele>
      </trkpt>
      <trkpt lat="50.80605" lon="4.62852">
        <ele>42</ele>
      </trkpt>
      <trkpt lat="50.80622" lon="4.62853">
        <ele>42</ele>
      </trkpt>
      <trkpt lat="50.80812" lon="4.62898">
        <ele>46</ele>
      </trkpt>
      <trkpt lat="50.80891" lon="4.62936">
        <ele>43</ele>
      </trkpt>
      <trkpt lat="50.80901" lon="4.62938">
        <ele>43</ele>
      </trkpt>
      <trkpt lat="50.80923" lon="4.62935">
        <ele>43</ele>
      </trkpt>
      <trkpt lat="50.80936" lon="4.62928">
        <ele>43</ele>
      </trkpt>
      <trkpt lat="50.80949" lon="4.62918">
        <ele>43</ele>
      </trkpt>
      <trkpt lat="50.81078" lon="4.62749">
        <ele>49</ele>
      </trkpt>
      <trkpt lat="50.81099" lon="4.62733">
        <ele>47</ele>
      </trkpt>
      <trkpt lat="50.81112" lon="4.62728">
        <ele>46</ele>
      </trkpt>
      <trkpt lat="50.81136" lon="4.62726">
        <ele>46</ele>
      </trkpt>
      <trkpt lat="50.81169" lon="4.62731">
        <ele>44</ele>
      </trkpt>
      <trkpt lat="50.81184" lon="4.62732">
        <ele>40</ele>
      </trkpt>
      <trkpt lat="50.8119" lon="4.6273">
        <ele>40</ele>
      </trkpt>
      <trkpt lat="50.81204" lon="4.62725">
        <ele>39</ele>
      </trkpt>
      <trkpt lat="50.81265" lon="4.62675">
        <ele>35</ele>
      </trkpt>
      <trkpt lat="50.81432" lon="4.62529">
        <ele>32</ele>
      </trkpt>
      <trkpt lat="50.8153" lon="4.62431">
        <ele>36</ele>
      </trkpt>
      <trkpt lat="50.81542" lon="4.62446">
        <ele>36</ele>
      </trkpt>
      <trkpt lat="50.81564" lon="4.62465">
        <ele>36</ele>
      </trkpt>
      <trkpt lat="50.81581" lon="4.62503">
        <ele>36</ele>
      </trkpt>
      <trkpt lat="50.81588" lon="4.62505">
        <ele>36</ele>
      </trkpt>
      <trkpt lat="50.81607" lon="4.62518">
        <ele>41</ele>
      </trkpt>
      <trkpt lat="50.81623" lon="4.62514">
        <ele>42</ele>
      </trkpt>
      <trkpt lat="50.81639" lon="4.62535">
        <ele>42</ele>
      </trkpt>
      <trkpt lat="50.81676" lon="4.62568">
        <ele>43</ele>
      </trkpt>
      <trkpt lat="50.81694" lon="4.62587">
        <ele>48</ele>
      </trkpt>
      <trkpt lat="50.81717" lon="4.62626">
        <ele>48</ele>
      </trkpt>
      <trkpt lat="50.81722" lon="4.62629">
        <ele>49</ele>
      </trkpt>
      <trkpt lat="50.81731" lon="4.62625">
        <ele>49</ele>
      </trkpt>
      <trkpt lat="50.81742" lon="4.6261">
        <ele>49</ele>
      </trkpt>
      <trkpt lat="50.81746" lon="4.62594">
        <ele>49</ele>
      </trkpt>
      <trkpt lat="50.81747" lon="4.62551">
        <ele>50</ele>
      </trkpt>
      <trkpt lat="50.81748" lon="4.62545">
        <ele>50</ele>
      </trkpt>
      <trkpt lat="50.81753" lon="4.62539">
        <ele>51</ele>
      </trkpt>
      <trkpt lat="50.81804" lon="4.62691">
        <ele>52</ele>
      </trkpt>
      <trkpt lat="50.81813" lon="4.62715">
        <ele>52</ele>
      </trkpt>
      <trkpt lat="50.81824" lon="4.62738">
        <ele>51</ele>
      </trkpt>
      <trkpt lat="50.81941" lon="4.62962">
        <ele>47</ele>
      </trkpt>
      <trkpt lat="50.81954" lon="4.62976">
        <ele>47</ele>
      </trkpt>
      <trkpt lat="50.81962" lon="4.62981">
        <ele>47</ele>
      </trkpt>
      <trkpt lat="50.82018" lon="4.62998">
        <ele>51</ele>
      </trkpt>
      <trkpt lat="50.82032" lon="4.63005">
        <ele>51</ele>
      </trkpt>
      <trkpt lat="50.82047" lon="4.63015">
        <ele>52</ele>
      </trkpt>
      <trkpt lat="50.82078" lon="4.63049">
        <ele>52</ele>
      </trkpt>
      <trkpt lat="50.82091" lon="4.63065">
        <ele>52</ele>
      </trkpt>
      <trkpt lat="50.82119" lon="4.63107">
        <ele>54</ele>
      </trkpt>
      <trkpt lat="50.82175" lon="4.63184">
        <ele>54</ele>
      </trkpt>
      <trkpt lat="50.82209" lon="4.63226">
        <ele>53</ele>
      </trkpt>
      <trkpt lat="50.82276" lon="4.633">
        <ele>46</ele>
      </trkpt>
      <trkpt lat="50.82312" lon="4.63374">
        <ele>42</ele>
      </trkpt>
      <trkpt lat="50.8232" lon="4.63382">
        <ele>42</ele>
      </trkpt>
      <trkpt lat="50.82362" lon="4.63416">
        <ele>39</ele>
      </trkpt>
      <trkpt lat="50.82384" lon="4.63424">
        <ele>38</ele>
      </trkpt>
      <trkpt lat="50.82403" lon="4.63425">
        <ele>38</ele>
      </trkpt>
      <trkpt lat="50.82431" lon="4.63423">
        <ele>38</ele>
      </trkpt>
      <trkpt lat="50.82444" lon="4.63422">
        <ele>38</ele>
      </trkpt>
      <trkpt lat="50.82466" lon="4.63428">
        <ele>38</ele>
      </trkpt>
      <trkpt lat="50.82528" lon="4.63461">
        <ele>39</ele>
      </trkpt>
      <trkpt lat="50.82557" lon="4.63467">
        <ele>39</ele>
      </trkpt>
      <trkpt lat="50.82576" lon="4.63467">
        <ele>39</ele>
      </trkpt>
      <trkpt lat="50.82675" lon="4.63445">
        <ele>39</ele>
      </trkpt>
      <trkpt lat="50.82739" lon="4.63449">
        <ele>39</ele>
      </trkpt>
      <trkpt lat="50.82834" lon="4.63437">
        <ele>39</ele>
      </trkpt>
      <trkpt lat="50.82856" lon="4.63436">
        <ele>40</ele>
      </trkpt>
      <trkpt lat="50.82901" lon="4.63448">
        <ele>41</ele>
      </trkpt>
      <trkpt lat="50.82936" lon="4.63454">
        <ele>41</ele>
      </trkpt>
      <trkpt lat="50.83028" lon="4.63459">
        <ele>43</ele>
      </trkpt>
      <trkpt lat="50.83068" lon="4.63468">
        <ele>43</ele>
      </trkpt>
      <trkpt lat="50.83167" lon="4.63501">
        <ele>36</ele>
      </trkpt>
      <trkpt lat="50.83212" lon="4.63513">
        <ele>34</ele>
      </trkpt>
      <trkpt lat="50.8325" lon="4.6352">
        <ele>34</ele>
      </trkpt>
      <trkpt lat="50.83282" lon="4.63533">
        <ele>35</ele>
      </trkpt>
      <trkpt lat="50.83331" lon="4.6357">
        <ele>35</ele>
      </trkpt>
      <trkpt lat="50.83368" lon="4.63603">
        <ele>35</ele>
      </trkpt>
      <trkpt lat="50.83381" lon="4.6361">
        <ele>34</ele>
      </trkpt>
      <trkpt lat="50.83415" lon="4.6362">
        <ele>35</ele>
      </trkpt>
      <trkpt lat="50.83476" lon="4.63654">
        <ele>34</ele>
      </trkpt>
      <trkpt lat="50.83502" lon="4.63662">
        <ele>32</ele>
      </trkpt>
      <trkpt lat="50.83512" lon="4.63663">
        <ele>32</ele>
      </trkpt>
      <trkpt lat="50.83529" lon="4.63656">
        <ele>35</ele>
      </trkpt>
      <trkpt lat="50.83591" lon="4.63623">
        <ele>36</ele>
      </trkpt>
      <trkpt lat="50.83674" lon="4.63598">
        <ele>39</ele>
      </trkpt>
      <trkpt lat="50.83689" lon="4.63603">
        <ele>43</ele>
      </trkpt>
      <trkpt lat="50.83695" lon="4.6361">
        <ele>43</ele>
      </trkpt>
      <trkpt lat="50.83707" lon="4.63631">
        <ele>44</ele>
      </trkpt>
      <trkpt lat="50.83734" lon="4.63686">
        <ele>42</ele>
      </trkpt>
      <trkpt lat="50.83786" lon="4.63811">
        <ele>43</ele>
      </trkpt>
      <trkpt lat="50.83796" lon="4.63829">
        <ele>41</ele>
      </trkpt>
      <trkpt lat="50.83804" lon="4.63835">
        <ele>41</ele>
      </trkpt>
      <trkpt lat="50.83877" lon="4.63859">
        <ele>43</ele>
      </trkpt>
      <trkpt lat="50.839" lon="4.63869">
        <ele>43</ele>
      </trkpt>
      <trkpt lat="50.83968" lon="4.63914">
        <ele>42</ele>
      </trkpt>
      <trkpt lat="50.8401" lon="4.63948">
        <ele>41</ele>
      </trkpt>
      <trkpt lat="50.84044" lon="4.63987">
        <ele>41</ele>
      </trkpt>
      <trkpt lat="50.84075" lon="4.6401">
        <ele>39</ele>
      </trkpt>
      <trkpt lat="50.84102" lon="4.64023">
        <ele>40</ele>
      </trkpt>
      <trkpt lat="50.84107" lon="4.64025">
        <ele>40</ele>
      </trkpt>
      <trkpt lat="50.84123" lon="4.6402">
        <ele>40</ele>
      </trkpt>
      <trkpt lat="50.8415" lon="4.63987">
        <ele>43</ele>
      </trkpt>
      <trkpt lat="50.84157" lon="4.63982">
        <ele>43</ele>
      </trkpt>
      <trkpt lat="50.84171" lon="4.6398">
        <ele>43</ele>
      </trkpt>
      <trkpt lat="50.8419" lon="4.63991">
        <ele>43</ele>
      </trkpt>
      <trkpt lat="50.84264" lon="4.64083">
        <ele>39</ele>
      </trkpt>
      <trkpt lat="50.84337" lon="4.64145">
        <ele>39</ele>
      </trkpt>
      <trkpt lat="50.84369" lon="4.64178">
        <ele>38</ele>
      </trkpt>
      <trkpt lat="50.84376" lon="4.6419">
        <ele>38</ele>
      </trkpt>
      <trkpt lat="50.84391" lon="4.64213">
        <ele>37</ele>
      </trkpt>
      <trkpt lat="50.8441" lon="4.64253">
        <ele>37</ele>
      </trkpt>
      <trkpt lat="50.84422" lon="4.64288">
        <ele>37</ele>
      </trkpt>
      <trkpt lat="50.84445" lon="4.64374">
        <ele>37</ele>
      </trkpt>
      <trkpt lat="50.84453" lon="4.64399">
        <ele>37</ele>
      </trkpt>
      <trkpt lat="50.84472" lon="4.64451">
        <ele>35</ele>
      </trkpt>
      <trkpt lat="50.8449" lon="4.64484">
        <ele>35</ele>
      </trkpt>
      <trkpt lat="50.84553" lon="4.64538">
        <ele>37</ele>
      </trkpt>
      <trkpt lat="50.84622" lon="4.64581">
        <ele>38</ele>
      </trkpt>
      <trkpt lat="50.84642" lon="4.64595">
        <ele>38</ele>
      </trkpt>
      <trkpt lat="50.84656" lon="4.64608">
        <ele>38</ele>
      </trkpt>
      <trkpt lat="50.8473" lon="4.64719">
        <ele>37</ele>
      </trkpt>
      <trkpt lat="50.84762" lon="4.64755">
        <ele>34</ele>
      </trkpt>
      <trkpt lat="50.84828" lon="4.64807">
        <ele>34</ele>
      </trkpt>
      <trkpt lat="50.84891" lon="4.64843">
        <ele>32</ele>
      </trkpt>
      <trkpt lat="50.84956" lon="4.64906">
        <ele>34</ele>
      </trkpt>
      <trkpt lat="50.84967" lon="4.64914">
        <ele>33</ele>
      </trkpt>
      <trkpt lat="50.85395" lon="4.65205">
        <ele>41</ele>
      </trkpt>
      <trkpt lat="50.85401" lon="4.65187">
        <ele>41</ele>
      </trkpt>
      <trkpt lat="50.85438" lon="4.6509">
        <ele>45</ele>
      </trkpt>
      <trkpt lat="50.85548" lon="4.64604">
        <ele>53</ele>
      </trkpt>
      <trkpt lat="50.85552" lon="4.64556">
        <ele>54</ele>
      </trkpt>
      <trkpt lat="50.85549" lon="4.64503">
        <ele>54</ele>
      </trkpt>
      <trkpt lat="50.85541" lon="4.64456">
        <ele>54</ele>
      </trkpt>
      <trkpt lat="50.85531" lon="4.64417">
        <ele>54</ele>
      </trkpt>
      <trkpt lat="50.85488" lon="4.643">
        <ele>55</ele>
      </trkpt>
      <trkpt lat="50.85415" lon="4.64134">
        <ele>58</ele>
      </trkpt>
      <trkpt lat="50.85412" lon="4.64128">
        <ele>58</ele>
      </trkpt>
      <trkpt lat="50.85409" lon="4.64121">
        <ele>59</ele>
      </trkpt>
      <trkpt lat="50.85487" lon="4.6379">
        <ele>59</ele>
      </trkpt>
      <trkpt lat="50.85483" lon="4.63772">
        <ele>59</ele>
      </trkpt>
      <trkpt lat="50.85424" lon="4.63602">
        <ele>60</ele>
      </trkpt>
      <trkpt lat="50.85388" lon="4.635">
        <ele>61</ele>
      </trkpt>
      <trkpt lat="50.85376" lon="4.63452">
        <ele>62</ele>
      </trkpt>
      <trkpt lat="50.85362" lon="4.63368">
        <ele>62</ele>
      </trkpt>
      <trkpt lat="50.85347" lon="4.63316">
        <ele>62</ele>
      </trkpt>
      <trkpt lat="50.85341" lon="4.63299">
        <ele>62</ele>
      </trkpt>
      <trkpt lat="50.85332" lon="4.63277">
        <ele>62</ele>
      </trkpt>
      <trkpt lat="50.85298" lon="4.63207">
        <ele>61</ele>
      </trkpt>
      <trkpt lat="50.85198" lon="4.63038">
        <ele>61</ele>
      </trkpt>
      <trkpt lat="50.85149" lon="4.62945">
        <ele>64</ele>
      </trkpt>
      <trkpt lat="50.85053" lon="4.62725">
        <ele>66</ele>
      </trkpt>
      <trkpt lat="50.8504" lon="4.62686">
        <ele>66</ele>
      </trkpt>
      <trkpt lat="50.85035" lon="4.62659">
        <ele>66</ele>
      </trkpt>
      <trkpt lat="50.85033" lon="4.62646">
        <ele>66</ele>
      </trkpt>
      <trkpt lat="50.85028" lon="4.6264">
        <ele>66</ele>
      </trkpt>
      <trkpt lat="50.85022" lon="4.62626">
        <ele>66</ele>
      </trkpt>
      <trkpt lat="50.85007" lon="4.62584">
        <ele>66</ele>
      </trkpt>
      <trkpt lat="50.84907" lon="4.62443">
        <ele>68</ele>
      </trkpt>
      <trkpt lat="50.84754" lon="4.62244">
        <ele>68</ele>
      </trkpt>
      <trkpt lat="50.84734" lon="4.62221">
        <ele>68</ele>
      </trkpt>
      <trkpt lat="50.84675" lon="4.62175">
        <ele>69</ele>
      </trkpt>
      <trkpt lat="50.84562" lon="4.62058">
        <ele>72</ele>
      </trkpt>
      <trkpt lat="50.84493" lon="4.62003">
        <ele>74</ele>
      </trkpt>
      <trkpt lat="50.84451" lon="4.61954">
        <ele>74</ele>
      </trkpt>
      <trkpt lat="50.84435" lon="4.61925">
        <ele>75</ele>
      </trkpt>
      <trkpt lat="50.84314" lon="4.61609">
        <ele>75</ele>
      </trkpt>
      <trkpt lat="50.8419" lon="4.61421">
        <ele>74</ele>
      </trkpt>
      <trkpt lat="50.83979" lon="4.61153">
        <ele>84</ele>
      </trkpt>
      <trkpt lat="50.83905" lon="4.61052">
        <ele>89</ele>
      </trkpt>
      <trkpt lat="50.83855" lon="4.60974">
        <ele>90</ele>
      </trkpt>
      <trkpt lat="50.83836" lon="4.60917">
        <ele>89</ele>
      </trkpt>
      <trkpt lat="50.83707" lon="4.6068">
        <ele>89</ele>
      </trkpt>
      <trkpt lat="50.83492" lon="4.60252">
        <ele>90</ele>
      </trkpt>
      <trkpt lat="50.83468" lon="4.60193">
        <ele>91</ele>
      </trkpt>
      <trkpt lat="50.83435" lon="4.60117">
        <ele>94</ele>
      </trkpt>
      <trkpt lat="50.8342" lon="4.60083">
        <ele>95</ele>
      </trkpt>
      <trkpt lat="50.83431" lon="4.60066">
        <ele>97</ele>
      </trkpt>
      <trkpt lat="50.8346" lon="4.60041">
        <ele>97</ele>
      </trkpt>
      <trkpt lat="50.83673" lon="4.59877">
        <ele>101</ele>
      </trkpt>
      <trkpt lat="50.83695" lon="4.59858">
        <ele>98</ele>
      </trkpt>
      <trkpt lat="50.83726" lon="4.59826">
        <ele>101</ele>
      </trkpt>
      <trkpt lat="50.83886" lon="4.59637">
        <ele>93</ele>
      </trkpt>
      <trkpt lat="50.84092" lon="4.59394">
        <ele>88</ele>
      </trkpt>
      <trkpt lat="50.84114" lon="4.59374">
        <ele>85</ele>
      </trkpt>
      <trkpt lat="50.84139" lon="4.59358">
        <ele>85</ele>
      </trkpt>
      <trkpt lat="50.84175" lon="4.59358">
        <ele>84</ele>
      </trkpt>
      <trkpt lat="50.84193" lon="4.59363">
        <ele>82</ele>
      </trkpt>
      <trkpt lat="50.84257" lon="4.59402">
        <ele>81</ele>
      </trkpt>
      <trkpt lat="50.8431" lon="4.59415">
        <ele>77</ele>
      </trkpt>
      <trkpt lat="50.84378" lon="4.59427">
        <ele>74</ele>
      </trkpt>
      <trkpt lat="50.84406" lon="4.5943">
        <ele>73</ele>
      </trkpt>
      <trkpt lat="50.84434" lon="4.59428">
        <ele>70</ele>
      </trkpt>
      <trkpt lat="50.84454" lon="4.59419">
        <ele>70</ele>
      </trkpt>
      <trkpt lat="50.84484" lon="4.59401">
        <ele>70</ele>
      </trkpt>
      <trkpt lat="50.8465" lon="4.5926">
        <ele>60</ele>
      </trkpt>
      <trkpt lat="50.84751" lon="4.59163">
        <ele>55</ele>
      </trkpt>
      <trkpt lat="50.8477" lon="4.59147">
        <ele>54</ele>
      </trkpt>
      <trkpt lat="50.84782" lon="4.59172">
        <ele>54</ele>
      </trkpt>
      <trkpt lat="50.84823" lon="4.59269">
        <ele>54</ele>
      </trkpt>
      <trkpt lat="50.84869" lon="4.59391">
        <ele>54</ele>
      </trkpt>
      <trkpt lat="50.8488" lon="4.59381">
        <ele>54</ele>
      </trkpt>
      <trkpt lat="50.84927" lon="4.5936">
        <ele>54</ele>
      </trkpt>
      <trkpt lat="50.85005" lon="4.59327">
        <ele>54</ele>
      </trkpt>
      <trkpt lat="50.8502" lon="4.59314">
        <ele>57</ele>
      </trkpt>
      <trkpt lat="50.85089" lon="4.592">
        <ele>62</ele>
      </trkpt>
      <trkpt lat="50.85206" lon="4.59001">
        <ele>78</ele>
      </trkpt>
      <trkpt lat="50.85274" lon="4.58913">
        <ele>76</ele>
      </trkpt>
      <trkpt lat="50.8541" lon="4.58754">
        <ele>67</ele>
      </trkpt>
      <trkpt lat="50.85421" lon="4.5874">
        <ele>67</ele>
      </trkpt>
      <trkpt lat="50.85431" lon="4.58731">
        <ele>64</ele>
      </trkpt>
      <trkpt lat="50.85603" lon="4.58543">
        <ele>54</ele>
      </trkpt>
      <trkpt lat="50.85634" lon="4.58517">
        <ele>53</ele>
      </trkpt>
      <trkpt lat="50.85718" lon="4.58456">
        <ele>51</ele>
      </trkpt>
      <trkpt lat="50.86029" lon="4.5819">
        <ele>69</ele>
      </trkpt>
      <trkpt lat="50.86152" lon="4.58091">
        <ele>78</ele>
      </trkpt>
      <trkpt lat="50.86216" lon="4.58044">
        <ele>84</ele>
      </trkpt>
      <trkpt lat="50.86244" lon="4.58032">
        <ele>84</ele>
      </trkpt>
      <trkpt lat="50.86278" lon="4.58027">
        <ele>85</ele>
      </trkpt>
      <trkpt lat="50.86304" lon="4.5803">
        <ele>85</ele>
      </trkpt>
      <trkpt lat="50.86319" lon="4.58034">
        <ele>85</ele>
      </trkpt>
      <trkpt lat="50.86621" lon="4.58159">
        <ele>89</ele>
      </trkpt>
      <trkpt lat="50.86633" lon="4.58163">
        <ele>89</ele>
      </trkpt>
      <trkpt lat="50.86655" lon="4.58165">
        <ele>89</ele>
      </trkpt>
      <trkpt lat="50.86665" lon="4.58164">
        <ele>89</ele>
      </trkpt>
      <trkpt lat="50.86688" lon="4.58155">
        <ele>89</ele>
      </trkpt>
      <trkpt lat="50.86697" lon="4.5815">
        <ele>89</ele>
      </trkpt>
      <trkpt lat="50.86722" lon="4.58123">
        <ele>90</ele>
      </trkpt>
      <trkpt lat="50.86767" lon="4.58052">
        <ele>85</ele>
      </trkpt>
      <trkpt lat="50.86798" lon="4.58016">
        <ele>84</ele>
      </trkpt>
      <trkpt lat="50.86825" lon="4.57995">
        <ele>84</ele>
      </trkpt>
      <trkpt lat="50.86869" lon="4.57978">
        <ele>81</ele>
      </trkpt>
      <trkpt lat="50.86941" lon="4.57954">
        <ele>78</ele>
      </trkpt>
      <trkpt lat="50.86972" lon="4.57946">
        <ele>78</ele>
      </trkpt>
      <trkpt lat="50.87083" lon="4.57927">
        <ele>69</ele>
      </trkpt>
      <trkpt lat="50.8719" lon="4.57904">
        <ele>63</ele>
      </trkpt>
      <trkpt lat="50.87211" lon="4.57898">
        <ele>62</ele>
      </trkpt>
      <trkpt lat="50.87317" lon="4.57847">
        <ele>58</ele>
      </trkpt>
      <trkpt lat="50.874" lon="4.57823">
        <ele>52</ele>
      </trkpt>
      <trkpt lat="50.87468" lon="4.57796">
        <ele>48</ele>
      </trkpt>
      <trkpt lat="50.87488" lon="4.57784">
        <ele>48</ele>
      </trkpt>
      <trkpt lat="50.87528" lon="4.57753">
        <ele>46</ele>
      </trkpt>
      <trkpt lat="50.87536" lon="4.57744">
        <ele>46</ele>
      </trkpt>
      <trkpt lat="50.8754" lon="4.57741">
        <ele>46</ele>
      </trkpt>
      <trkpt lat="50.87545" lon="4.57742">
        <ele>46</ele>
      </trkpt>
      <trkpt lat="50.87555" lon="4.57695">
        <ele>45</ele>
      </trkpt>
      <trkpt lat="50.87556" lon="4.57663">
        <ele>46</ele>
      </trkpt>
      <trkpt lat="50.87553" lon="4.57651">
        <ele>46</ele>
      </trkpt>
      <trkpt lat="50.87521" lon="4.576">
        <ele>47</ele>
      </trkpt>
      <trkpt lat="50.87505" lon="4.57575">
        <ele>48</ele>
      </trkpt>
      <trkpt lat="50.87669" lon="4.57407">
        <ele>48</ele>
      </trkpt>
      <trkpt lat="50.87748" lon="4.57322">
        <ele>50</ele>
      </trkpt>
      <trkpt lat="50.87806" lon="4.57267">
        <ele>49</ele>
      </trkpt>
      <trkpt lat="50.8785" lon="4.57218">
        <ele>48</ele>
      </trkpt>
      <trkpt lat="50.87904" lon="4.5716">
        <ele>48</ele>
      </trkpt>
      <trkpt lat="50.87882" lon="4.57121">
        <ele>48</ele>
      </trkpt>
      <trkpt lat="50.87899" lon="4.57089">
        <ele>49</ele>
      </trkpt>
      <trkpt lat="50.8792" lon="4.57054">
        <ele>49</ele>
      </trkpt>
      <trkpt lat="50.87911" lon="4.56987">
        <ele>48</ele>
      </trkpt>
      <trkpt lat="50.87914" lon="4.56977">
        <ele>48</ele>
      </trkpt>
      <trkpt lat="50.87948" lon="4.56914">
        <ele>47</ele>
      </trkpt>
      <trkpt lat="50.88014" lon="4.56811">
        <ele>46</ele>
      </trkpt>
      <trkpt lat="50.8802" lon="4.56788">
        <ele>46</ele>
      </trkpt>
      <trkpt lat="50.88016" lon="4.56738">
        <ele>47</ele>
      </trkpt>
      <trkpt lat="50.88012" lon="4.56689">
        <ele>46</ele>
      </trkpt>
      <trkpt lat="50.88013" lon="4.5667">
        <ele>46</ele>
      </trkpt>
      <trkpt lat="50.88012" lon="4.56647">
        <ele>46</ele>
      </trkpt>
      <trkpt lat="50.88006" lon="4.56644">
        <ele>46</ele>
      </trkpt>
      <trkpt lat="50.88002" lon="4.56636">
        <ele>46</ele>
      </trkpt>
      <trkpt lat="50.88004" lon="4.56625">
        <ele>46</ele>
      </trkpt>
      <trkpt lat="50.88009" lon="4.56619">
        <ele>46</ele>
      </trkpt>
      <trkpt lat="50.88006" lon="4.56426">
        <ele>50</ele>
      </trkpt>
      <trkpt lat="50.88009" lon="4.56401">
        <ele>51</ele>
      </trkpt>
      <trkpt lat="50.88048" lon="4.56195">
        <ele>59</ele>
      </trkpt>
      <trkpt lat="50.88051" lon="4.56157">
        <ele>59</ele>
      </trkpt>
      <trkpt lat="50.88046" lon="4.5608">
        <ele>59</ele>
      </trkpt>
      <trkpt lat="50.87985" lon="4.55718">
        <ele>55</ele>
      </trkpt>
      <trkpt lat="50.87933" lon="4.55516">
        <ele>54</ele>
      </trkpt>
      <trkpt lat="50.87926" lon="4.5547">
        <ele>51</ele>
      </trkpt>
      <trkpt lat="50.87885" lon="4.55135">
        <ele>54</ele>
      </trkpt>
    </trkseg>
  </trk>
</gpx>
