<?xml version="1.0" encoding="UTF-8"?>
<gpx xmlns="http://www.topografix.com/GPX/1/1" creator="RouteYou" version="1.1" xmlns:xsi="http://www.w3.org/2001/XMLSchema-instance" xsi:schemaLocation="http://www.topografix.com/GPX/1/1 http://www.topografix.com/GPX/1/1/gpx.xsd">
  <trk>
    <name>Lier 2025</name>
    <desc></desc>
    <trkseg>
      <trkpt lat="50.87771" lon="4.56935">
        <ele>52</ele>
      </trkpt>
      <trkpt lat="50.87798" lon="4.56991">
        <ele>51</ele>
      </trkpt>
      <trkpt lat="50.8781" lon="4.57023">
        <ele>52</ele>
      </trkpt>
      <trkpt lat="50.87821" lon="4.57058">
        <ele>52</ele>
      </trkpt>
      <trkpt lat="50.87829" lon="4.57074">
        <ele>51</ele>
      </trkpt>
      <trkpt lat="50.87866" lon="4.57102">
        <ele>49</ele>
      </trkpt>
      <trkpt lat="50.87882" lon="4.57121">
        <ele>48</ele>
      </trkpt>
      <trkpt lat="50.87903" lon="4.5716">
        <ele>48</ele>
      </trkpt>
      <trkpt lat="50.87863" lon="4.57203">
        <ele>48</ele>
      </trkpt>
      <trkpt lat="50.87806" lon="4.57267">
        <ele>49</ele>
      </trkpt>
      <trkpt lat="50.87814" lon="4.57283">
        <ele>50</ele>
      </trkpt>
      <trkpt lat="50.87817" lon="4.57421">
        <ele>47</ele>
      </trkpt>
      <trkpt lat="50.87827" lon="4.57621">
        <ele>44</ele>
      </trkpt>
      <trkpt lat="50.87822" lon="4.57656">
        <ele>44</ele>
      </trkpt>
      <trkpt lat="50.87744" lon="4.58084">
        <ele>43</ele>
      </trkpt>
      <trkpt lat="50.87738" lon="4.58122">
        <ele>43</ele>
      </trkpt>
      <trkpt lat="50.87737" lon="4.58137">
        <ele>43</ele>
      </trkpt>
      <trkpt lat="50.87738" lon="4.58164">
        <ele>43</ele>
      </trkpt>
      <trkpt lat="50.87751" lon="4.58221">
        <ele>43</ele>
      </trkpt>
      <trkpt lat="50.87785" lon="4.58313">
        <ele>42</ele>
      </trkpt>
      <trkpt lat="50.87813" lon="4.5838">
        <ele>42</ele>
      </trkpt>
      <trkpt lat="50.8783" lon="4.58408">
        <ele>42</ele>
      </trkpt>
      <trkpt lat="50.87913" lon="4.58536">
        <ele>42</ele>
      </trkpt>
      <trkpt lat="50.87931" lon="4.58544">
        <ele>42</ele>
      </trkpt>
      <trkpt lat="50.8797" lon="4.58535">
        <ele>42</ele>
      </trkpt>
      <trkpt lat="50.87982" lon="4.58539">
        <ele>42</ele>
      </trkpt>
      <trkpt lat="50.87988" lon="4.58545">
        <ele>42</ele>
      </trkpt>
      <trkpt lat="50.88067" lon="4.58698">
        <ele>44</ele>
      </trkpt>
      <trkpt lat="50.88084" lon="4.58736">
        <ele>44</ele>
      </trkpt>
      <trkpt lat="50.88142" lon="4.58848">
        <ele>44</ele>
      </trkpt>
      <trkpt lat="50.88237" lon="4.59015">
        <ele>40</ele>
      </trkpt>
      <trkpt lat="50.88254" lon="4.59057">
        <ele>40</ele>
      </trkpt>
      <trkpt lat="50.88264" lon="4.59101">
        <ele>39</ele>
      </trkpt>
      <trkpt lat="50.88271" lon="4.59193">
        <ele>38</ele>
      </trkpt>
      <trkpt lat="50.88276" lon="4.59233">
        <ele>38</ele>
      </trkpt>
      <trkpt lat="50.8829" lon="4.5928">
        <ele>37</ele>
      </trkpt>
      <trkpt lat="50.88298" lon="4.59299">
        <ele>37</ele>
      </trkpt>
      <trkpt lat="50.88416" lon="4.59508">
        <ele>38</ele>
      </trkpt>
      <trkpt lat="50.88511" lon="4.59672">
        <ele>39</ele>
      </trkpt>
      <trkpt lat="50.88528" lon="4.59687">
        <ele>39</ele>
      </trkpt>
      <trkpt lat="50.88548" lon="4.59699">
        <ele>39</ele>
      </trkpt>
      <trkpt lat="50.88556" lon="4.59707">
        <ele>39</ele>
      </trkpt>
      <trkpt lat="50.88564" lon="4.59719">
        <ele>39</ele>
      </trkpt>
      <trkpt lat="50.88586" lon="4.59767">
        <ele>39</ele>
      </trkpt>
      <trkpt lat="50.88606" lon="4.59804">
        <ele>39</ele>
      </trkpt>
      <trkpt lat="50.88998" lon="4.60338">
        <ele>36</ele>
      </trkpt>
      <trkpt lat="50.8911" lon="4.60475">
        <ele>35</ele>
      </trkpt>
      <trkpt lat="50.89306" lon="4.60704">
        <ele>37</ele>
      </trkpt>
      <trkpt lat="50.89556" lon="4.60997">
        <ele>34</ele>
      </trkpt>
      <trkpt lat="50.89602" lon="4.61049">
        <ele>33</ele>
      </trkpt>
      <trkpt lat="50.89649" lon="4.61116">
        <ele>33</ele>
      </trkpt>
      <trkpt lat="50.89744" lon="4.61323">
        <ele>32</ele>
      </trkpt>
      <trkpt lat="50.89807" lon="4.615">
        <ele>31</ele>
      </trkpt>
      <trkpt lat="50.8985" lon="4.61613">
        <ele>31</ele>
      </trkpt>
      <trkpt lat="50.89861" lon="4.6163">
        <ele>31</ele>
      </trkpt>
      <trkpt lat="50.89885" lon="4.61652">
        <ele>31</ele>
      </trkpt>
      <trkpt lat="50.89898" lon="4.61657">
        <ele>31</ele>
      </trkpt>
      <trkpt lat="50.89899" lon="4.61664">
        <ele>32</ele>
      </trkpt>
      <trkpt lat="50.89963" lon="4.61692">
        <ele>31</ele>
      </trkpt>
      <trkpt lat="50.89989" lon="4.61704">
        <ele>31</ele>
      </trkpt>
      <trkpt lat="50.90009" lon="4.61724">
        <ele>31</ele>
      </trkpt>
      <trkpt lat="50.90021" lon="4.61748">
        <ele>30</ele>
      </trkpt>
      <trkpt lat="50.90027" lon="4.6177">
        <ele>30</ele>
      </trkpt>
      <trkpt lat="50.90032" lon="4.61793">
        <ele>30</ele>
      </trkpt>
      <trkpt lat="50.90038" lon="4.618">
        <ele>30</ele>
      </trkpt>
      <trkpt lat="50.90061" lon="4.61899">
        <ele>30</ele>
      </trkpt>
      <trkpt lat="50.90083" lon="4.6201">
        <ele>30</ele>
      </trkpt>
      <trkpt lat="50.90112" lon="4.62211">
        <ele>30</ele>
      </trkpt>
      <trkpt lat="50.90119" lon="4.62249">
        <ele>30</ele>
      </trkpt>
      <trkpt lat="50.90126" lon="4.62264">
        <ele>30</ele>
      </trkpt>
      <trkpt lat="50.90334" lon="4.62151">
        <ele>28</ele>
      </trkpt>
      <trkpt lat="50.90356" lon="4.62133">
        <ele>28</ele>
      </trkpt>
      <trkpt lat="50.90398" lon="4.62116">
        <ele>27</ele>
      </trkpt>
      <trkpt lat="50.90616" lon="4.62084">
        <ele>26</ele>
      </trkpt>
      <trkpt lat="50.90625" lon="4.6208">
        <ele>26</ele>
      </trkpt>
      <trkpt lat="50.90639" lon="4.62066">
        <ele>26</ele>
      </trkpt>
      <trkpt lat="50.90671" lon="4.62022">
        <ele>25</ele>
      </trkpt>
      <trkpt lat="50.90681" lon="4.6201">
        <ele>25</ele>
      </trkpt>
      <trkpt lat="50.90822" lon="4.61884">
        <ele>23</ele>
      </trkpt>
      <trkpt lat="50.90965" lon="4.61752">
        <ele>22</ele>
      </trkpt>
      <trkpt lat="50.91047" lon="4.6169">
        <ele>22</ele>
      </trkpt>
      <trkpt lat="50.91087" lon="4.61666">
        <ele>22</ele>
      </trkpt>
      <trkpt lat="50.91278" lon="4.61563">
        <ele>21</ele>
      </trkpt>
      <trkpt lat="50.91321" lon="4.61543">
        <ele>21</ele>
      </trkpt>
      <trkpt lat="50.91357" lon="4.61531">
        <ele>21</ele>
      </trkpt>
      <trkpt lat="50.91396" lon="4.61528">
        <ele>20</ele>
      </trkpt>
      <trkpt lat="50.91451" lon="4.61526">
        <ele>20</ele>
      </trkpt>
      <trkpt lat="50.91494" lon="4.61516">
        <ele>20</ele>
      </trkpt>
      <trkpt lat="50.91659" lon="4.61457">
        <ele>19</ele>
      </trkpt>
      <trkpt lat="50.91793" lon="4.61413">
        <ele>20</ele>
      </trkpt>
      <trkpt lat="50.91836" lon="4.61409">
        <ele>20</ele>
      </trkpt>
      <trkpt lat="50.91872" lon="4.61413">
        <ele>20</ele>
      </trkpt>
      <trkpt lat="50.91895" lon="4.61421">
        <ele>20</ele>
      </trkpt>
      <trkpt lat="50.9197" lon="4.61453">
        <ele>19</ele>
      </trkpt>
      <trkpt lat="50.92016" lon="4.61463">
        <ele>20</ele>
      </trkpt>
      <trkpt lat="50.92039" lon="4.61463">
        <ele>21</ele>
      </trkpt>
      <trkpt lat="50.92174" lon="4.61452">
        <ele>20</ele>
      </trkpt>
      <trkpt lat="50.92218" lon="4.61457">
        <ele>18</ele>
      </trkpt>
      <trkpt lat="50.92237" lon="4.61464">
        <ele>18</ele>
      </trkpt>
      <trkpt lat="50.92257" lon="4.61474">
        <ele>18</ele>
      </trkpt>
      <trkpt lat="50.92296" lon="4.61507">
        <ele>18</ele>
      </trkpt>
      <trkpt lat="50.92331" lon="4.61549">
        <ele>18</ele>
      </trkpt>
      <trkpt lat="50.92361" lon="4.6159">
        <ele>17</ele>
      </trkpt>
      <trkpt lat="50.92371" lon="4.61603">
        <ele>17</ele>
      </trkpt>
      <trkpt lat="50.92412" lon="4.61646">
        <ele>17</ele>
      </trkpt>
      <trkpt lat="50.9249" lon="4.61709">
        <ele>17</ele>
      </trkpt>
      <trkpt lat="50.92623" lon="4.61806">
        <ele>17</ele>
      </trkpt>
      <trkpt lat="50.92661" lon="4.61822">
        <ele>17</ele>
      </trkpt>
      <trkpt lat="50.92696" lon="4.61826">
        <ele>17</ele>
      </trkpt>
      <trkpt lat="50.92732" lon="4.61823">
        <ele>18</ele>
      </trkpt>
      <trkpt lat="50.92763" lon="4.61812">
        <ele>18</ele>
      </trkpt>
      <trkpt lat="50.92899" lon="4.61748">
        <ele>19</ele>
      </trkpt>
      <trkpt lat="50.92926" lon="4.61723">
        <ele>19</ele>
      </trkpt>
      <trkpt lat="50.9296" lon="4.61682">
        <ele>17</ele>
      </trkpt>
      <trkpt lat="50.92987" lon="4.61657">
        <ele>17</ele>
      </trkpt>
      <trkpt lat="50.93034" lon="4.61629">
        <ele>15</ele>
      </trkpt>
      <trkpt lat="50.93051" lon="4.61625">
        <ele>15</ele>
      </trkpt>
      <trkpt lat="50.93076" lon="4.61623">
        <ele>15</ele>
      </trkpt>
      <trkpt lat="50.93352" lon="4.61633">
        <ele>15</ele>
      </trkpt>
      <trkpt lat="50.93406" lon="4.61637">
        <ele>15</ele>
      </trkpt>
      <trkpt lat="50.93425" lon="4.61642">
        <ele>15</ele>
      </trkpt>
      <trkpt lat="50.9344" lon="4.61645">
        <ele>15</ele>
      </trkpt>
      <trkpt lat="50.93524" lon="4.61679">
        <ele>16</ele>
      </trkpt>
      <trkpt lat="50.93539" lon="4.61687">
        <ele>15</ele>
      </trkpt>
      <trkpt lat="50.93576" lon="4.61716">
        <ele>16</ele>
      </trkpt>
      <trkpt lat="50.93596" lon="4.61725">
        <ele>16</ele>
      </trkpt>
      <trkpt lat="50.93609" lon="4.61727">
        <ele>16</ele>
      </trkpt>
      <trkpt lat="50.93766" lon="4.61715">
        <ele>15</ele>
      </trkpt>
      <trkpt lat="50.9401" lon="4.6169">
        <ele>15</ele>
      </trkpt>
      <trkpt lat="50.94016" lon="4.61693">
        <ele>14</ele>
      </trkpt>
      <trkpt lat="50.94025" lon="4.61707">
        <ele>14</ele>
      </trkpt>
      <trkpt lat="50.94041" lon="4.61681">
        <ele>14</ele>
      </trkpt>
      <trkpt lat="50.94058" lon="4.61683">
        <ele>14</ele>
      </trkpt>
      <trkpt lat="50.94172" lon="4.6166">
        <ele>13</ele>
      </trkpt>
      <trkpt lat="50.94274" lon="4.61645">
        <ele>13</ele>
      </trkpt>
      <trkpt lat="50.94301" lon="4.61637">
        <ele>13</ele>
      </trkpt>
      <trkpt lat="50.9432" lon="4.61627">
        <ele>13</ele>
      </trkpt>
      <trkpt lat="50.94359" lon="4.61595">
        <ele>13</ele>
      </trkpt>
      <trkpt lat="50.9443" lon="4.61542">
        <ele>13</ele>
      </trkpt>
      <trkpt lat="50.94458" lon="4.61527">
        <ele>12</ele>
      </trkpt>
      <trkpt lat="50.94503" lon="4.61517">
        <ele>12</ele>
      </trkpt>
      <trkpt lat="50.94523" lon="4.61503">
        <ele>11</ele>
      </trkpt>
      <trkpt lat="50.94534" lon="4.61495">
        <ele>11</ele>
      </trkpt>
      <trkpt lat="50.94569" lon="4.61452">
        <ele>11</ele>
      </trkpt>
      <trkpt lat="50.94575" lon="4.61445">
        <ele>11</ele>
      </trkpt>
      <trkpt lat="50.94584" lon="4.61453">
        <ele>11</ele>
      </trkpt>
      <trkpt lat="50.94625" lon="4.61501">
        <ele>12</ele>
      </trkpt>
      <trkpt lat="50.94643" lon="4.61518">
        <ele>12</ele>
      </trkpt>
      <trkpt lat="50.9469" lon="4.61545">
        <ele>12</ele>
      </trkpt>
      <trkpt lat="50.94743" lon="4.61576">
        <ele>12</ele>
      </trkpt>
      <trkpt lat="50.94766" lon="4.61594">
        <ele>13</ele>
      </trkpt>
      <trkpt lat="50.94847" lon="4.61671">
        <ele>13</ele>
      </trkpt>
      <trkpt lat="50.94863" lon="4.61682">
        <ele>12</ele>
      </trkpt>
      <trkpt lat="50.94901" lon="4.61696">
        <ele>12</ele>
      </trkpt>
      <trkpt lat="50.94902" lon="4.61713">
        <ele>12</ele>
      </trkpt>
      <trkpt lat="50.94895" lon="4.61825">
        <ele>12</ele>
      </trkpt>
      <trkpt lat="50.94898" lon="4.61872">
        <ele>13</ele>
      </trkpt>
      <trkpt lat="50.94902" lon="4.61899">
        <ele>12</ele>
      </trkpt>
      <trkpt lat="50.94908" lon="4.61925">
        <ele>12</ele>
      </trkpt>
      <trkpt lat="50.94923" lon="4.61969">
        <ele>12</ele>
      </trkpt>
      <trkpt lat="50.94938" lon="4.62004">
        <ele>13</ele>
      </trkpt>
      <trkpt lat="50.95065" lon="4.6225">
        <ele>14</ele>
      </trkpt>
      <trkpt lat="50.95076" lon="4.62277">
        <ele>14</ele>
      </trkpt>
      <trkpt lat="50.95075" lon="4.62296">
        <ele>14</ele>
      </trkpt>
      <trkpt lat="50.9507" lon="4.6232">
        <ele>15</ele>
      </trkpt>
      <trkpt lat="50.9507" lon="4.62324">
        <ele>15</ele>
      </trkpt>
      <trkpt lat="50.95071" lon="4.62332">
        <ele>15</ele>
      </trkpt>
      <trkpt lat="50.95076" lon="4.6231">
        <ele>15</ele>
      </trkpt>
      <trkpt lat="50.95082" lon="4.62288">
        <ele>15</ele>
      </trkpt>
      <trkpt lat="50.95227" lon="4.61523">
        <ele>14</ele>
      </trkpt>
      <trkpt lat="50.95306" lon="4.61108">
        <ele>15</ele>
      </trkpt>
      <trkpt lat="50.95318" lon="4.61039">
        <ele>15</ele>
      </trkpt>
      <trkpt lat="50.95321" lon="4.6101">
        <ele>15</ele>
      </trkpt>
      <trkpt lat="50.95356" lon="4.60834">
        <ele>15</ele>
      </trkpt>
      <trkpt lat="50.95391" lon="4.60643">
        <ele>14</ele>
      </trkpt>
      <trkpt lat="50.95409" lon="4.60552">
        <ele>13</ele>
      </trkpt>
      <trkpt lat="50.95547" lon="4.5982">
        <ele>12</ele>
      </trkpt>
      <trkpt lat="50.95576" lon="4.59668">
        <ele>12</ele>
      </trkpt>
      <trkpt lat="50.95593" lon="4.59568">
        <ele>11</ele>
      </trkpt>
      <trkpt lat="50.95601" lon="4.59508">
        <ele>11</ele>
      </trkpt>
      <trkpt lat="50.95606" lon="4.5945">
        <ele>11</ele>
      </trkpt>
      <trkpt lat="50.95606" lon="4.59425">
        <ele>11</ele>
      </trkpt>
      <trkpt lat="50.95602" lon="4.59408">
        <ele>11</ele>
      </trkpt>
      <trkpt lat="50.95593" lon="4.59389">
        <ele>11</ele>
      </trkpt>
      <trkpt lat="50.9558" lon="4.59347">
        <ele>11</ele>
      </trkpt>
      <trkpt lat="50.95569" lon="4.59319">
        <ele>11</ele>
      </trkpt>
      <trkpt lat="50.95512" lon="4.59223">
        <ele>12</ele>
      </trkpt>
      <trkpt lat="50.95484" lon="4.59159">
        <ele>13</ele>
      </trkpt>
      <trkpt lat="50.95478" lon="4.59127">
        <ele>13</ele>
      </trkpt>
      <trkpt lat="50.95476" lon="4.59089">
        <ele>13</ele>
      </trkpt>
      <trkpt lat="50.95477" lon="4.59061">
        <ele>14</ele>
      </trkpt>
      <trkpt lat="50.95481" lon="4.59035">
        <ele>15</ele>
      </trkpt>
      <trkpt lat="50.95487" lon="4.59013">
        <ele>15</ele>
      </trkpt>
      <trkpt lat="50.95494" lon="4.58994">
        <ele>15</ele>
      </trkpt>
      <trkpt lat="50.95808" lon="4.58478">
        <ele>17</ele>
      </trkpt>
      <trkpt lat="50.96242" lon="4.57774">
        <ele>9</ele>
      </trkpt>
      <trkpt lat="50.96629" lon="4.57136">
        <ele>11</ele>
      </trkpt>
      <trkpt lat="50.96665" lon="4.57079">
        <ele>11</ele>
      </trkpt>
      <trkpt lat="50.96691" lon="4.57035">
        <ele>12</ele>
      </trkpt>
      <trkpt lat="50.96829" lon="4.56816">
        <ele>12</ele>
      </trkpt>
      <trkpt lat="50.97223" lon="4.56213">
        <ele>9</ele>
      </trkpt>
      <trkpt lat="50.97289" lon="4.56113">
        <ele>9</ele>
      </trkpt>
      <trkpt lat="50.97321" lon="4.56073">
        <ele>9</ele>
      </trkpt>
      <trkpt lat="50.97367" lon="4.56004">
        <ele>9</ele>
      </trkpt>
      <trkpt lat="50.974" lon="4.55941">
        <ele>9</ele>
      </trkpt>
      <trkpt lat="50.9743" lon="4.55898">
        <ele>8</ele>
      </trkpt>
      <trkpt lat="50.97442" lon="4.55882">
        <ele>8</ele>
      </trkpt>
      <trkpt lat="50.97448" lon="4.55877">
        <ele>8</ele>
      </trkpt>
      <trkpt lat="50.97466" lon="4.55908">
        <ele>8</ele>
      </trkpt>
      <trkpt lat="50.97472" lon="4.55919">
        <ele>8</ele>
      </trkpt>
      <trkpt lat="50.97481" lon="4.55898">
        <ele>8</ele>
      </trkpt>
      <trkpt lat="50.97567" lon="4.5577">
        <ele>7</ele>
      </trkpt>
      <trkpt lat="50.97783" lon="4.5545">
        <ele>10</ele>
      </trkpt>
      <trkpt lat="50.9813" lon="4.54926">
        <ele>9</ele>
      </trkpt>
      <trkpt lat="50.98256" lon="4.54741">
        <ele>9</ele>
      </trkpt>
      <trkpt lat="50.98268" lon="4.54736">
        <ele>9</ele>
      </trkpt>
      <trkpt lat="50.98277" lon="4.54711">
        <ele>9</ele>
      </trkpt>
      <trkpt lat="50.98601" lon="4.54231">
        <ele>9</ele>
      </trkpt>
      <trkpt lat="50.98686" lon="4.54103">
        <ele>9</ele>
      </trkpt>
      <trkpt lat="50.98708" lon="4.54064">
        <ele>9</ele>
      </trkpt>
      <trkpt lat="50.98843" lon="4.53771">
        <ele>8</ele>
      </trkpt>
      <trkpt lat="50.9909" lon="4.53219">
        <ele>8</ele>
      </trkpt>
      <trkpt lat="50.99135" lon="4.53114">
        <ele>8</ele>
      </trkpt>
      <trkpt lat="50.9923" lon="4.52919">
        <ele>9</ele>
      </trkpt>
      <trkpt lat="50.99242" lon="4.52907">
        <ele>9</ele>
      </trkpt>
      <trkpt lat="50.99245" lon="4.52901">
        <ele>9</ele>
      </trkpt>
      <trkpt lat="50.99247" lon="4.52887">
        <ele>9</ele>
      </trkpt>
      <trkpt lat="50.99258" lon="4.52851">
        <ele>9</ele>
      </trkpt>
      <trkpt lat="50.9927" lon="4.52821">
        <ele>10</ele>
      </trkpt>
      <trkpt lat="50.99629" lon="4.52036">
        <ele>9</ele>
      </trkpt>
      <trkpt lat="50.99673" lon="4.51945">
        <ele>9</ele>
      </trkpt>
      <trkpt lat="50.99689" lon="4.51906">
        <ele>9</ele>
      </trkpt>
      <trkpt lat="51.00398" lon="4.50343">
        <ele>9</ele>
      </trkpt>
      <trkpt lat="51.00425" lon="4.50284">
        <ele>9</ele>
      </trkpt>
      <trkpt lat="51.00446" lon="4.50331">
        <ele>9</ele>
      </trkpt>
      <trkpt lat="51.00463" lon="4.50378">
        <ele>9</ele>
      </trkpt>
      <trkpt lat="51.00512" lon="4.50528">
        <ele>9</ele>
      </trkpt>
      <trkpt lat="51.00656" lon="4.50765">
        <ele>8</ele>
      </trkpt>
      <trkpt lat="51.00655" lon="4.50781">
        <ele>9</ele>
      </trkpt>
      <trkpt lat="51.00624" lon="4.50823">
        <ele>8</ele>
      </trkpt>
      <trkpt lat="51.00621" lon="4.50838">
        <ele>8</ele>
      </trkpt>
      <trkpt lat="51.00625" lon="4.50854">
        <ele>8</ele>
      </trkpt>
      <trkpt lat="51.0067" lon="4.50925">
        <ele>8</ele>
      </trkpt>
      <trkpt lat="51.00755" lon="4.51061">
        <ele>10</ele>
      </trkpt>
      <trkpt lat="51.00762" lon="4.51065">
        <ele>9</ele>
      </trkpt>
      <trkpt lat="51.00766" lon="4.51075">
        <ele>9</ele>
      </trkpt>
      <trkpt lat="51.0079" lon="4.51112">
        <ele>9</ele>
      </trkpt>
      <trkpt lat="51.00738" lon="4.51194">
        <ele>9</ele>
      </trkpt>
      <trkpt lat="51.00756" lon="4.51221">
        <ele>9</ele>
      </trkpt>
      <trkpt lat="51.00761" lon="4.51234">
        <ele>9</ele>
      </trkpt>
      <trkpt lat="51.00765" lon="4.51248">
        <ele>9</ele>
      </trkpt>
      <trkpt lat="51.00765" lon="4.51273">
        <ele>9</ele>
      </trkpt>
      <trkpt lat="51.00764" lon="4.51285">
        <ele>9</ele>
      </trkpt>
      <trkpt lat="51.00728" lon="4.51483">
        <ele>8</ele>
      </trkpt>
      <trkpt lat="51.00727" lon="4.51494">
        <ele>8</ele>
      </trkpt>
      <trkpt lat="51.0073" lon="4.51506">
        <ele>8</ele>
      </trkpt>
      <trkpt lat="51.00736" lon="4.51517">
        <ele>9</ele>
      </trkpt>
      <trkpt lat="51.0076" lon="4.5155">
        <ele>9</ele>
      </trkpt>
      <trkpt lat="51.00779" lon="4.51564">
        <ele>9</ele>
      </trkpt>
      <trkpt lat="51.00796" lon="4.51564">
        <ele>9</ele>
      </trkpt>
      <trkpt lat="51.00927" lon="4.51522">
        <ele>10</ele>
      </trkpt>
      <trkpt lat="51.00943" lon="4.51519">
        <ele>11</ele>
      </trkpt>
      <trkpt lat="51.00954" lon="4.51522">
        <ele>11</ele>
      </trkpt>
      <trkpt lat="51.01004" lon="4.51561">
        <ele>11</ele>
      </trkpt>
      <trkpt lat="51.01046" lon="4.51584">
        <ele>11</ele>
      </trkpt>
      <trkpt lat="51.01038" lon="4.51655">
        <ele>11</ele>
      </trkpt>
      <trkpt lat="51.01016" lon="4.51764">
        <ele>11</ele>
      </trkpt>
      <trkpt lat="51.00989" lon="4.51893">
        <ele>10</ele>
      </trkpt>
      <trkpt lat="51.00978" lon="4.51943">
        <ele>9</ele>
      </trkpt>
      <trkpt lat="51.0099" lon="4.51954">
        <ele>9</ele>
      </trkpt>
      <trkpt lat="51.0108" lon="4.52018">
        <ele>8</ele>
      </trkpt>
      <trkpt lat="51.01101" lon="4.52038">
        <ele>6</ele>
      </trkpt>
      <trkpt lat="51.01134" lon="4.52085">
        <ele>5</ele>
      </trkpt>
      <trkpt lat="51.01159" lon="4.52126">
        <ele>5</ele>
      </trkpt>
      <trkpt lat="51.01162" lon="4.52134">
        <ele>5</ele>
      </trkpt>
      <trkpt lat="51.01166" lon="4.52119">
        <ele>5</ele>
      </trkpt>
      <trkpt lat="51.01199" lon="4.52045">
        <ele>4</ele>
      </trkpt>
      <trkpt lat="51.01311" lon="4.519">
        <ele>2</ele>
      </trkpt>
      <trkpt lat="51.0137" lon="4.51817">
        <ele>3</ele>
      </trkpt>
      <trkpt lat="51.01387" lon="4.51797">
        <ele>3</ele>
      </trkpt>
      <trkpt lat="51.01408" lon="4.51785">
        <ele>3</ele>
      </trkpt>
      <trkpt lat="51.01435" lon="4.51779">
        <ele>4</ele>
      </trkpt>
      <trkpt lat="51.01496" lon="4.51783">
        <ele>3</ele>
      </trkpt>
      <trkpt lat="51.01505" lon="4.51776">
        <ele>3</ele>
      </trkpt>
      <trkpt lat="51.01624" lon="4.51607">
        <ele>4</ele>
      </trkpt>
      <trkpt lat="51.0163" lon="4.51612">
        <ele>4</ele>
      </trkpt>
      <trkpt lat="51.0164" lon="4.51635">
        <ele>4</ele>
      </trkpt>
      <trkpt lat="51.01642" lon="4.51653">
        <ele>4</ele>
      </trkpt>
      <trkpt lat="51.01646" lon="4.5167">
        <ele>4</ele>
      </trkpt>
      <trkpt lat="51.01682" lon="4.5172">
        <ele>4</ele>
      </trkpt>
      <trkpt lat="51.01763" lon="4.51797">
        <ele>3</ele>
      </trkpt>
      <trkpt lat="51.01789" lon="4.51818">
        <ele>2</ele>
      </trkpt>
      <trkpt lat="51.01823" lon="4.51854">
        <ele>2</ele>
      </trkpt>
      <trkpt lat="51.01829" lon="4.51868">
        <ele>2</ele>
      </trkpt>
      <trkpt lat="51.0188" lon="4.52097">
        <ele>2</ele>
      </trkpt>
      <trkpt lat="51.01884" lon="4.52119">
        <ele>2</ele>
      </trkpt>
      <trkpt lat="51.01891" lon="4.52226">
        <ele>2</ele>
      </trkpt>
      <trkpt lat="51.01901" lon="4.52315">
        <ele>1</ele>
      </trkpt>
      <trkpt lat="51.01903" lon="4.52447">
        <ele>2</ele>
      </trkpt>
      <trkpt lat="51.01908" lon="4.52491">
        <ele>3</ele>
      </trkpt>
      <trkpt lat="51.01921" lon="4.52621">
        <ele>5</ele>
      </trkpt>
      <trkpt lat="51.0193" lon="4.52729">
        <ele>6</ele>
      </trkpt>
      <trkpt lat="51.02031" lon="4.52666">
        <ele>3</ele>
      </trkpt>
      <trkpt lat="51.02041" lon="4.52664">
        <ele>3</ele>
      </trkpt>
      <trkpt lat="51.02049" lon="4.52666">
        <ele>3</ele>
      </trkpt>
      <trkpt lat="51.02055" lon="4.5267">
        <ele>3</ele>
      </trkpt>
      <trkpt lat="51.02073" lon="4.52691">
        <ele>3</ele>
      </trkpt>
      <trkpt lat="51.02168" lon="4.52838">
        <ele>3</ele>
      </trkpt>
      <trkpt lat="51.02246" lon="4.53011">
        <ele>6</ele>
      </trkpt>
      <trkpt lat="51.02258" lon="4.53034">
        <ele>6</ele>
      </trkpt>
      <trkpt lat="51.02269" lon="4.53047">
        <ele>7</ele>
      </trkpt>
      <trkpt lat="51.02282" lon="4.53057">
        <ele>8</ele>
      </trkpt>
      <trkpt lat="51.02366" lon="4.5306">
        <ele>9</ele>
      </trkpt>
      <trkpt lat="51.02376" lon="4.53064">
        <ele>9</ele>
      </trkpt>
      <trkpt lat="51.02388" lon="4.53073">
        <ele>9</ele>
      </trkpt>
      <trkpt lat="51.02419" lon="4.5312">
        <ele>9</ele>
      </trkpt>
      <trkpt lat="51.02439" lon="4.53142">
        <ele>9</ele>
      </trkpt>
      <trkpt lat="51.02493" lon="4.53192">
        <ele>9</ele>
      </trkpt>
      <trkpt lat="51.02511" lon="4.53213">
        <ele>9</ele>
      </trkpt>
      <trkpt lat="51.0252" lon="4.53226">
        <ele>9</ele>
      </trkpt>
      <trkpt lat="51.02527" lon="4.53239">
        <ele>9</ele>
      </trkpt>
      <trkpt lat="51.02544" lon="4.53282">
        <ele>9</ele>
      </trkpt>
      <trkpt lat="51.02614" lon="4.53454">
        <ele>8</ele>
      </trkpt>
      <trkpt lat="51.02636" lon="4.53505">
        <ele>7</ele>
      </trkpt>
      <trkpt lat="51.02644" lon="4.53512">
        <ele>7</ele>
      </trkpt>
      <trkpt lat="51.02646" lon="4.53505">
        <ele>7</ele>
      </trkpt>
      <trkpt lat="51.02661" lon="4.53461">
        <ele>8</ele>
      </trkpt>
      <trkpt lat="51.02669" lon="4.53468">
        <ele>8</ele>
      </trkpt>
      <trkpt lat="51.02762" lon="4.53479">
        <ele>6</ele>
      </trkpt>
      <trkpt lat="51.02785" lon="4.53505">
        <ele>5</ele>
      </trkpt>
      <trkpt lat="51.02873" lon="4.53696">
        <ele>9</ele>
      </trkpt>
      <trkpt lat="51.02987" lon="4.53891">
        <ele>12</ele>
      </trkpt>
      <trkpt lat="51.02993" lon="4.53881">
        <ele>12</ele>
      </trkpt>
      <trkpt lat="51.03075" lon="4.53839">
        <ele>12</ele>
      </trkpt>
      <trkpt lat="51.03199" lon="4.53772">
        <ele>9</ele>
      </trkpt>
      <trkpt lat="51.03404" lon="4.53665">
        <ele>6</ele>
      </trkpt>
      <trkpt lat="51.03433" lon="4.53852">
        <ele>8</ele>
      </trkpt>
      <trkpt lat="51.03453" lon="4.53945">
        <ele>7</ele>
      </trkpt>
      <trkpt lat="51.03463" lon="4.53997">
        <ele>7</ele>
      </trkpt>
      <trkpt lat="51.0351" lon="4.54182">
        <ele>8</ele>
      </trkpt>
      <trkpt lat="51.03526" lon="4.5426">
        <ele>8</ele>
      </trkpt>
      <trkpt lat="51.03549" lon="4.54484">
        <ele>8</ele>
      </trkpt>
      <trkpt lat="51.03554" lon="4.54528">
        <ele>7</ele>
      </trkpt>
      <trkpt lat="51.03565" lon="4.54602">
        <ele>7</ele>
      </trkpt>
      <trkpt lat="51.03589" lon="4.54757">
        <ele>6</ele>
      </trkpt>
      <trkpt lat="51.03604" lon="4.54972">
        <ele>6</ele>
      </trkpt>
      <trkpt lat="51.03605" lon="4.54999">
        <ele>6</ele>
      </trkpt>
      <trkpt lat="51.03597" lon="4.55187">
        <ele>5</ele>
      </trkpt>
      <trkpt lat="51.03592" lon="4.55231">
        <ele>5</ele>
      </trkpt>
      <trkpt lat="51.03584" lon="4.5529">
        <ele>6</ele>
      </trkpt>
      <trkpt lat="51.03584" lon="4.55325">
        <ele>6</ele>
      </trkpt>
      <trkpt lat="51.03593" lon="4.554">
        <ele>6</ele>
      </trkpt>
      <trkpt lat="51.03631" lon="4.55602">
        <ele>7</ele>
      </trkpt>
      <trkpt lat="51.03643" lon="4.557">
        <ele>7</ele>
      </trkpt>
      <trkpt lat="51.03645" lon="4.5589">
        <ele>8</ele>
      </trkpt>
      <trkpt lat="51.03643" lon="4.55976">
        <ele>8</ele>
      </trkpt>
      <trkpt lat="51.03642" lon="4.55992">
        <ele>8</ele>
      </trkpt>
      <trkpt lat="51.03632" lon="4.56055">
        <ele>8</ele>
      </trkpt>
      <trkpt lat="51.03568" lon="4.5633">
        <ele>6</ele>
      </trkpt>
      <trkpt lat="51.03565" lon="4.5636">
        <ele>6</ele>
      </trkpt>
      <trkpt lat="51.03573" lon="4.56478">
        <ele>7</ele>
      </trkpt>
      <trkpt lat="51.03534" lon="4.56664">
        <ele>9</ele>
      </trkpt>
      <trkpt lat="51.035" lon="4.56847">
        <ele>12</ele>
      </trkpt>
      <trkpt lat="51.03495" lon="4.56882">
        <ele>12</ele>
      </trkpt>
      <trkpt lat="51.03491" lon="4.56935">
        <ele>13</ele>
      </trkpt>
      <trkpt lat="51.03493" lon="4.57041">
        <ele>15</ele>
      </trkpt>
      <trkpt lat="51.03498" lon="4.57098">
        <ele>15</ele>
      </trkpt>
      <trkpt lat="51.0353" lon="4.57266">
        <ele>12</ele>
      </trkpt>
      <trkpt lat="51.03565" lon="4.57427">
        <ele>11</ele>
      </trkpt>
      <trkpt lat="51.03573" lon="4.57475">
        <ele>10</ele>
      </trkpt>
      <trkpt lat="51.03574" lon="4.57532">
        <ele>9</ele>
      </trkpt>
      <trkpt lat="51.03575" lon="4.57645">
        <ele>8</ele>
      </trkpt>
      <trkpt lat="51.03759" lon="4.57698">
        <ele>6</ele>
      </trkpt>
      <trkpt lat="51.03805" lon="4.57709">
        <ele>5</ele>
      </trkpt>
      <trkpt lat="51.03819" lon="4.57716">
        <ele>5</ele>
      </trkpt>
      <trkpt lat="51.03865" lon="4.57729">
        <ele>5</ele>
      </trkpt>
      <trkpt lat="51.04032" lon="4.57726">
        <ele>5</ele>
      </trkpt>
      <trkpt lat="51.04075" lon="4.57781">
        <ele>5</ele>
      </trkpt>
      <trkpt lat="51.04101" lon="4.57804">
        <ele>5</ele>
      </trkpt>
      <trkpt lat="51.04168" lon="4.5785">
        <ele>5</ele>
      </trkpt>
      <trkpt lat="51.04265" lon="4.57933">
        <ele>6</ele>
      </trkpt>
      <trkpt lat="51.04339" lon="4.58005">
        <ele>6</ele>
      </trkpt>
      <trkpt lat="51.04424" lon="4.58112">
        <ele>7</ele>
      </trkpt>
      <trkpt lat="51.04442" lon="4.58087">
        <ele>7</ele>
      </trkpt>
      <trkpt lat="51.04681" lon="4.57744">
        <ele>8</ele>
      </trkpt>
      <trkpt lat="51.04696" lon="4.57717">
        <ele>7</ele>
      </trkpt>
      <trkpt lat="51.04708" lon="4.57692">
        <ele>7</ele>
      </trkpt>
      <trkpt lat="51.04715" lon="4.57675">
        <ele>7</ele>
      </trkpt>
      <trkpt lat="51.04724" lon="4.57644">
        <ele>7</ele>
      </trkpt>
      <trkpt lat="51.04729" lon="4.57623">
        <ele>7</ele>
      </trkpt>
      <trkpt lat="51.04732" lon="4.57595">
        <ele>7</ele>
      </trkpt>
      <trkpt lat="51.04732" lon="4.57571">
        <ele>7</ele>
      </trkpt>
      <trkpt lat="51.05403" lon="4.57626">
        <ele>11</ele>
      </trkpt>
      <trkpt lat="51.05403" lon="4.5757">
        <ele>11</ele>
      </trkpt>
      <trkpt lat="51.05409" lon="4.5742">
        <ele>11</ele>
      </trkpt>
      <trkpt lat="51.05413" lon="4.57379">
        <ele>11</ele>
      </trkpt>
      <trkpt lat="51.05417" lon="4.57359">
        <ele>10</ele>
      </trkpt>
      <trkpt lat="51.05491" lon="4.57251">
        <ele>10</ele>
      </trkpt>
      <trkpt lat="51.05507" lon="4.57239">
        <ele>10</ele>
      </trkpt>
      <trkpt lat="51.05517" lon="4.57258">
        <ele>10</ele>
      </trkpt>
      <trkpt lat="51.05538" lon="4.57283">
        <ele>11</ele>
      </trkpt>
      <trkpt lat="51.0555" lon="4.5729">
        <ele>11</ele>
      </trkpt>
      <trkpt lat="51.05703" lon="4.57423">
        <ele>12</ele>
      </trkpt>
      <trkpt lat="51.05897" lon="4.57611">
        <ele>14</ele>
      </trkpt>
      <trkpt lat="51.0591" lon="4.5762">
        <ele>15</ele>
      </trkpt>
      <trkpt lat="51.05927" lon="4.57636">
        <ele>15</ele>
      </trkpt>
      <trkpt lat="51.05964" lon="4.57672">
        <ele>16</ele>
      </trkpt>
      <trkpt lat="51.05977" lon="4.57687">
        <ele>17</ele>
      </trkpt>
      <trkpt lat="51.06192" lon="4.57895">
        <ele>20</ele>
      </trkpt>
      <trkpt lat="51.06204" lon="4.57917">
        <ele>21</ele>
      </trkpt>
      <trkpt lat="51.0621" lon="4.57936">
        <ele>21</ele>
      </trkpt>
      <trkpt lat="51.06242" lon="4.58078">
        <ele>21</ele>
      </trkpt>
      <trkpt lat="51.06247" lon="4.58101">
        <ele>21</ele>
      </trkpt>
      <trkpt lat="51.06308" lon="4.5807">
        <ele>22</ele>
      </trkpt>
      <trkpt lat="51.06329" lon="4.58067">
        <ele>23</ele>
      </trkpt>
      <trkpt lat="51.06367" lon="4.58066">
        <ele>23</ele>
      </trkpt>
      <trkpt lat="51.064" lon="4.58057">
        <ele>23</ele>
      </trkpt>
      <trkpt lat="51.06418" lon="4.58045">
        <ele>23</ele>
      </trkpt>
      <trkpt lat="51.06457" lon="4.58009">
        <ele>22</ele>
      </trkpt>
      <trkpt lat="51.06469" lon="4.57996">
        <ele>22</ele>
      </trkpt>
      <trkpt lat="51.06625" lon="4.57753">
        <ele>18</ele>
      </trkpt>
      <trkpt lat="51.0665" lon="4.57723">
        <ele>18</ele>
      </trkpt>
      <trkpt lat="51.06668" lon="4.57709">
        <ele>18</ele>
      </trkpt>
      <trkpt lat="51.06698" lon="4.57698">
        <ele>18</ele>
      </trkpt>
      <trkpt lat="51.06749" lon="4.57688">
        <ele>18</ele>
      </trkpt>
      <trkpt lat="51.06793" lon="4.57677">
        <ele>18</ele>
      </trkpt>
      <trkpt lat="51.0683" lon="4.57662">
        <ele>17</ele>
      </trkpt>
      <trkpt lat="51.06868" lon="4.57641">
        <ele>17</ele>
      </trkpt>
      <trkpt lat="51.0689" lon="4.57625">
        <ele>16</ele>
      </trkpt>
      <trkpt lat="51.06997" lon="4.57533">
        <ele>16</ele>
      </trkpt>
      <trkpt lat="51.071" lon="4.5745">
        <ele>16</ele>
      </trkpt>
      <trkpt lat="51.07212" lon="4.5739">
        <ele>14</ele>
      </trkpt>
      <trkpt lat="51.07237" lon="4.57411">
        <ele>14</ele>
      </trkpt>
      <trkpt lat="51.07329" lon="4.5748">
        <ele>13</ele>
      </trkpt>
      <trkpt lat="51.07378" lon="4.57533">
        <ele>14</ele>
      </trkpt>
      <trkpt lat="51.07407" lon="4.57575">
        <ele>14</ele>
      </trkpt>
      <trkpt lat="51.07484" lon="4.57522">
        <ele>14</ele>
      </trkpt>
      <trkpt lat="51.07558" lon="4.57473">
        <ele>14</ele>
      </trkpt>
      <trkpt lat="51.07552" lon="4.57282">
        <ele>15</ele>
      </trkpt>
      <trkpt lat="51.07555" lon="4.57233">
        <ele>15</ele>
      </trkpt>
      <trkpt lat="51.07608" lon="4.56858">
        <ele>18</ele>
      </trkpt>
      <trkpt lat="51.0767" lon="4.56634">
        <ele>15</ele>
      </trkpt>
      <trkpt lat="51.07675" lon="4.56592">
        <ele>15</ele>
      </trkpt>
      <trkpt lat="51.07676" lon="4.56556">
        <ele>14</ele>
      </trkpt>
      <trkpt lat="51.07681" lon="4.56533">
        <ele>13</ele>
      </trkpt>
      <trkpt lat="51.07859" lon="4.56196">
        <ele>12</ele>
      </trkpt>
      <trkpt lat="51.07873" lon="4.56201">
        <ele>12</ele>
      </trkpt>
      <trkpt lat="51.07939" lon="4.56251">
        <ele>12</ele>
      </trkpt>
      <trkpt lat="51.08138" lon="4.56399">
        <ele>11</ele>
      </trkpt>
      <trkpt lat="51.08252" lon="4.56427">
        <ele>11</ele>
      </trkpt>
      <trkpt lat="51.08269" lon="4.56438">
        <ele>11</ele>
      </trkpt>
      <trkpt lat="51.08324" lon="4.56514">
        <ele>11</ele>
      </trkpt>
      <trkpt lat="51.0843" lon="4.56672">
        <ele>10</ele>
      </trkpt>
      <trkpt lat="51.08578" lon="4.56885">
        <ele>9</ele>
      </trkpt>
      <trkpt lat="51.0859" lon="4.56901">
        <ele>9</ele>
      </trkpt>
      <trkpt lat="51.08603" lon="4.56913">
        <ele>9</ele>
      </trkpt>
      <trkpt lat="51.08678" lon="4.56954">
        <ele>10</ele>
      </trkpt>
      <trkpt lat="51.08666" lon="4.57013">
        <ele>9</ele>
      </trkpt>
      <trkpt lat="51.0866" lon="4.57051">
        <ele>9</ele>
      </trkpt>
      <trkpt lat="51.08658" lon="4.57084">
        <ele>9</ele>
      </trkpt>
      <trkpt lat="51.08654" lon="4.57271">
        <ele>8</ele>
      </trkpt>
      <trkpt lat="51.08652" lon="4.57317">
        <ele>8</ele>
      </trkpt>
      <trkpt lat="51.0865" lon="4.57335">
        <ele>8</ele>
      </trkpt>
      <trkpt lat="51.0865" lon="4.57333">
        <ele>8</ele>
      </trkpt>
      <trkpt lat="51.08657" lon="4.57341">
        <ele>8</ele>
      </trkpt>
      <trkpt lat="51.08674" lon="4.57354">
        <ele>8</ele>
      </trkpt>
      <trkpt lat="51.08719" lon="4.57405">
        <ele>8</ele>
      </trkpt>
      <trkpt lat="51.08743" lon="4.57444">
        <ele>8</ele>
      </trkpt>
      <trkpt lat="51.08791" lon="4.57501">
        <ele>9</ele>
      </trkpt>
      <trkpt lat="51.08814" lon="4.57524">
        <ele>9</ele>
      </trkpt>
      <trkpt lat="51.08822" lon="4.57527">
        <ele>9</ele>
      </trkpt>
      <trkpt lat="51.08836" lon="4.57523">
        <ele>9</ele>
      </trkpt>
      <trkpt lat="51.08873" lon="4.57502">
        <ele>9</ele>
      </trkpt>
      <trkpt lat="51.08895" lon="4.57497">
        <ele>9</ele>
      </trkpt>
      <trkpt lat="51.08933" lon="4.57504">
        <ele>9</ele>
      </trkpt>
      <trkpt lat="51.08947" lon="4.575">
        <ele>10</ele>
      </trkpt>
      <trkpt lat="51.09013" lon="4.57462">
        <ele>9</ele>
      </trkpt>
      <trkpt lat="51.09052" lon="4.57434">
        <ele>9</ele>
      </trkpt>
      <trkpt lat="51.09093" lon="4.57397">
        <ele>7</ele>
      </trkpt>
      <trkpt lat="51.09128" lon="4.57388">
        <ele>7</ele>
      </trkpt>
      <trkpt lat="51.09154" lon="4.57379">
        <ele>7</ele>
      </trkpt>
      <trkpt lat="51.09159" lon="4.5738">
        <ele>7</ele>
      </trkpt>
      <trkpt lat="51.09163" lon="4.57384">
        <ele>7</ele>
      </trkpt>
      <trkpt lat="51.09166" lon="4.5739">
        <ele>7</ele>
      </trkpt>
      <trkpt lat="51.09172" lon="4.57445">
        <ele>8</ele>
      </trkpt>
      <trkpt lat="51.09247" lon="4.57362">
        <ele>7</ele>
      </trkpt>
      <trkpt lat="51.09268" lon="4.57335">
        <ele>6</ele>
      </trkpt>
      <trkpt lat="51.09284" lon="4.57308">
        <ele>6</ele>
      </trkpt>
      <trkpt lat="51.09334" lon="4.5719">
        <ele>6</ele>
      </trkpt>
      <trkpt lat="51.09352" lon="4.57161">
        <ele>6</ele>
      </trkpt>
      <trkpt lat="51.09441" lon="4.57064">
        <ele>5</ele>
      </trkpt>
      <trkpt lat="51.09474" lon="4.57024">
        <ele>5</ele>
      </trkpt>
      <trkpt lat="51.09582" lon="4.56855">
        <ele>5</ele>
      </trkpt>
      <trkpt lat="51.09626" lon="4.56783">
        <ele>4</ele>
      </trkpt>
      <trkpt lat="51.09639" lon="4.56749">
        <ele>4</ele>
      </trkpt>
      <trkpt lat="51.09694" lon="4.56596">
        <ele>4</ele>
      </trkpt>
      <trkpt lat="51.09711" lon="4.56554">
        <ele>4</ele>
      </trkpt>
      <trkpt lat="51.09725" lon="4.56528">
        <ele>4</ele>
      </trkpt>
      <trkpt lat="51.09735" lon="4.56515">
        <ele>4</ele>
      </trkpt>
      <trkpt lat="51.09758" lon="4.56492">
        <ele>4</ele>
      </trkpt>
      <trkpt lat="51.09779" lon="4.56476">
        <ele>4</ele>
      </trkpt>
      <trkpt lat="51.098" lon="4.56463">
        <ele>4</ele>
      </trkpt>
      <trkpt lat="51.09818" lon="4.56455">
        <ele>4</ele>
      </trkpt>
      <trkpt lat="51.09841" lon="4.56449">
        <ele>4</ele>
      </trkpt>
      <trkpt lat="51.09862" lon="4.56446">
        <ele>4</ele>
      </trkpt>
      <trkpt lat="51.09869" lon="4.56464">
        <ele>4</ele>
      </trkpt>
      <trkpt lat="51.09884" lon="4.56459">
        <ele>4</ele>
      </trkpt>
      <trkpt lat="51.09907" lon="4.56457">
        <ele>4</ele>
      </trkpt>
      <trkpt lat="51.1026" lon="4.56449">
        <ele>4</ele>
      </trkpt>
      <trkpt lat="51.10349" lon="4.56459">
        <ele>5</ele>
      </trkpt>
      <trkpt lat="51.10376" lon="4.56581">
        <ele>5</ele>
      </trkpt>
      <trkpt lat="51.10394" lon="4.56692">
        <ele>4</ele>
      </trkpt>
      <trkpt lat="51.1042" lon="4.56827">
        <ele>4</ele>
      </trkpt>
      <trkpt lat="51.10446" lon="4.56894">
        <ele>4</ele>
      </trkpt>
      <trkpt lat="51.10458" lon="4.56916">
        <ele>4</ele>
      </trkpt>
      <trkpt lat="51.10473" lon="4.56931">
        <ele>3</ele>
      </trkpt>
      <trkpt lat="51.10487" lon="4.5694">
        <ele>3</ele>
      </trkpt>
      <trkpt lat="51.10522" lon="4.56947">
        <ele>4</ele>
      </trkpt>
      <trkpt lat="51.10588" lon="4.56949">
        <ele>4</ele>
      </trkpt>
      <trkpt lat="51.10601" lon="4.56943">
        <ele>4</ele>
      </trkpt>
      <trkpt lat="51.10609" lon="4.56935">
        <ele>4</ele>
      </trkpt>
      <trkpt lat="51.10669" lon="4.56824">
        <ele>3</ele>
      </trkpt>
      <trkpt lat="51.10675" lon="4.56816">
        <ele>3</ele>
      </trkpt>
      <trkpt lat="51.10683" lon="4.56813">
        <ele>3</ele>
      </trkpt>
      <trkpt lat="51.10694" lon="4.56817">
        <ele>3</ele>
      </trkpt>
      <trkpt lat="51.10841" lon="4.56952">
        <ele>4</ele>
      </trkpt>
      <trkpt lat="51.10862" lon="4.56975">
        <ele>4</ele>
      </trkpt>
      <trkpt lat="51.10915" lon="4.5708">
        <ele>4</ele>
      </trkpt>
      <trkpt lat="51.10987" lon="4.57229">
        <ele>4</ele>
      </trkpt>
      <trkpt lat="51.10997" lon="4.57235">
        <ele>4</ele>
      </trkpt>
      <trkpt lat="51.11011" lon="4.57259">
        <ele>4</ele>
      </trkpt>
      <trkpt lat="51.1106" lon="4.57387">
        <ele>4</ele>
      </trkpt>
      <trkpt lat="51.11073" lon="4.57407">
        <ele>4</ele>
      </trkpt>
      <trkpt lat="51.11088" lon="4.57419">
        <ele>4</ele>
      </trkpt>
      <trkpt lat="51.11288" lon="4.57493">
        <ele>4</ele>
      </trkpt>
      <trkpt lat="51.11299" lon="4.57493">
        <ele>4</ele>
      </trkpt>
      <trkpt lat="51.11308" lon="4.57486">
        <ele>4</ele>
      </trkpt>
      <trkpt lat="51.11317" lon="4.57474">
        <ele>4</ele>
      </trkpt>
      <trkpt lat="51.11371" lon="4.57369">
        <ele>3</ele>
      </trkpt>
      <trkpt lat="51.11385" lon="4.57324">
        <ele>3</ele>
      </trkpt>
      <trkpt lat="51.11406" lon="4.57204">
        <ele>3</ele>
      </trkpt>
      <trkpt lat="51.11414" lon="4.57178">
        <ele>3</ele>
      </trkpt>
      <trkpt lat="51.11424" lon="4.57153">
        <ele>3</ele>
      </trkpt>
      <trkpt lat="51.11473" lon="4.57065">
        <ele>2</ele>
      </trkpt>
      <trkpt lat="51.1148" lon="4.57056">
        <ele>2</ele>
      </trkpt>
      <trkpt lat="51.11502" lon="4.57044">
        <ele>2</ele>
      </trkpt>
      <trkpt lat="51.11543" lon="4.57033">
        <ele>1</ele>
      </trkpt>
      <trkpt lat="51.11548" lon="4.57026">
        <ele>1</ele>
      </trkpt>
      <trkpt lat="51.11729" lon="4.56847">
        <ele>2</ele>
      </trkpt>
      <trkpt lat="51.11759" lon="4.56817">
        <ele>2</ele>
      </trkpt>
      <trkpt lat="51.11696" lon="4.56534">
        <ele>2</ele>
      </trkpt>
      <trkpt lat="51.11664" lon="4.56392">
        <ele>3</ele>
      </trkpt>
      <trkpt lat="51.11543" lon="4.55843">
        <ele>4</ele>
      </trkpt>
      <trkpt lat="51.11412" lon="4.55231">
        <ele>3</ele>
      </trkpt>
      <trkpt lat="51.11293" lon="4.54758">
        <ele>2</ele>
      </trkpt>
      <trkpt lat="51.11212" lon="4.54455">
        <ele>1</ele>
      </trkpt>
      <trkpt lat="51.11155" lon="4.54246">
        <ele>3</ele>
      </trkpt>
      <trkpt lat="51.11151" lon="4.54226">
        <ele>3</ele>
      </trkpt>
      <trkpt lat="51.11148" lon="4.54178">
        <ele>3</ele>
      </trkpt>
      <trkpt lat="51.11139" lon="4.54142">
        <ele>3</ele>
      </trkpt>
      <trkpt lat="51.11123" lon="4.54083">
        <ele>3</ele>
      </trkpt>
      <trkpt lat="51.11108" lon="4.54059">
        <ele>3</ele>
      </trkpt>
      <trkpt lat="51.11032" lon="4.53753">
        <ele>2</ele>
      </trkpt>
      <trkpt lat="51.10972" lon="4.53526">
        <ele>2</ele>
      </trkpt>
      <trkpt lat="51.10952" lon="4.5346">
        <ele>2</ele>
      </trkpt>
      <trkpt lat="51.10932" lon="4.53369">
        <ele>3</ele>
      </trkpt>
      <trkpt lat="51.10925" lon="4.53336">
        <ele>3</ele>
      </trkpt>
      <trkpt lat="51.10915" lon="4.53267">
        <ele>3</ele>
      </trkpt>
      <trkpt lat="51.10895" lon="4.53097">
        <ele>3</ele>
      </trkpt>
      <trkpt lat="51.10872" lon="4.52949">
        <ele>3</ele>
      </trkpt>
      <trkpt lat="51.10865" lon="4.52911">
        <ele>3</ele>
      </trkpt>
      <trkpt lat="51.10842" lon="4.52839">
        <ele>4</ele>
      </trkpt>
      <trkpt lat="51.10793" lon="4.52667">
        <ele>5</ele>
      </trkpt>
      <trkpt lat="51.10761" lon="4.52587">
        <ele>6</ele>
      </trkpt>
      <trkpt lat="51.10731" lon="4.52523">
        <ele>6</ele>
      </trkpt>
      <trkpt lat="51.10699" lon="4.52464">
        <ele>6</ele>
      </trkpt>
      <trkpt lat="51.10633" lon="4.52351">
        <ele>4</ele>
      </trkpt>
      <trkpt lat="51.10562" lon="4.52243">
        <ele>3</ele>
      </trkpt>
      <trkpt lat="51.10445" lon="4.52071">
        <ele>4</ele>
      </trkpt>
      <trkpt lat="51.10385" lon="4.51998">
        <ele>3</ele>
      </trkpt>
      <trkpt lat="51.10344" lon="4.51958">
        <ele>3</ele>
      </trkpt>
      <trkpt lat="51.10245" lon="4.51875">
        <ele>3</ele>
      </trkpt>
      <trkpt lat="51.10168" lon="4.51803">
        <ele>3</ele>
      </trkpt>
      <trkpt lat="51.10133" lon="4.51763">
        <ele>3</ele>
      </trkpt>
      <trkpt lat="51.10098" lon="4.51717">
        <ele>4</ele>
      </trkpt>
      <trkpt lat="51.10066" lon="4.51666">
        <ele>5</ele>
      </trkpt>
      <trkpt lat="51.1004" lon="4.51615">
        <ele>5</ele>
      </trkpt>
      <trkpt lat="51.10014" lon="4.51554">
        <ele>5</ele>
      </trkpt>
      <trkpt lat="51.09991" lon="4.51482">
        <ele>5</ele>
      </trkpt>
      <trkpt lat="51.09961" lon="4.51372">
        <ele>5</ele>
      </trkpt>
      <trkpt lat="51.09915" lon="4.51188">
        <ele>9</ele>
      </trkpt>
      <trkpt lat="51.09893" lon="4.51129">
        <ele>9</ele>
      </trkpt>
      <trkpt lat="51.0987" lon="4.5108">
        <ele>8</ele>
      </trkpt>
      <trkpt lat="51.09845" lon="4.51038">
        <ele>8</ele>
      </trkpt>
      <trkpt lat="51.09811" lon="4.50989">
        <ele>8</ele>
      </trkpt>
      <trkpt lat="51.09774" lon="4.50941">
        <ele>8</ele>
      </trkpt>
      <trkpt lat="51.09745" lon="4.50911">
        <ele>7</ele>
      </trkpt>
      <trkpt lat="51.09723" lon="4.50891">
        <ele>7</ele>
      </trkpt>
      <trkpt lat="51.09695" lon="4.50873">
        <ele>6</ele>
      </trkpt>
      <trkpt lat="51.0968" lon="4.50862">
        <ele>6</ele>
      </trkpt>
      <trkpt lat="51.09643" lon="4.50831">
        <ele>6</ele>
      </trkpt>
      <trkpt lat="51.09624" lon="4.50825">
        <ele>6</ele>
      </trkpt>
      <trkpt lat="51.09585" lon="4.50814">
        <ele>5</ele>
      </trkpt>
      <trkpt lat="51.09497" lon="4.50796">
        <ele>5</ele>
      </trkpt>
      <trkpt lat="51.09491" lon="4.50804">
        <ele>5</ele>
      </trkpt>
      <trkpt lat="51.0948" lon="4.50804">
        <ele>5</ele>
      </trkpt>
      <trkpt lat="51.09474" lon="4.50808">
        <ele>5</ele>
      </trkpt>
      <trkpt lat="51.09467" lon="4.50794">
        <ele>5</ele>
      </trkpt>
      <trkpt lat="51.09407" lon="4.50776">
        <ele>5</ele>
      </trkpt>
      <trkpt lat="51.09382" lon="4.50762">
        <ele>4</ele>
      </trkpt>
      <trkpt lat="51.09338" lon="4.50745">
        <ele>4</ele>
      </trkpt>
      <trkpt lat="51.09323" lon="4.50737">
        <ele>5</ele>
      </trkpt>
      <trkpt lat="51.09293" lon="4.50711">
        <ele>5</ele>
      </trkpt>
      <trkpt lat="51.09225" lon="4.50638">
        <ele>4</ele>
      </trkpt>
      <trkpt lat="51.0919" lon="4.50587">
        <ele>3</ele>
      </trkpt>
      <trkpt lat="51.09157" lon="4.50533">
        <ele>1</ele>
      </trkpt>
      <trkpt lat="51.09126" lon="4.50476">
        <ele>2</ele>
      </trkpt>
      <trkpt lat="51.0902" lon="4.50263">
        <ele>4</ele>
      </trkpt>
      <trkpt lat="51.08995" lon="4.50219">
        <ele>6</ele>
      </trkpt>
      <trkpt lat="51.08964" lon="4.50171">
        <ele>7</ele>
      </trkpt>
      <trkpt lat="51.08934" lon="4.5013">
        <ele>7</ele>
      </trkpt>
      <trkpt lat="51.08893" lon="4.50083">
        <ele>7</ele>
      </trkpt>
      <trkpt lat="51.08763" lon="4.49949">
        <ele>4</ele>
      </trkpt>
      <trkpt lat="51.08728" lon="4.49908">
        <ele>4</ele>
      </trkpt>
      <trkpt lat="51.08692" lon="4.4986">
        <ele>4</ele>
      </trkpt>
      <trkpt lat="51.08665" lon="4.49819">
        <ele>4</ele>
      </trkpt>
      <trkpt lat="51.0864" lon="4.49773">
        <ele>4</ele>
      </trkpt>
      <trkpt lat="51.0861" lon="4.49712">
        <ele>4</ele>
      </trkpt>
      <trkpt lat="51.08591" lon="4.49665">
        <ele>5</ele>
      </trkpt>
      <trkpt lat="51.08574" lon="4.49617">
        <ele>5</ele>
      </trkpt>
      <trkpt lat="51.08544" lon="4.49521">
        <ele>6</ele>
      </trkpt>
      <trkpt lat="51.08528" lon="4.49442">
        <ele>8</ele>
      </trkpt>
      <trkpt lat="51.08497" lon="4.49315">
        <ele>8</ele>
      </trkpt>
      <trkpt lat="51.08479" lon="4.49258">
        <ele>8</ele>
      </trkpt>
      <trkpt lat="51.08463" lon="4.49213">
        <ele>8</ele>
      </trkpt>
      <trkpt lat="51.08438" lon="4.49158">
        <ele>7</ele>
      </trkpt>
      <trkpt lat="51.0841" lon="4.49104">
        <ele>7</ele>
      </trkpt>
      <trkpt lat="51.08383" lon="4.49058">
        <ele>7</ele>
      </trkpt>
      <trkpt lat="51.08348" lon="4.49004">
        <ele>7</ele>
      </trkpt>
      <trkpt lat="51.08283" lon="4.48915">
        <ele>7</ele>
      </trkpt>
      <trkpt lat="51.08172" lon="4.48786">
        <ele>6</ele>
      </trkpt>
      <trkpt lat="51.08085" lon="4.48682">
        <ele>5</ele>
      </trkpt>
      <trkpt lat="51.0805" lon="4.48633">
        <ele>5</ele>
      </trkpt>
      <trkpt lat="51.07981" lon="4.48535">
        <ele>5</ele>
      </trkpt>
      <trkpt lat="51.07949" lon="4.48486">
        <ele>6</ele>
      </trkpt>
      <trkpt lat="51.07925" lon="4.48446">
        <ele>6</ele>
      </trkpt>
      <trkpt lat="51.07864" lon="4.4834">
        <ele>6</ele>
      </trkpt>
      <trkpt lat="51.0784" lon="4.48302">
        <ele>5</ele>
      </trkpt>
      <trkpt lat="51.07721" lon="4.48127">
        <ele>4</ele>
      </trkpt>
      <trkpt lat="51.07632" lon="4.48012">
        <ele>4</ele>
      </trkpt>
      <trkpt lat="51.07595" lon="4.4797">
        <ele>3</ele>
      </trkpt>
      <trkpt lat="51.07529" lon="4.47878">
        <ele>4</ele>
      </trkpt>
      <trkpt lat="51.07475" lon="4.47798">
        <ele>6</ele>
      </trkpt>
      <trkpt lat="51.07452" lon="4.4776">
        <ele>6</ele>
      </trkpt>
      <trkpt lat="51.07405" lon="4.47671">
        <ele>6</ele>
      </trkpt>
      <trkpt lat="51.07389" lon="4.47637">
        <ele>4</ele>
      </trkpt>
      <trkpt lat="51.07373" lon="4.47598">
        <ele>4</ele>
      </trkpt>
      <trkpt lat="51.07349" lon="4.4753">
        <ele>3</ele>
      </trkpt>
      <trkpt lat="51.07325" lon="4.47439">
        <ele>2</ele>
      </trkpt>
      <trkpt lat="51.07311" lon="4.4737">
        <ele>2</ele>
      </trkpt>
      <trkpt lat="51.0729" lon="4.47234">
        <ele>1</ele>
      </trkpt>
      <trkpt lat="51.07264" lon="4.47052">
        <ele>2</ele>
      </trkpt>
      <trkpt lat="51.07247" lon="4.46871">
        <ele>2</ele>
      </trkpt>
      <trkpt lat="51.07243" lon="4.46817">
        <ele>3</ele>
      </trkpt>
      <trkpt lat="51.07244" lon="4.46756">
        <ele>3</ele>
      </trkpt>
      <trkpt lat="51.07255" lon="4.46671">
        <ele>3</ele>
      </trkpt>
      <trkpt lat="51.07284" lon="4.46525">
        <ele>0</ele>
      </trkpt>
      <trkpt lat="51.07319" lon="4.46365">
        <ele>0</ele>
      </trkpt>
      <trkpt lat="51.07342" lon="4.46244">
        <ele>0</ele>
      </trkpt>
      <trkpt lat="51.07348" lon="4.46196">
        <ele>1</ele>
      </trkpt>
      <trkpt lat="51.07351" lon="4.46146">
        <ele>1</ele>
      </trkpt>
      <trkpt lat="51.07351" lon="4.46056">
        <ele>1</ele>
      </trkpt>
      <trkpt lat="51.07341" lon="4.45962">
        <ele>1</ele>
      </trkpt>
      <trkpt lat="51.07321" lon="4.45859">
        <ele>2</ele>
      </trkpt>
      <trkpt lat="51.07309" lon="4.45812">
        <ele>2</ele>
      </trkpt>
      <trkpt lat="51.07294" lon="4.45767">
        <ele>2</ele>
      </trkpt>
      <trkpt lat="51.07277" lon="4.45722">
        <ele>2</ele>
      </trkpt>
      <trkpt lat="51.07196" lon="4.45512">
        <ele>2</ele>
      </trkpt>
      <trkpt lat="51.07174" lon="4.45443">
        <ele>2</ele>
      </trkpt>
      <trkpt lat="51.07156" lon="4.45372">
        <ele>2</ele>
      </trkpt>
      <trkpt lat="51.0715" lon="4.45358">
        <ele>2</ele>
      </trkpt>
      <trkpt lat="51.07147" lon="4.45342">
        <ele>2</ele>
      </trkpt>
      <trkpt lat="51.0714" lon="4.45304">
        <ele>2</ele>
      </trkpt>
      <trkpt lat="51.07134" lon="4.45303">
        <ele>2</ele>
      </trkpt>
      <trkpt lat="51.07132" lon="4.45288">
        <ele>2</ele>
      </trkpt>
      <trkpt lat="51.07136" lon="4.45285">
        <ele>2</ele>
      </trkpt>
      <trkpt lat="51.07134" lon="4.45274">
        <ele>2</ele>
      </trkpt>
      <trkpt lat="51.07241" lon="4.45224">
        <ele>2</ele>
      </trkpt>
      <trkpt lat="51.0724" lon="4.4521">
        <ele>2</ele>
      </trkpt>
      <trkpt lat="51.07216" lon="4.452">
        <ele>2</ele>
      </trkpt>
      <trkpt lat="51.07209" lon="4.45192">
        <ele>2</ele>
      </trkpt>
      <trkpt lat="51.07206" lon="4.45152">
        <ele>2</ele>
      </trkpt>
      <trkpt lat="51.07206" lon="4.45045">
        <ele>2</ele>
      </trkpt>
      <trkpt lat="51.07208" lon="4.44983">
        <ele>1</ele>
      </trkpt>
      <trkpt lat="51.07219" lon="4.4489">
        <ele>1</ele>
      </trkpt>
      <trkpt lat="51.07231" lon="4.44833">
        <ele>1</ele>
      </trkpt>
      <trkpt lat="51.07244" lon="4.44788">
        <ele>1</ele>
      </trkpt>
      <trkpt lat="51.07277" lon="4.44699">
        <ele>1</ele>
      </trkpt>
      <trkpt lat="51.073" lon="4.44655">
        <ele>3</ele>
      </trkpt>
      <trkpt lat="51.07335" lon="4.44596">
        <ele>3</ele>
      </trkpt>
      <trkpt lat="51.07371" lon="4.44546">
        <ele>5</ele>
      </trkpt>
      <trkpt lat="51.07403" lon="4.4451">
        <ele>6</ele>
      </trkpt>
      <trkpt lat="51.07435" lon="4.44484">
        <ele>7</ele>
      </trkpt>
      <trkpt lat="51.07645" lon="4.44333">
        <ele>7</ele>
      </trkpt>
      <trkpt lat="51.07678" lon="4.44306">
        <ele>5</ele>
      </trkpt>
      <trkpt lat="51.07719" lon="4.44264">
        <ele>6</ele>
      </trkpt>
      <trkpt lat="51.07736" lon="4.44243">
        <ele>6</ele>
      </trkpt>
      <trkpt lat="51.07782" lon="4.44176">
        <ele>5</ele>
      </trkpt>
      <trkpt lat="51.07809" lon="4.44122">
        <ele>4</ele>
      </trkpt>
      <trkpt lat="51.07841" lon="4.44042">
        <ele>4</ele>
      </trkpt>
      <trkpt lat="51.0787" lon="4.43947">
        <ele>4</ele>
      </trkpt>
      <trkpt lat="51.07892" lon="4.43837">
        <ele>4</ele>
      </trkpt>
      <trkpt lat="51.07898" lon="4.43762">
        <ele>5</ele>
      </trkpt>
      <trkpt lat="51.07902" lon="4.43695">
        <ele>5</ele>
      </trkpt>
      <trkpt lat="51.07901" lon="4.43634">
        <ele>7</ele>
      </trkpt>
      <trkpt lat="51.07897" lon="4.43551">
        <ele>8</ele>
      </trkpt>
      <trkpt lat="51.07888" lon="4.43474">
        <ele>9</ele>
      </trkpt>
      <trkpt lat="51.07871" lon="4.43394">
        <ele>9</ele>
      </trkpt>
      <trkpt lat="51.07843" lon="4.43302">
        <ele>7</ele>
      </trkpt>
      <trkpt lat="51.07819" lon="4.43242">
        <ele>7</ele>
      </trkpt>
      <trkpt lat="51.07796" lon="4.43193">
        <ele>6</ele>
      </trkpt>
      <trkpt lat="51.07773" lon="4.43153">
        <ele>6</ele>
      </trkpt>
      <trkpt lat="51.07748" lon="4.43117">
        <ele>5</ele>
      </trkpt>
      <trkpt lat="51.07702" lon="4.4306">
        <ele>5</ele>
      </trkpt>
      <trkpt lat="51.07638" lon="4.42986">
        <ele>4</ele>
      </trkpt>
      <trkpt lat="51.07598" lon="4.42946">
        <ele>3</ele>
      </trkpt>
      <trkpt lat="51.07558" lon="4.42895">
        <ele>3</ele>
      </trkpt>
      <trkpt lat="51.07537" lon="4.42865">
        <ele>3</ele>
      </trkpt>
      <trkpt lat="51.07517" lon="4.42827">
        <ele>3</ele>
      </trkpt>
      <trkpt lat="51.07495" lon="4.4279">
        <ele>3</ele>
      </trkpt>
      <trkpt lat="51.07472" lon="4.42742">
        <ele>3</ele>
      </trkpt>
      <trkpt lat="51.07459" lon="4.42708">
        <ele>3</ele>
      </trkpt>
      <trkpt lat="51.07441" lon="4.42652">
        <ele>3</ele>
      </trkpt>
      <trkpt lat="51.07416" lon="4.42544">
        <ele>5</ele>
      </trkpt>
      <trkpt lat="51.07411" lon="4.42538">
        <ele>5</ele>
      </trkpt>
      <trkpt lat="51.07405" lon="4.42509">
        <ele>5</ele>
      </trkpt>
      <trkpt lat="51.07394" lon="4.42451">
        <ele>6</ele>
      </trkpt>
      <trkpt lat="51.0726" lon="4.42432">
        <ele>7</ele>
      </trkpt>
      <trkpt lat="51.07253" lon="4.42435">
        <ele>7</ele>
      </trkpt>
      <trkpt lat="51.07251" lon="4.42437">
        <ele>7</ele>
      </trkpt>
      <trkpt lat="51.07125" lon="4.42419">
        <ele>6</ele>
      </trkpt>
      <trkpt lat="51.07117" lon="4.42412">
        <ele>6</ele>
      </trkpt>
      <trkpt lat="51.07064" lon="4.42417">
        <ele>6</ele>
      </trkpt>
      <trkpt lat="51.07059" lon="4.4241">
        <ele>6</ele>
      </trkpt>
      <trkpt lat="51.06995" lon="4.42308">
        <ele>2</ele>
      </trkpt>
      <trkpt lat="51.06954" lon="4.42361">
        <ele>3</ele>
      </trkpt>
      <trkpt lat="51.06921" lon="4.42377">
        <ele>3</ele>
      </trkpt>
      <trkpt lat="51.06855" lon="4.42387">
        <ele>3</ele>
      </trkpt>
      <trkpt lat="51.06837" lon="4.42397">
        <ele>2</ele>
      </trkpt>
      <trkpt lat="51.06802" lon="4.42431">
        <ele>2</ele>
      </trkpt>
      <trkpt lat="51.06731" lon="4.42526">
        <ele>1</ele>
      </trkpt>
      <trkpt lat="51.06717" lon="4.42549">
        <ele>1</ele>
      </trkpt>
      <trkpt lat="51.06627" lon="4.42779">
        <ele>2</ele>
      </trkpt>
      <trkpt lat="51.06598" lon="4.42835">
        <ele>1</ele>
      </trkpt>
      <trkpt lat="51.06516" lon="4.42899">
        <ele>1</ele>
      </trkpt>
      <trkpt lat="51.06497" lon="4.4291">
        <ele>1</ele>
      </trkpt>
      <trkpt lat="51.06478" lon="4.4291">
        <ele>1</ele>
      </trkpt>
      <trkpt lat="51.06466" lon="4.42907">
        <ele>0</ele>
      </trkpt>
      <trkpt lat="51.06399" lon="4.42873">
        <ele>1</ele>
      </trkpt>
      <trkpt lat="51.06289" lon="4.42843">
        <ele>1</ele>
      </trkpt>
      <trkpt lat="51.06281" lon="4.42931">
        <ele>2</ele>
      </trkpt>
      <trkpt lat="51.06279" lon="4.42944">
        <ele>2</ele>
      </trkpt>
      <trkpt lat="51.06273" lon="4.4296">
        <ele>2</ele>
      </trkpt>
      <trkpt lat="51.06272" lon="4.42993">
        <ele>2</ele>
      </trkpt>
      <trkpt lat="51.06278" lon="4.43055">
        <ele>2</ele>
      </trkpt>
      <trkpt lat="51.06239" lon="4.4307">
        <ele>2</ele>
      </trkpt>
      <trkpt lat="51.06246" lon="4.43124">
        <ele>2</ele>
      </trkpt>
      <trkpt lat="51.06065" lon="4.43184">
        <ele>3</ele>
      </trkpt>
      <trkpt lat="51.05956" lon="4.43221">
        <ele>3</ele>
      </trkpt>
      <trkpt lat="51.05543" lon="4.43355">
        <ele>3</ele>
      </trkpt>
      <trkpt lat="51.05511" lon="4.43367">
        <ele>3</ele>
      </trkpt>
      <trkpt lat="51.05308" lon="4.43435">
        <ele>1</ele>
      </trkpt>
      <trkpt lat="51.04726" lon="4.43633">
        <ele>2</ele>
      </trkpt>
      <trkpt lat="51.0454" lon="4.43704">
        <ele>5</ele>
      </trkpt>
      <trkpt lat="51.04487" lon="4.43739">
        <ele>6</ele>
      </trkpt>
      <trkpt lat="51.04442" lon="4.43788">
        <ele>6</ele>
      </trkpt>
      <trkpt lat="51.04243" lon="4.44074">
        <ele>6</ele>
      </trkpt>
      <trkpt lat="51.04058" lon="4.44344">
        <ele>6</ele>
      </trkpt>
      <trkpt lat="51.04053" lon="4.44354">
        <ele>6</ele>
      </trkpt>
      <trkpt lat="51.04052" lon="4.44366">
        <ele>6</ele>
      </trkpt>
      <trkpt lat="51.04048" lon="4.44367">
        <ele>6</ele>
      </trkpt>
      <trkpt lat="51.04008" lon="4.44422">
        <ele>6</ele>
      </trkpt>
      <trkpt lat="51.03969" lon="4.44482">
        <ele>6</ele>
      </trkpt>
      <trkpt lat="51.03963" lon="4.44486">
        <ele>6</ele>
      </trkpt>
      <trkpt lat="51.03943" lon="4.44511">
        <ele>6</ele>
      </trkpt>
      <trkpt lat="51.03911" lon="4.44561">
        <ele>5</ele>
      </trkpt>
      <trkpt lat="51.03879" lon="4.44607">
        <ele>5</ele>
      </trkpt>
      <trkpt lat="51.03854" lon="4.44634">
        <ele>5</ele>
      </trkpt>
      <trkpt lat="51.03835" lon="4.44661">
        <ele>4</ele>
      </trkpt>
      <trkpt lat="51.0381" lon="4.44717">
        <ele>4</ele>
      </trkpt>
      <trkpt lat="51.03653" lon="4.44949">
        <ele>9</ele>
      </trkpt>
      <trkpt lat="51.03526" lon="4.45141">
        <ele>8</ele>
      </trkpt>
      <trkpt lat="51.03422" lon="4.45293">
        <ele>8</ele>
      </trkpt>
      <trkpt lat="51.03193" lon="4.45633">
        <ele>8</ele>
      </trkpt>
      <trkpt lat="51.03038" lon="4.45857">
        <ele>5</ele>
      </trkpt>
      <trkpt lat="51.02497" lon="4.46661">
        <ele>7</ele>
      </trkpt>
      <trkpt lat="51.02306" lon="4.4694">
        <ele>8</ele>
      </trkpt>
      <trkpt lat="51.02274" lon="4.4699">
        <ele>9</ele>
      </trkpt>
      <trkpt lat="51.0227" lon="4.47002">
        <ele>9</ele>
      </trkpt>
      <trkpt lat="51.02236" lon="4.47054">
        <ele>9</ele>
      </trkpt>
      <trkpt lat="51.02161" lon="4.47163">
        <ele>10</ele>
      </trkpt>
      <trkpt lat="51.02151" lon="4.47167">
        <ele>10</ele>
      </trkpt>
      <trkpt lat="51.02128" lon="4.47199">
        <ele>10</ele>
      </trkpt>
      <trkpt lat="51.02115" lon="4.47232">
        <ele>10</ele>
      </trkpt>
      <trkpt lat="51.02045" lon="4.47319">
        <ele>10</ele>
      </trkpt>
      <trkpt lat="51.01895" lon="4.47576">
        <ele>11</ele>
      </trkpt>
      <trkpt lat="51.01888" lon="4.47597">
        <ele>11</ele>
      </trkpt>
      <trkpt lat="51.01642" lon="4.48017">
        <ele>12</ele>
      </trkpt>
      <trkpt lat="51.01635" lon="4.48027">
        <ele>12</ele>
      </trkpt>
      <trkpt lat="51.01633" lon="4.48037">
        <ele>12</ele>
      </trkpt>
      <trkpt lat="51.01544" lon="4.48187">
        <ele>11</ele>
      </trkpt>
      <trkpt lat="51.01497" lon="4.48261">
        <ele>9</ele>
      </trkpt>
      <trkpt lat="51.01473" lon="4.48228">
        <ele>10</ele>
      </trkpt>
      <trkpt lat="51.01466" lon="4.48227">
        <ele>10</ele>
      </trkpt>
      <trkpt lat="51.01457" lon="4.48229">
        <ele>10</ele>
      </trkpt>
      <trkpt lat="51.01445" lon="4.48244">
        <ele>9</ele>
      </trkpt>
      <trkpt lat="51.01436" lon="4.48268">
        <ele>9</ele>
      </trkpt>
      <trkpt lat="51.01419" lon="4.483">
        <ele>9</ele>
      </trkpt>
      <trkpt lat="51.0141" lon="4.48305">
        <ele>9</ele>
      </trkpt>
      <trkpt lat="51.01407" lon="4.48329">
        <ele>9</ele>
      </trkpt>
      <trkpt lat="51.01388" lon="4.48363">
        <ele>9</ele>
      </trkpt>
      <trkpt lat="51.01337" lon="4.48447">
        <ele>7</ele>
      </trkpt>
      <trkpt lat="51.01269" lon="4.48566">
        <ele>7</ele>
      </trkpt>
      <trkpt lat="51.01248" lon="4.48596">
        <ele>8</ele>
      </trkpt>
      <trkpt lat="51.01235" lon="4.48624">
        <ele>8</ele>
      </trkpt>
      <trkpt lat="51.0116" lon="4.48749">
        <ele>9</ele>
      </trkpt>
      <trkpt lat="51.01138" lon="4.48783">
        <ele>8</ele>
      </trkpt>
      <trkpt lat="51.01112" lon="4.48828">
        <ele>9</ele>
      </trkpt>
      <trkpt lat="51.00845" lon="4.49286">
        <ele>8</ele>
      </trkpt>
      <trkpt lat="51.00818" lon="4.49337">
        <ele>9</ele>
      </trkpt>
      <trkpt lat="51.0054" lon="4.4994">
        <ele>9</ele>
      </trkpt>
      <trkpt lat="51.00219" lon="4.50637">
        <ele>6</ele>
      </trkpt>
      <trkpt lat="51.00059" lon="4.50987">
        <ele>6</ele>
      </trkpt>
      <trkpt lat="50.99679" lon="4.51831">
        <ele>9</ele>
      </trkpt>
      <trkpt lat="50.99372" lon="4.52512">
        <ele>9</ele>
      </trkpt>
      <trkpt lat="50.99212" lon="4.52859">
        <ele>9</ele>
      </trkpt>
      <trkpt lat="50.99163" lon="4.52963">
        <ele>8</ele>
      </trkpt>
      <trkpt lat="50.99155" lon="4.52975">
        <ele>8</ele>
      </trkpt>
      <trkpt lat="50.99148" lon="4.5298">
        <ele>8</ele>
      </trkpt>
      <trkpt lat="50.99097" lon="4.53001">
        <ele>8</ele>
      </trkpt>
      <trkpt lat="50.98954" lon="4.53118">
        <ele>9</ele>
      </trkpt>
      <trkpt lat="50.98937" lon="4.5315">
        <ele>9</ele>
      </trkpt>
      <trkpt lat="50.98926" lon="4.53166">
        <ele>9</ele>
      </trkpt>
      <trkpt lat="50.98799" lon="4.53285">
        <ele>9</ele>
      </trkpt>
      <trkpt lat="50.98776" lon="4.53266">
        <ele>9</ele>
      </trkpt>
      <trkpt lat="50.98681" lon="4.53209">
        <ele>10</ele>
      </trkpt>
      <trkpt lat="50.9866" lon="4.53193">
        <ele>10</ele>
      </trkpt>
      <trkpt lat="50.98633" lon="4.53166">
        <ele>10</ele>
      </trkpt>
      <trkpt lat="50.98595" lon="4.53122">
        <ele>11</ele>
      </trkpt>
      <trkpt lat="50.98574" lon="4.5309">
        <ele>11</ele>
      </trkpt>
      <trkpt lat="50.98567" lon="4.53083">
        <ele>11</ele>
      </trkpt>
      <trkpt lat="50.98523" lon="4.53064">
        <ele>11</ele>
      </trkpt>
      <trkpt lat="50.98441" lon="4.5304">
        <ele>10</ele>
      </trkpt>
      <trkpt lat="50.98375" lon="4.53024">
        <ele>9</ele>
      </trkpt>
      <trkpt lat="50.98338" lon="4.53022">
        <ele>9</ele>
      </trkpt>
      <trkpt lat="50.98085" lon="4.53076">
        <ele>9</ele>
      </trkpt>
      <trkpt lat="50.9807" lon="4.53081">
        <ele>9</ele>
      </trkpt>
      <trkpt lat="50.98064" lon="4.53086">
        <ele>9</ele>
      </trkpt>
      <trkpt lat="50.98096" lon="4.53185">
        <ele>9</ele>
      </trkpt>
      <trkpt lat="50.98112" lon="4.53244">
        <ele>8</ele>
      </trkpt>
      <trkpt lat="50.98189" lon="4.53639">
        <ele>9</ele>
      </trkpt>
      <trkpt lat="50.98205" lon="4.53734">
        <ele>9</ele>
      </trkpt>
      <trkpt lat="50.98211" lon="4.5378">
        <ele>9</ele>
      </trkpt>
      <trkpt lat="50.98215" lon="4.5385">
        <ele>8</ele>
      </trkpt>
      <trkpt lat="50.98214" lon="4.53898">
        <ele>8</ele>
      </trkpt>
      <trkpt lat="50.98196" lon="4.5408">
        <ele>8</ele>
      </trkpt>
      <trkpt lat="50.98176" lon="4.54243">
        <ele>7</ele>
      </trkpt>
      <trkpt lat="50.98171" lon="4.54301">
        <ele>7</ele>
      </trkpt>
      <trkpt lat="50.98168" lon="4.5436">
        <ele>7</ele>
      </trkpt>
      <trkpt lat="50.98161" lon="4.54363">
        <ele>7</ele>
      </trkpt>
      <trkpt lat="50.98158" lon="4.54371">
        <ele>7</ele>
      </trkpt>
      <trkpt lat="50.98158" lon="4.54376">
        <ele>7</ele>
      </trkpt>
      <trkpt lat="50.98148" lon="4.54377">
        <ele>7</ele>
      </trkpt>
      <trkpt lat="50.98137" lon="4.54372">
        <ele>7</ele>
      </trkpt>
      <trkpt lat="50.98123" lon="4.54365">
        <ele>7</ele>
      </trkpt>
      <trkpt lat="50.98114" lon="4.54421">
        <ele>8</ele>
      </trkpt>
      <trkpt lat="50.98109" lon="4.54444">
        <ele>8</ele>
      </trkpt>
      <trkpt lat="50.97949" lon="4.5479">
        <ele>9</ele>
      </trkpt>
      <trkpt lat="50.97822" lon="4.55019">
        <ele>8</ele>
      </trkpt>
      <trkpt lat="50.97758" lon="4.55131">
        <ele>9</ele>
      </trkpt>
      <trkpt lat="50.9768" lon="4.55254">
        <ele>9</ele>
      </trkpt>
      <trkpt lat="50.9767" lon="4.55254">
        <ele>9</ele>
      </trkpt>
      <trkpt lat="50.97609" lon="4.55169">
        <ele>9</ele>
      </trkpt>
      <trkpt lat="50.97597" lon="4.55156">
        <ele>9</ele>
      </trkpt>
      <trkpt lat="50.97587" lon="4.55152">
        <ele>9</ele>
      </trkpt>
      <trkpt lat="50.97513" lon="4.55274">
        <ele>8</ele>
      </trkpt>
      <trkpt lat="50.97494" lon="4.55297">
        <ele>8</ele>
      </trkpt>
      <trkpt lat="50.97453" lon="4.55331">
        <ele>8</ele>
      </trkpt>
      <trkpt lat="50.97434" lon="4.55346">
        <ele>7</ele>
      </trkpt>
      <trkpt lat="50.97475" lon="4.5556">
        <ele>8</ele>
      </trkpt>
      <trkpt lat="50.97522" lon="4.55718">
        <ele>7</ele>
      </trkpt>
      <trkpt lat="50.97525" lon="4.55737">
        <ele>7</ele>
      </trkpt>
      <trkpt lat="50.97524" lon="4.55753">
        <ele>7</ele>
      </trkpt>
      <trkpt lat="50.97517" lon="4.55775">
        <ele>7</ele>
      </trkpt>
      <trkpt lat="50.97448" lon="4.55877">
        <ele>8</ele>
      </trkpt>
      <trkpt lat="50.97433" lon="4.55857">
        <ele>8</ele>
      </trkpt>
      <trkpt lat="50.97412" lon="4.55839">
        <ele>8</ele>
      </trkpt>
      <trkpt lat="50.97397" lon="4.55833">
        <ele>8</ele>
      </trkpt>
      <trkpt lat="50.97273" lon="4.55812">
        <ele>8</ele>
      </trkpt>
      <trkpt lat="50.97241" lon="4.55819">
        <ele>8</ele>
      </trkpt>
      <trkpt lat="50.97095" lon="4.55878">
        <ele>8</ele>
      </trkpt>
      <trkpt lat="50.97063" lon="4.559">
        <ele>8</ele>
      </trkpt>
      <trkpt lat="50.97017" lon="4.55942">
        <ele>8</ele>
      </trkpt>
      <trkpt lat="50.96971" lon="4.55978">
        <ele>9</ele>
      </trkpt>
      <trkpt lat="50.9694" lon="4.55987">
        <ele>9</ele>
      </trkpt>
      <trkpt lat="50.96916" lon="4.55978">
        <ele>9</ele>
      </trkpt>
      <trkpt lat="50.96901" lon="4.55966">
        <ele>9</ele>
      </trkpt>
      <trkpt lat="50.96883" lon="4.55941">
        <ele>10</ele>
      </trkpt>
      <trkpt lat="50.96871" lon="4.55925">
        <ele>9</ele>
      </trkpt>
      <trkpt lat="50.96861" lon="4.55918">
        <ele>9</ele>
      </trkpt>
      <trkpt lat="50.96842" lon="4.55912">
        <ele>9</ele>
      </trkpt>
      <trkpt lat="50.96799" lon="4.5592">
        <ele>9</ele>
      </trkpt>
      <trkpt lat="50.96786" lon="4.55927">
        <ele>9</ele>
      </trkpt>
      <trkpt lat="50.96777" lon="4.55935">
        <ele>9</ele>
      </trkpt>
      <trkpt lat="50.96749" lon="4.55971">
        <ele>8</ele>
      </trkpt>
      <trkpt lat="50.96641" lon="4.56086">
        <ele>8</ele>
      </trkpt>
      <trkpt lat="50.96601" lon="4.56122">
        <ele>8</ele>
      </trkpt>
      <trkpt lat="50.965" lon="4.56219">
        <ele>9</ele>
      </trkpt>
      <trkpt lat="50.96488" lon="4.56233">
        <ele>9</ele>
      </trkpt>
      <trkpt lat="50.96461" lon="4.56273">
        <ele>9</ele>
      </trkpt>
      <trkpt lat="50.96455" lon="4.56278">
        <ele>9</ele>
      </trkpt>
      <trkpt lat="50.9645" lon="4.56275">
        <ele>9</ele>
      </trkpt>
      <trkpt lat="50.96352" lon="4.56123">
        <ele>9</ele>
      </trkpt>
      <trkpt lat="50.96288" lon="4.56042">
        <ele>9</ele>
      </trkpt>
      <trkpt lat="50.96275" lon="4.56022">
        <ele>10</ele>
      </trkpt>
      <trkpt lat="50.96238" lon="4.55887">
        <ele>9</ele>
      </trkpt>
      <trkpt lat="50.96216" lon="4.5581">
        <ele>9</ele>
      </trkpt>
      <trkpt lat="50.96211" lon="4.55799">
        <ele>9</ele>
      </trkpt>
      <trkpt lat="50.96205" lon="4.55789">
        <ele>9</ele>
      </trkpt>
      <trkpt lat="50.96088" lon="4.55684">
        <ele>10</ele>
      </trkpt>
      <trkpt lat="50.9603" lon="4.55655">
        <ele>9</ele>
      </trkpt>
      <trkpt lat="50.95977" lon="4.55608">
        <ele>8</ele>
      </trkpt>
      <trkpt lat="50.95962" lon="4.55609">
        <ele>9</ele>
      </trkpt>
      <trkpt lat="50.95884" lon="4.55652">
        <ele>9</ele>
      </trkpt>
      <trkpt lat="50.95871" lon="4.55652">
        <ele>9</ele>
      </trkpt>
      <trkpt lat="50.95863" lon="4.55648">
        <ele>9</ele>
      </trkpt>
      <trkpt lat="50.95841" lon="4.55624">
        <ele>10</ele>
      </trkpt>
      <trkpt lat="50.95765" lon="4.55532">
        <ele>10</ele>
      </trkpt>
      <trkpt lat="50.95756" lon="4.55518">
        <ele>10</ele>
      </trkpt>
      <trkpt lat="50.95747" lon="4.55511">
        <ele>10</ele>
      </trkpt>
      <trkpt lat="50.95744" lon="4.55512">
        <ele>10</ele>
      </trkpt>
      <trkpt lat="50.95665" lon="4.55544">
        <ele>11</ele>
      </trkpt>
      <trkpt lat="50.95647" lon="4.55554">
        <ele>11</ele>
      </trkpt>
      <trkpt lat="50.95634" lon="4.5557">
        <ele>10</ele>
      </trkpt>
      <trkpt lat="50.95618" lon="4.55595">
        <ele>10</ele>
      </trkpt>
      <trkpt lat="50.95589" lon="4.55699">
        <ele>10</ele>
      </trkpt>
      <trkpt lat="50.95579" lon="4.55732">
        <ele>10</ele>
      </trkpt>
      <trkpt lat="50.95565" lon="4.55763">
        <ele>9</ele>
      </trkpt>
      <trkpt lat="50.95554" lon="4.55787">
        <ele>9</ele>
      </trkpt>
      <trkpt lat="50.95404" lon="4.56065">
        <ele>9</ele>
      </trkpt>
      <trkpt lat="50.95327" lon="4.56139">
        <ele>10</ele>
      </trkpt>
      <trkpt lat="50.95146" lon="4.56298">
        <ele>10</ele>
      </trkpt>
      <trkpt lat="50.95075" lon="4.56349">
        <ele>11</ele>
      </trkpt>
      <trkpt lat="50.94984" lon="4.56395">
        <ele>11</ele>
      </trkpt>
      <trkpt lat="50.94761" lon="4.56474">
        <ele>10</ele>
      </trkpt>
      <trkpt lat="50.94734" lon="4.56478">
        <ele>10</ele>
      </trkpt>
      <trkpt lat="50.94525" lon="4.56471">
        <ele>11</ele>
      </trkpt>
      <trkpt lat="50.94506" lon="4.56465">
        <ele>11</ele>
      </trkpt>
      <trkpt lat="50.94477" lon="4.56446">
        <ele>10</ele>
      </trkpt>
      <trkpt lat="50.9445" lon="4.56436">
        <ele>11</ele>
      </trkpt>
      <trkpt lat="50.94436" lon="4.56436">
        <ele>11</ele>
      </trkpt>
      <trkpt lat="50.94354" lon="4.56444">
        <ele>12</ele>
      </trkpt>
      <trkpt lat="50.94281" lon="4.56436">
        <ele>13</ele>
      </trkpt>
      <trkpt lat="50.94258" lon="4.56441">
        <ele>13</ele>
      </trkpt>
      <trkpt lat="50.94133" lon="4.56448">
        <ele>13</ele>
      </trkpt>
      <trkpt lat="50.9411" lon="4.56444">
        <ele>13</ele>
      </trkpt>
      <trkpt lat="50.94038" lon="4.56411">
        <ele>13</ele>
      </trkpt>
      <trkpt lat="50.93803" lon="4.56375">
        <ele>13</ele>
      </trkpt>
      <trkpt lat="50.9378" lon="4.56376">
        <ele>13</ele>
      </trkpt>
      <trkpt lat="50.93763" lon="4.56379">
        <ele>13</ele>
      </trkpt>
      <trkpt lat="50.93729" lon="4.56393">
        <ele>12</ele>
      </trkpt>
      <trkpt lat="50.93688" lon="4.56422">
        <ele>12</ele>
      </trkpt>
      <trkpt lat="50.93627" lon="4.56478">
        <ele>12</ele>
      </trkpt>
      <trkpt lat="50.93226" lon="4.56877">
        <ele>14</ele>
      </trkpt>
      <trkpt lat="50.93099" lon="4.57037">
        <ele>14</ele>
      </trkpt>
      <trkpt lat="50.93087" lon="4.57046">
        <ele>15</ele>
      </trkpt>
      <trkpt lat="50.93078" lon="4.57047">
        <ele>15</ele>
      </trkpt>
      <trkpt lat="50.93066" lon="4.57045">
        <ele>15</ele>
      </trkpt>
      <trkpt lat="50.9305" lon="4.57037">
        <ele>15</ele>
      </trkpt>
      <trkpt lat="50.93038" lon="4.5702">
        <ele>15</ele>
      </trkpt>
      <trkpt lat="50.93011" lon="4.56968">
        <ele>15</ele>
      </trkpt>
      <trkpt lat="50.92875" lon="4.56709">
        <ele>14</ele>
      </trkpt>
      <trkpt lat="50.92856" lon="4.56679">
        <ele>14</ele>
      </trkpt>
      <trkpt lat="50.92825" lon="4.5664">
        <ele>14</ele>
      </trkpt>
      <trkpt lat="50.92595" lon="4.56486">
        <ele>17</ele>
      </trkpt>
      <trkpt lat="50.92575" lon="4.56475">
        <ele>17</ele>
      </trkpt>
      <trkpt lat="50.92567" lon="4.56473">
        <ele>17</ele>
      </trkpt>
      <trkpt lat="50.92554" lon="4.5647">
        <ele>18</ele>
      </trkpt>
      <trkpt lat="50.92536" lon="4.56469">
        <ele>18</ele>
      </trkpt>
      <trkpt lat="50.9252" lon="4.56471">
        <ele>18</ele>
      </trkpt>
      <trkpt lat="50.92486" lon="4.56487">
        <ele>18</ele>
      </trkpt>
      <trkpt lat="50.92467" lon="4.56504">
        <ele>17</ele>
      </trkpt>
      <trkpt lat="50.92406" lon="4.56598">
        <ele>16</ele>
      </trkpt>
      <trkpt lat="50.92357" lon="4.56679">
        <ele>17</ele>
      </trkpt>
      <trkpt lat="50.92309" lon="4.56607">
        <ele>17</ele>
      </trkpt>
      <trkpt lat="50.92293" lon="4.56569">
        <ele>17</ele>
      </trkpt>
      <trkpt lat="50.92268" lon="4.56438">
        <ele>18</ele>
      </trkpt>
      <trkpt lat="50.92264" lon="4.56428">
        <ele>18</ele>
      </trkpt>
      <trkpt lat="50.9217" lon="4.56254">
        <ele>19</ele>
      </trkpt>
      <trkpt lat="50.9216" lon="4.5624">
        <ele>19</ele>
      </trkpt>
      <trkpt lat="50.9215" lon="4.56231">
        <ele>19</ele>
      </trkpt>
      <trkpt lat="50.92132" lon="4.56226">
        <ele>19</ele>
      </trkpt>
      <trkpt lat="50.92125" lon="4.56229">
        <ele>20</ele>
      </trkpt>
      <trkpt lat="50.92112" lon="4.56245">
        <ele>20</ele>
      </trkpt>
      <trkpt lat="50.92044" lon="4.56328">
        <ele>21</ele>
      </trkpt>
      <trkpt lat="50.92037" lon="4.56314">
        <ele>21</ele>
      </trkpt>
      <trkpt lat="50.91994" lon="4.56199">
        <ele>22</ele>
      </trkpt>
      <trkpt lat="50.91937" lon="4.56252">
        <ele>23</ele>
      </trkpt>
      <trkpt lat="50.91911" lon="4.56271">
        <ele>23</ele>
      </trkpt>
      <trkpt lat="50.91869" lon="4.56301">
        <ele>23</ele>
      </trkpt>
      <trkpt lat="50.91858" lon="4.56305">
        <ele>24</ele>
      </trkpt>
      <trkpt lat="50.91836" lon="4.56303">
        <ele>24</ele>
      </trkpt>
      <trkpt lat="50.91803" lon="4.56307">
        <ele>24</ele>
      </trkpt>
      <trkpt lat="50.91774" lon="4.56321">
        <ele>24</ele>
      </trkpt>
      <trkpt lat="50.91661" lon="4.56403">
        <ele>25</ele>
      </trkpt>
      <trkpt lat="50.91616" lon="4.56428">
        <ele>25</ele>
      </trkpt>
      <trkpt lat="50.916" lon="4.56433">
        <ele>25</ele>
      </trkpt>
      <trkpt lat="50.91572" lon="4.56436">
        <ele>25</ele>
      </trkpt>
      <trkpt lat="50.91543" lon="4.56432">
        <ele>26</ele>
      </trkpt>
      <trkpt lat="50.91255" lon="4.56356">
        <ele>28</ele>
      </trkpt>
      <trkpt lat="50.91152" lon="4.56332">
        <ele>27</ele>
      </trkpt>
      <trkpt lat="50.91119" lon="4.56338">
        <ele>27</ele>
      </trkpt>
      <trkpt lat="50.91083" lon="4.56358">
        <ele>27</ele>
      </trkpt>
      <trkpt lat="50.90995" lon="4.56435">
        <ele>27</ele>
      </trkpt>
      <trkpt lat="50.90861" lon="4.56546">
        <ele>27</ele>
      </trkpt>
      <trkpt lat="50.90839" lon="4.56543">
        <ele>27</ele>
      </trkpt>
      <trkpt lat="50.9082" lon="4.56534">
        <ele>28</ele>
      </trkpt>
      <trkpt lat="50.90651" lon="4.56297">
        <ele>29</ele>
      </trkpt>
      <trkpt lat="50.90551" lon="4.5615">
        <ele>32</ele>
      </trkpt>
      <trkpt lat="50.90543" lon="4.56132">
        <ele>32</ele>
      </trkpt>
      <trkpt lat="50.90515" lon="4.56057">
        <ele>34</ele>
      </trkpt>
      <trkpt lat="50.90466" lon="4.55907">
        <ele>35</ele>
      </trkpt>
      <trkpt lat="50.90442" lon="4.55815">
        <ele>36</ele>
      </trkpt>
      <trkpt lat="50.90437" lon="4.55799">
        <ele>36</ele>
      </trkpt>
      <trkpt lat="50.90401" lon="4.55719">
        <ele>37</ele>
      </trkpt>
      <trkpt lat="50.90394" lon="4.55725">
        <ele>37</ele>
      </trkpt>
      <trkpt lat="50.90383" lon="4.55733">
        <ele>37</ele>
      </trkpt>
      <trkpt lat="50.90379" lon="4.55741">
        <ele>37</ele>
      </trkpt>
      <trkpt lat="50.90351" lon="4.55764">
        <ele>36</ele>
      </trkpt>
      <trkpt lat="50.90347" lon="4.55777">
        <ele>36</ele>
      </trkpt>
      <trkpt lat="50.90345" lon="4.55807">
        <ele>36</ele>
      </trkpt>
      <trkpt lat="50.90351" lon="4.5584">
        <ele>36</ele>
      </trkpt>
      <trkpt lat="50.9035" lon="4.55846">
        <ele>36</ele>
      </trkpt>
      <trkpt lat="50.90347" lon="4.55854">
        <ele>35</ele>
      </trkpt>
      <trkpt lat="50.90274" lon="4.55918">
        <ele>34</ele>
      </trkpt>
      <trkpt lat="50.90218" lon="4.55978">
        <ele>33</ele>
      </trkpt>
      <trkpt lat="50.90184" lon="4.5594">
        <ele>33</ele>
      </trkpt>
      <trkpt lat="50.90177" lon="4.5595">
        <ele>33</ele>
      </trkpt>
      <trkpt lat="50.90134" lon="4.55994">
        <ele>33</ele>
      </trkpt>
      <trkpt lat="50.8972" lon="4.56439">
        <ele>37</ele>
      </trkpt>
      <trkpt lat="50.89624" lon="4.56534">
        <ele>37</ele>
      </trkpt>
      <trkpt lat="50.89615" lon="4.5655">
        <ele>37</ele>
      </trkpt>
      <trkpt lat="50.89466" lon="4.56689">
        <ele>37</ele>
      </trkpt>
      <trkpt lat="50.89387" lon="4.5679">
        <ele>36</ele>
      </trkpt>
      <trkpt lat="50.89297" lon="4.5689">
        <ele>34</ele>
      </trkpt>
      <trkpt lat="50.89269" lon="4.56923">
        <ele>34</ele>
      </trkpt>
      <trkpt lat="50.892" lon="4.57021">
        <ele>35</ele>
      </trkpt>
      <trkpt lat="50.89188" lon="4.57042">
        <ele>35</ele>
      </trkpt>
      <trkpt lat="50.89178" lon="4.57054">
        <ele>35</ele>
      </trkpt>
      <trkpt lat="50.89176" lon="4.57066">
        <ele>35</ele>
      </trkpt>
      <trkpt lat="50.8917" lon="4.57079">
        <ele>36</ele>
      </trkpt>
      <trkpt lat="50.8917" lon="4.57091">
        <ele>36</ele>
      </trkpt>
      <trkpt lat="50.8915" lon="4.57096">
        <ele>36</ele>
      </trkpt>
      <trkpt lat="50.89148" lon="4.57087">
        <ele>36</ele>
      </trkpt>
      <trkpt lat="50.89139" lon="4.57095">
        <ele>36</ele>
      </trkpt>
      <trkpt lat="50.89137" lon="4.57089">
        <ele>36</ele>
      </trkpt>
      <trkpt lat="50.89118" lon="4.57113">
        <ele>36</ele>
      </trkpt>
      <trkpt lat="50.89113" lon="4.57121">
        <ele>36</ele>
      </trkpt>
      <trkpt lat="50.89101" lon="4.57121">
        <ele>36</ele>
      </trkpt>
      <trkpt lat="50.89097" lon="4.57141">
        <ele>36</ele>
      </trkpt>
      <trkpt lat="50.89088" lon="4.57167">
        <ele>37</ele>
      </trkpt>
      <trkpt lat="50.89061" lon="4.57211">
        <ele>37</ele>
      </trkpt>
      <trkpt lat="50.8905" lon="4.57229">
        <ele>37</ele>
      </trkpt>
      <trkpt lat="50.89021" lon="4.57268">
        <ele>37</ele>
      </trkpt>
      <trkpt lat="50.88936" lon="4.57354">
        <ele>38</ele>
      </trkpt>
      <trkpt lat="50.88868" lon="4.57423">
        <ele>39</ele>
      </trkpt>
      <trkpt lat="50.8883" lon="4.57476">
        <ele>42</ele>
      </trkpt>
      <trkpt lat="50.88812" lon="4.57508">
        <ele>41</ele>
      </trkpt>
      <trkpt lat="50.88757" lon="4.57651">
        <ele>44</ele>
      </trkpt>
      <trkpt lat="50.8873" lon="4.57702">
        <ele>44</ele>
      </trkpt>
      <trkpt lat="50.88719" lon="4.57719">
        <ele>44</ele>
      </trkpt>
      <trkpt lat="50.88683" lon="4.57761">
        <ele>43</ele>
      </trkpt>
      <trkpt lat="50.88625" lon="4.57824">
        <ele>44</ele>
      </trkpt>
      <trkpt lat="50.88539" lon="4.57909">
        <ele>42</ele>
      </trkpt>
      <trkpt lat="50.884" lon="4.58055">
        <ele>38</ele>
      </trkpt>
      <trkpt lat="50.88349" lon="4.58118">
        <ele>38</ele>
      </trkpt>
      <trkpt lat="50.88308" lon="4.58191">
        <ele>40</ele>
      </trkpt>
      <trkpt lat="50.88302" lon="4.58173">
        <ele>39</ele>
      </trkpt>
      <trkpt lat="50.8826" lon="4.58019">
        <ele>37</ele>
      </trkpt>
      <trkpt lat="50.88239" lon="4.57952">
        <ele>37</ele>
      </trkpt>
      <trkpt lat="50.88194" lon="4.57805">
        <ele>37</ele>
      </trkpt>
      <trkpt lat="50.88125" lon="4.57644">
        <ele>40</ele>
      </trkpt>
      <trkpt lat="50.88015" lon="4.57443">
        <ele>42</ele>
      </trkpt>
      <trkpt lat="50.8799" lon="4.57392">
        <ele>44</ele>
      </trkpt>
      <trkpt lat="50.87931" lon="4.57211">
        <ele>47</ele>
      </trkpt>
      <trkpt lat="50.87882" lon="4.57121">
        <ele>48</ele>
      </trkpt>
      <trkpt lat="50.87866" lon="4.57102">
        <ele>49</ele>
      </trkpt>
      <trkpt lat="50.87829" lon="4.57074">
        <ele>51</ele>
      </trkpt>
      <trkpt lat="50.87821" lon="4.57058">
        <ele>52</ele>
      </trkpt>
      <trkpt lat="50.8781" lon="4.57023">
        <ele>52</ele>
      </trkpt>
      <trkpt lat="50.87798" lon="4.56991">
        <ele>51</ele>
      </trkpt>
      <trkpt lat="50.87778" lon="4.56948">
        <ele>52</ele>
      </trkpt>
    </trkseg>
  </trk>
</gpx>
